{"type":"Feature","properties":{},"geometry":{"type":"LineString","coordinates":[[173.088334,-41.235019],[173.087583,-41.234075],[173.086789,-41.233074],[173.085802,-41.231654],[173.085029,-41.230331],[173.084257,-41.228943],[173.08372,-41.227975],[173.083227,-41.22691],[173.082969,-41.226038],[173.082991,-41.225441],[173.083334,-41.224989],[173.083956,-41.224182],[173.083827,-41.223698],[173.083441,-41.222843],[173.083254,-41.222381],[173.083095,-41.221563],[173.083154,-41.220815],[173.08338,-41.220159],[173.083417,-41.219744],[173.083374,-41.218814],[173.083337,-41.218422],[173.083345,-41.217964],[173.083412,-41.217653],[173.08349,-41.217421],[173.083575,-41.216931],[173.083624,-41.216407],[173.083806,-41.215947],[173.084133,-41.21522],[173.084455,-41.214478],[173.084691,-41.214179],[173.084986,-41.213808],[173.085265,-41.213118],[173.085265,-41.212751]]}}