{"type":"Feature","properties":{},"geometry":{"type":"LineString","coordinates":[[173.064376,-41.182845],[173.06311,-41.181698],[173.06193,-41.180544],[173.061039,-41.179615],[173.060267,-41.178953],[173.059398,-41.178145],[173.058915,-41.177645],[173.058025,-41.176845],[173.056791,-41.1759],[173.056115,-41.1754],[173.05546,-41.174947],[173.054637,-41.174453],[173.054315,-41.174186],[173.053482,-41.173527],[173.053124,-41.173083],[173.052671,-41.172537],[173.052269,-41.172093],[173.051939,-41.171542],[173.051548,-41.170923],[173.051287,-41.170642],[173.050832,-41.170216],[173.050477,-41.16989],[173.049884,-41.169373]]}}