{
"type": "FeatureCollection",
"name": "htrend_points_shoreline_50qtl_2100_8.5",
"crs": { "type": "name", "properties": { "name": "urn:ogc:def:crs:OGC:1.3:CRS84" } },
"features": [
{ "type": "Feature", "properties": { "50": 0.826, "retreat_50": 714.56 }, "geometry": { "type": "Point", "coordinates": [ 174.102074274845052, -36.386382926874646 ] } },
{ "type": "Feature", "properties": { "50": 0.826, "retreat_50": 699.15 }, "geometry": { "type": "Point", "coordinates": [ 174.101167015107421, -36.386378344982958 ] } },
{ "type": "Feature", "properties": { "50": 0.826, "retreat_50": 713.99 }, "geometry": { "type": "Point", "coordinates": [ 174.100231495901653, -36.386206463608993 ] } },
{ "type": "Feature", "properties": { "50": 0.826, "retreat_50": 686.33 }, "geometry": { "type": "Point", "coordinates": [ 174.099376425711085, -36.386510809176812 ] } },
{ "type": "Feature", "properties": { "50": 0.826, "retreat_50": 673.59 }, "geometry": { "type": "Point", "coordinates": [ 174.098460265793136, -36.386453504847061 ] } },
{ "type": "Feature", "properties": { "50": 0.826, "retreat_50": 694.64 }, "geometry": { "type": "Point", "coordinates": [ 174.097563938554515, -36.386513606766982 ] } },
{ "type": "Feature", "properties": { "50": 0.826, "retreat_50": 650.42 }, "geometry": { "type": "Point", "coordinates": [ 174.096711526332967, -36.386833736279868 ] } },
{ "type": "Feature", "properties": { "50": 0.826, "retreat_50": 631.93 }, "geometry": { "type": "Point", "coordinates": [ 174.095824156452522, -36.386946889860035 ] } },
{ "type": "Feature", "properties": { "50": 0.826, "retreat_50": 627.19 }, "geometry": { "type": "Point", "coordinates": [ 174.094927844769614, -36.387007092928904 ] } },
{ "type": "Feature", "properties": { "50": 0.826, "retreat_50": 615.2 }, "geometry": { "type": "Point", "coordinates": [ 174.09404570469718, -36.387151222187327 ] } },
{ "type": "Feature", "properties": { "50": 0.826, "retreat_50": 612.2 }, "geometry": { "type": "Point", "coordinates": [ 174.093148775436532, -36.387207764965652 ] } },
{ "type": "Feature", "properties": { "50": 0.826, "retreat_50": 587.52 }, "geometry": { "type": "Point", "coordinates": [ 174.092279143973968, -36.387425993877869 ] } },
{ "type": "Feature", "properties": { "50": 0.826, "retreat_50": 571.48 }, "geometry": { "type": "Point", "coordinates": [ 174.09140171448351, -36.387598047306312 ] } },
{ "type": "Feature", "properties": { "50": 0.826, "retreat_50": 571.25 }, "geometry": { "type": "Point", "coordinates": [ 174.090509170166825, -36.387680571600114 ] } },
{ "type": "Feature", "properties": { "50": 0.826, "retreat_50": 558.1 }, "geometry": { "type": "Point", "coordinates": [ 174.08964210720913, -36.387914056045581 ] } },
{ "type": "Feature", "properties": { "50": 0.826, "retreat_50": 547.74 }, "geometry": { "type": "Point", "coordinates": [ 174.088766382097731, -36.388096238165218 ] } },
{ "type": "Feature", "properties": { "50": 0.826, "retreat_50": 527.65 }, "geometry": { "type": "Point", "coordinates": [ 174.087909230049263, -36.388390475880897 ] } },
{ "type": "Feature", "properties": { "50": 0.826, "retreat_50": 508.51 }, "geometry": { "type": "Point", "coordinates": [ 174.087025034151281, -36.388523135758902 ] } },
{ "type": "Feature", "properties": { "50": 0.826, "retreat_50": 507.01 }, "geometry": { "type": "Point", "coordinates": [ 174.086131995074936, -36.388602602772103 ] } },
{ "type": "Feature", "properties": { "50": 0.826, "retreat_50": 499.36 }, "geometry": { "type": "Point", "coordinates": [ 174.085248944563489, -36.388742159618289 ] } },
{ "type": "Feature", "properties": { "50": 0.826, "retreat_50": 502.9 }, "geometry": { "type": "Point", "coordinates": [ 174.084351001976245, -36.388792126407097 ] } },
{ "type": "Feature", "properties": { "50": 0.826, "retreat_50": 515.65 }, "geometry": { "type": "Point", "coordinates": [ 174.083448549061643, -36.388814951497501 ] } },
{ "type": "Feature", "properties": { "50": 0.826, "retreat_50": 505.69 }, "geometry": { "type": "Point", "coordinates": [ 174.082551894006968, -36.388872654714774 ] } },
{ "type": "Feature", "properties": { "50": 0.826, "retreat_50": 505.5 }, "geometry": { "type": "Point", "coordinates": [ 174.081650446190821, -36.388901514518032 ] } },
{ "type": "Feature", "properties": { "50": 0.826, "retreat_50": 527.37 }, "geometry": { "type": "Point", "coordinates": [ 174.080725363476631, -36.388790904987843 ] } },
{ "type": "Feature", "properties": { "50": 0.826, "retreat_50": 572.11 }, "geometry": { "type": "Point", "coordinates": [ 174.079787572238473, -36.38860517020283 ] } },
{ "type": "Feature", "properties": { "50": 0.826, "retreat_50": 604.62 }, "geometry": { "type": "Point", "coordinates": [ 174.078853843466675, -36.388443483389302 ] } },
{ "type": "Feature", "properties": { "50": 0.826, "retreat_50": 649.51 }, "geometry": { "type": "Point", "coordinates": [ 174.077912055680855, -36.388233973081419 ] } },
{ "type": "Feature", "properties": { "50": 0.826, "retreat_50": 698.9 }, "geometry": { "type": "Point", "coordinates": [ 174.076960579268899, -36.387966964496187 ] } },
{ "type": "Feature", "properties": { "50": 0.826, "retreat_50": 752.1 }, "geometry": { "type": "Point", "coordinates": [ 174.076007674730675, -36.387691434301075 ] } },
{ "type": "Feature", "properties": { "50": 0.826, "retreat_50": 806.25 }, "geometry": { "type": "Point", "coordinates": [ 174.075057854197155, -36.387434142396337 ] } },
{ "type": "Feature", "properties": { "50": 0.826, "retreat_50": 861.34 }, "geometry": { "type": "Point", "coordinates": [ 174.074100941587403, -36.387134733021774 ] } },
{ "type": "Feature", "properties": { "50": 0.826, "retreat_50": 919.46 }, "geometry": { "type": "Point", "coordinates": [ 174.073137075471664, -36.386794018257604 ] } },
{ "type": "Feature", "properties": { "50": 0.826, "retreat_50": 976.23 }, "geometry": { "type": "Point", "coordinates": [ 174.072175410232347, -36.386466296684588 ] } },
{ "type": "Feature", "properties": { "50": 0.826, "retreat_50": 1041.04 }, "geometry": { "type": "Point", "coordinates": [ 174.071202883505777, -36.386074072662225 ] } },
{ "type": "Feature", "properties": { "50": 0.826, "retreat_50": 1116.3 }, "geometry": { "type": "Point", "coordinates": [ 174.070210965019783, -36.385566716282774 ] } },
{ "type": "Feature", "properties": { "50": 0.826, "retreat_50": 1191.87 }, "geometry": { "type": "Point", "coordinates": [ 174.069224242395961, -36.385090101199516 ] } },
{ "type": "Feature", "properties": { "50": 0.826, "retreat_50": 1279.49 }, "geometry": { "type": "Point", "coordinates": [ 174.068214632755144, -36.384477577665045 ] } },
{ "type": "Feature", "properties": { "50": 0.826, "retreat_50": 1382.14 }, "geometry": { "type": "Point", "coordinates": [ 174.06717980932811, -36.383715300614455 ] } },
{ "type": "Feature", "properties": { "50": 0.826, "retreat_50": 1492.14 }, "geometry": { "type": "Point", "coordinates": [ 174.066132512456619, -36.382878850573377 ] } },
{ "type": "Feature", "properties": { "50": 0.826, "retreat_50": 1613.75 }, "geometry": { "type": "Point", "coordinates": [ 174.065061165777763, -36.381899487449054 ] } },
{ "type": "Feature", "properties": { "50": 0.826, "retreat_50": 1745.8 }, "geometry": { "type": "Point", "coordinates": [ 174.063976900484022, -36.380843252798904 ] } },
{ "type": "Feature", "properties": { "50": 0.826, "retreat_50": 1886.4 }, "geometry": { "type": "Point", "coordinates": [ 174.062881754256267, -36.37972222210756 ] } },
{ "type": "Feature", "properties": { "50": 0.826, "retreat_50": 2033.65 }, "geometry": { "type": "Point", "coordinates": [ 174.061767607669907, -36.378488162593932 ] } },
{ "type": "Feature", "properties": { "50": 0.826, "retreat_50": 2185.65 }, "geometry": { "type": "Point", "coordinates": [ 174.060644143583346, -36.377198541688053 ] } },
{ "type": "Feature", "properties": { "50": 0.826, "retreat_50": 2338.6 }, "geometry": { "type": "Point", "coordinates": [ 174.059524403600733, -36.375930799155888 ] } },
{ "type": "Feature", "properties": { "50": 0.826, "retreat_50": 2491.55 }, "geometry": { "type": "Point", "coordinates": [ 174.058398525109254, -36.374626359207376 ] } },
{ "type": "Feature", "properties": { "50": 0.826, "retreat_50": 2638.8 }, "geometry": { "type": "Point", "coordinates": [ 174.057287175154869, -36.373407983008647 ] } },
{ "type": "Feature", "properties": { "50": 0.826, "retreat_50": 2775.6 }, "geometry": { "type": "Point", "coordinates": [ 174.056195830783111, -36.372308237221311 ] } },
{ "type": "Feature", "properties": { "50": 0.826, "retreat_50": 2892.45 }, "geometry": { "type": "Point", "coordinates": [ 174.055135270626806, -36.371391200962762 ] } },
{ "type": "Feature", "properties": { "50": 0.826, "retreat_50": 2984.6 }, "geometry": { "type": "Point", "coordinates": [ 174.055917521800893, -36.370520814863411 ] } },
{ "type": "Feature", "properties": { "50": 0.826, "retreat_50": 3043.5 }, "geometry": { "type": "Point", "coordinates": [ 174.069922576322853, -36.372295713812022 ] } },
{ "type": "Feature", "properties": { "50": 0.826, "retreat_50": 3063.45 }, "geometry": { "type": "Point", "coordinates": [ 174.078558812087834, -36.378333541122743 ] } },
{ "type": "Feature", "properties": { "50": 0.826, "retreat_50": 3039.7 }, "geometry": { "type": "Point", "coordinates": [ 174.077242962954045, -36.378373009356672 ] } },
{ "type": "Feature", "properties": { "50": 0.826, "retreat_50": 2968.45 }, "geometry": { "type": "Point", "coordinates": [ 174.075804000691249, -36.378512038295661 ] } },
{ "type": "Feature", "properties": { "50": 0.826, "retreat_50": 2844.95 }, "geometry": { "type": "Point", "coordinates": [ 174.074055392908491, -36.378901494015601 ] } },
{ "type": "Feature", "properties": { "50": 0.826, "retreat_50": 2667.3 }, "geometry": { "type": "Point", "coordinates": [ 174.071959664877028, -36.37957165522041 ] } },
{ "type": "Feature", "properties": { "50": 0.826, "retreat_50": 2436.45 }, "geometry": { "type": "Point", "coordinates": [ 174.069456020276107, -36.380571647239371 ] } },
{ "type": "Feature", "properties": { "50": 0.826, "retreat_50": 2160.95 }, "geometry": { "type": "Point", "coordinates": [ 174.066689737999582, -36.381783921305683 ] } },
{ "type": "Feature", "properties": { "50": 0.826, "retreat_50": 1856.0 }, "geometry": { "type": "Point", "coordinates": [ 174.063652190725463, -36.383215407564158 ] } },
{ "type": "Feature", "properties": { "50": 0.826, "retreat_50": 1533.95 }, "geometry": { "type": "Point", "coordinates": [ 174.060565330934679, -36.38468659229526 ] } },
{ "type": "Feature", "properties": { "50": 0.826, "retreat_50": 1210.95 }, "geometry": { "type": "Point", "coordinates": [ 174.057371422852214, -36.386244144379887 ] } },
{ "type": "Feature", "properties": { "50": 0.826, "retreat_50": 900.3 }, "geometry": { "type": "Point", "coordinates": [ 174.054364076292387, -36.387647868370301 ] } },
{ "type": "Feature", "properties": { "50": 0.826, "retreat_50": 615.3 }, "geometry": { "type": "Point", "coordinates": [ 174.051635089307268, -36.388820961507008 ] } },
{ "type": "Feature", "properties": { "50": 0.826, "retreat_50": 364.5 }, "geometry": { "type": "Point", "coordinates": [ 174.049159071973747, -36.389790444019546 ] } },
{ "type": "Feature", "properties": { "50": 0.826, "retreat_50": 152.65 }, "geometry": { "type": "Point", "coordinates": [ 174.046977260662459, -36.390523184942836 ] } },
{ "type": "Feature", "properties": { "50": 0.826, "retreat_50": -15.5 }, "geometry": { "type": "Point", "coordinates": [ 174.045119292334505, -36.390995383843439 ] } },
{ "type": "Feature", "properties": { "50": 0.826, "retreat_50": -139.95 }, "geometry": { "type": "Point", "coordinates": [ 174.043651635547434, -36.391153613869484 ] } },
{ "type": "Feature", "properties": { "50": 0.826, "retreat_50": -225.45 }, "geometry": { "type": "Point", "coordinates": [ 174.04247202451495, -36.391080152457079 ] } },
{ "type": "Feature", "properties": { "50": 0.826, "retreat_50": -275.8 }, "geometry": { "type": "Point", "coordinates": [ 174.041567974908418, -36.390785054877824 ] } },
{ "type": "Feature", "properties": { "50": 0.826, "retreat_50": -298.6 }, "geometry": { "type": "Point", "coordinates": [ 174.040880810856805, -36.390315519816212 ] } },
{ "type": "Feature", "properties": { "50": 0.826, "retreat_50": -299.55 }, "geometry": { "type": "Point", "coordinates": [ 174.040367626508015, -36.389706057554015 ] } },
{ "type": "Feature", "properties": { "50": 0.826, "retreat_50": -284.35 }, "geometry": { "type": "Point", "coordinates": [ 174.039977673114976, -36.388997483322754 ] } },
{ "type": "Feature", "properties": { "50": 0.826, "retreat_50": -253.0 }, "geometry": { "type": "Point", "coordinates": [ 174.039732507818059, -36.388172458598227 ] } },
{ "type": "Feature", "properties": { "50": 0.826, "retreat_50": -206.45 }, "geometry": { "type": "Point", "coordinates": [ 174.039605469298209, -36.387252423632162 ] } },
{ "type": "Feature", "properties": { "50": 0.826, "retreat_50": -146.6 }, "geometry": { "type": "Point", "coordinates": [ 174.039600861314909, -36.38623391377098 ] } },
{ "type": "Feature", "properties": { "50": 0.826, "retreat_50": -73.45 }, "geometry": { "type": "Point", "coordinates": [ 174.039690836511483, -36.385139322129142 ] } },
{ "type": "Feature", "properties": { "50": 0.826, "retreat_50": 7.3 }, "geometry": { "type": "Point", "coordinates": [ 174.039804037213315, -36.384026038516808 ] } },
{ "type": "Feature", "properties": { "50": 0.826, "retreat_50": 91.85 }, "geometry": { "type": "Point", "coordinates": [ 174.039926571259571, -36.382905235735876 ] } },
{ "type": "Feature", "properties": { "50": 0.826, "retreat_50": 178.3 }, "geometry": { "type": "Point", "coordinates": [ 174.040081091126837, -36.381762526727272 ] } },
{ "type": "Feature", "properties": { "50": 0.826, "retreat_50": 263.8 }, "geometry": { "type": "Point", "coordinates": [ 174.040355006341201, -36.380761084489819 ] } },
{ "type": "Feature", "properties": { "50": 0.826, "retreat_50": 344.55 }, "geometry": { "type": "Point", "coordinates": [ 174.040745777597039, -36.379925523982727 ] } },
{ "type": "Feature", "properties": { "50": 0.826, "retreat_50": 416.75 }, "geometry": { "type": "Point", "coordinates": [ 174.040999230971551, -36.379004781672435 ] } },
{ "type": "Feature", "properties": { "50": 0.826, "retreat_50": 477.55 }, "geometry": { "type": "Point", "coordinates": [ 174.041161729973823, -36.378122040521184 ] } },
{ "type": "Feature", "properties": { "50": 0.826, "retreat_50": 525.05 }, "geometry": { "type": "Point", "coordinates": [ 174.041252653457462, -36.377269203506209 ] } },
{ "type": "Feature", "properties": { "50": 0.826, "retreat_50": 559.25 }, "geometry": { "type": "Point", "coordinates": [ 174.041187258939942, -36.376481688590111 ] } },
{ "type": "Feature", "properties": { "50": 0.826, "retreat_50": 579.2 }, "geometry": { "type": "Point", "coordinates": [ 174.040963095196417, -36.375760522185608 ] } },
{ "type": "Feature", "properties": { "50": 0.826, "retreat_50": 581.1 }, "geometry": { "type": "Point", "coordinates": [ 174.040590940499982, -36.375101200710084 ] } },
{ "type": "Feature", "properties": { "50": 0.826, "retreat_50": 563.05 }, "geometry": { "type": "Point", "coordinates": [ 174.039994565924985, -36.374535582809067 ] } },
{ "type": "Feature", "properties": { "50": 0.826, "retreat_50": 522.2 }, "geometry": { "type": "Point", "coordinates": [ 174.039124321663934, -36.374084416683637 ] } },
{ "type": "Feature", "properties": { "50": 0.826, "retreat_50": 457.6 }, "geometry": { "type": "Point", "coordinates": [ 174.038103063163931, -36.373696353964974 ] } },
{ "type": "Feature", "properties": { "50": 0.826, "retreat_50": 365.45 }, "geometry": { "type": "Point", "coordinates": [ 174.036814986465288, -36.37341978630441 ] } },
{ "type": "Feature", "properties": { "50": 0.826, "retreat_50": 247.65 }, "geometry": { "type": "Point", "coordinates": [ 174.035271873432379, -36.373249781018608 ] } },
{ "type": "Feature", "properties": { "50": 0.826, "retreat_50": 107.05 }, "geometry": { "type": "Point", "coordinates": [ 174.03351095471254, -36.373170769163664 ] } },
{ "type": "Feature", "properties": { "50": 0.826, "retreat_50": -53.5 }, "geometry": { "type": "Point", "coordinates": [ 174.031538835154379, -36.373179979472255 ] } },
{ "type": "Feature", "properties": { "50": 0.826, "retreat_50": -229.25 }, "geometry": { "type": "Point", "coordinates": [ 174.029400171526675, -36.373258740177178 ] } },
{ "type": "Feature", "properties": { "50": 0.826, "retreat_50": -414.5 }, "geometry": { "type": "Point", "coordinates": [ 174.027226389931371, -36.373352129257853 ] } },
{ "type": "Feature", "properties": { "50": 0.826, "retreat_50": -605.45 }, "geometry": { "type": "Point", "coordinates": [ 174.02493571103858, -36.373494310520783 ] } },
{ "type": "Feature", "properties": { "50": 0.826, "retreat_50": -797.35 }, "geometry": { "type": "Point", "coordinates": [ 174.022528847919489, -36.373684977583807 ] } },
{ "type": "Feature", "properties": { "50": 0.826, "retreat_50": -984.5 }, "geometry": { "type": "Point", "coordinates": [ 174.020366961367841, -36.373773252288927 ] } },
{ "type": "Feature", "properties": { "50": 0.826, "retreat_50": -1159.3 }, "geometry": { "type": "Point", "coordinates": [ 174.018300781616858, -36.373824976281412 ] } },
{ "type": "Feature", "properties": { "50": 0.826, "retreat_50": -1317.95 }, "geometry": { "type": "Point", "coordinates": [ 174.016347334636549, -36.373829786387638 ] } },
{ "type": "Feature", "properties": { "50": 0.826, "retreat_50": -1451.9 }, "geometry": { "type": "Point", "coordinates": [ 174.014740748368268, -36.373688855196178 ] } },
{ "type": "Feature", "properties": { "50": 0.826, "retreat_50": -1559.25 }, "geometry": { "type": "Point", "coordinates": [ 174.013440596018086, -36.373419180994624 ] } },
{ "type": "Feature", "properties": { "50": 0.826, "retreat_50": -1636.2 }, "geometry": { "type": "Point", "coordinates": [ 174.012233407573859, -36.373110441107912 ] } },
{ "type": "Feature", "properties": { "50": 0.826, "retreat_50": -1685.6 }, "geometry": { "type": "Point", "coordinates": [ 174.011435808604887, -36.372629646288111 ] } },
{ "type": "Feature", "properties": { "50": 0.826, "retreat_50": -1710.3 }, "geometry": { "type": "Point", "coordinates": [ 174.010898549482846, -36.372039493327684 ] } },
{ "type": "Feature", "properties": { "50": 0.826, "retreat_50": -1715.05 }, "geometry": { "type": "Point", "coordinates": [ 174.010349287664468, -36.371454375997303 ] } },
{ "type": "Feature", "properties": { "50": 0.826, "retreat_50": -1705.55 }, "geometry": { "type": "Point", "coordinates": [ 174.010113150004059, -36.37073773241319 ] } },
{ "type": "Feature", "properties": { "50": 0.826, "retreat_50": -1686.55 }, "geometry": { "type": "Point", "coordinates": [ 174.009857483317205, -36.370029286198644 ] } },
{ "type": "Feature", "properties": { "50": 0.826, "retreat_50": -1662.8 }, "geometry": { "type": "Point", "coordinates": [ 174.009626267322744, -36.369310564600269 ] } },
{ "type": "Feature", "properties": { "50": 0.826, "retreat_50": -1639.05 }, "geometry": { "type": "Point", "coordinates": [ 174.009544395136913, -36.36852910831248 ] } },
{ "type": "Feature", "properties": { "50": 0.826, "retreat_50": -1618.15 }, "geometry": { "type": "Point", "coordinates": [ 174.009442279585471, -36.367756148908462 ] } },
{ "type": "Feature", "properties": { "50": 0.826, "retreat_50": -1601.05 }, "geometry": { "type": "Point", "coordinates": [ 174.009236950459297, -36.367026537266213 ] } },
{ "type": "Feature", "properties": { "50": 0.826, "retreat_50": -1590.6 }, "geometry": { "type": "Point", "coordinates": [ 174.009151207018107, -36.366246689305271 ] } },
{ "type": "Feature", "properties": { "50": 0.826, "retreat_50": -1584.9 }, "geometry": { "type": "Point", "coordinates": [ 174.008956732102661, -36.36551250727436 ] } },
{ "type": "Feature", "properties": { "50": 0.826, "retreat_50": -1583.95 }, "geometry": { "type": "Point", "coordinates": [ 174.008641045491856, -36.364829233977105 ] } },
{ "type": "Feature", "properties": { "50": 0.826, "retreat_50": -1583.0 }, "geometry": { "type": "Point", "coordinates": [ 174.008358177046148, -36.364132170334862 ] } },
{ "type": "Feature", "properties": { "50": 0.826, "retreat_50": -1576.35 }, "geometry": { "type": "Point", "coordinates": [ 174.008175148921708, -36.363393163942376 ] } },
{ "type": "Feature", "properties": { "50": 0.826, "retreat_50": -1559.25 }, "geometry": { "type": "Point", "coordinates": [ 174.008221789340951, -36.362557679919398 ] } },
{ "type": "Feature", "properties": { "50": 0.826, "retreat_50": -1526.95 }, "geometry": { "type": "Point", "coordinates": [ 174.008091711321555, -36.361238871342742 ] } },
{ "type": "Feature", "properties": { "50": 0.826, "retreat_50": -1477.55 }, "geometry": { "type": "Point", "coordinates": [ 174.007404981489003, -36.358423640837508 ] } },
{ "type": "Feature", "properties": { "50": 0.826, "retreat_50": -1410.1 }, "geometry": { "type": "Point", "coordinates": [ 174.007443305320265, -36.356089990088307 ] } },
{ "type": "Feature", "properties": { "50": 0.826, "retreat_50": -1327.45 }, "geometry": { "type": "Point", "coordinates": [ 174.008070318488024, -36.355275209328092 ] } },
{ "type": "Feature", "properties": { "50": 0.826, "retreat_50": -1232.45 }, "geometry": { "type": "Point", "coordinates": [ 174.008750916946326, -36.354453417567605 ] } },
{ "type": "Feature", "properties": { "50": 0.826, "retreat_50": -1126.05 }, "geometry": { "type": "Point", "coordinates": [ 174.00948769722936, -36.353624284967118 ] } },
{ "type": "Feature", "properties": { "50": 0.826, "retreat_50": -1013.0 }, "geometry": { "type": "Point", "coordinates": [ 174.010232036121096, -36.352795671209996 ] } },
{ "type": "Feature", "properties": { "50": 0.826, "retreat_50": -894.25 }, "geometry": { "type": "Point", "coordinates": [ 174.010883011161411, -36.351979078843392 ] } },
{ "type": "Feature", "properties": { "50": 0.826, "retreat_50": -772.65 }, "geometry": { "type": "Point", "coordinates": [ 174.011774583278481, -36.351131458586067 ] } },
{ "type": "Feature", "properties": { "50": 0.826, "retreat_50": -652.95 }, "geometry": { "type": "Point", "coordinates": [ 174.012678106708051, -36.350282281487893 ] } },
{ "type": "Feature", "properties": { "50": 0.826, "retreat_50": -536.1 }, "geometry": { "type": "Point", "coordinates": [ 174.013517296307299, -36.349441382715902 ] } },
{ "type": "Feature", "properties": { "50": 0.826, "retreat_50": -427.8 }, "geometry": { "type": "Point", "coordinates": [ 174.014285969877051, -36.348609561065345 ] } },
{ "type": "Feature", "properties": { "50": 0.826, "retreat_50": -329.0 }, "geometry": { "type": "Point", "coordinates": [ 174.01486220058689, -36.347802540130651 ] } },
{ "type": "Feature", "properties": { "50": 0.826, "retreat_50": -243.5 }, "geometry": { "type": "Point", "coordinates": [ 174.015583398930289, -36.34697681418691 ] } },
{ "type": "Feature", "properties": { "50": 0.826, "retreat_50": -169.4 }, "geometry": { "type": "Point", "coordinates": [ 174.015865511653288, -36.346207698688396 ] } },
{ "type": "Feature", "properties": { "50": 0.826, "retreat_50": -109.55 }, "geometry": { "type": "Point", "coordinates": [ 174.016059748597428, -36.345449907415144 ] } },
{ "type": "Feature", "properties": { "50": 0.826, "retreat_50": -62.05 }, "geometry": { "type": "Point", "coordinates": [ 174.016131416814062, -36.344707915206222 ] } },
{ "type": "Feature", "properties": { "50": 0.826, "retreat_50": -29.75 }, "geometry": { "type": "Point", "coordinates": [ 174.015909898883734, -36.344003725801066 ] } },
{ "type": "Feature", "properties": { "50": 0.826, "retreat_50": -13.6 }, "geometry": { "type": "Point", "coordinates": [ 174.015587928707561, -36.343312484037234 ] } },
{ "type": "Feature", "properties": { "50": 0.826, "retreat_50": -13.6 }, "geometry": { "type": "Point", "coordinates": [ 174.015457674024162, -36.342596512140076 ] } },
{ "type": "Feature", "properties": { "50": 0.826, "retreat_50": -31.65 }, "geometry": { "type": "Point", "coordinates": [ 174.014838858338408, -36.341943537088305 ] } },
{ "type": "Feature", "properties": { "50": 0.826, "retreat_50": -62.999999999999986 }, "geometry": { "type": "Point", "coordinates": [ 174.013384772800038, -36.333337230993976 ] } },
{ "type": "Feature", "properties": { "50": 0.826, "retreat_50": -105.75 }, "geometry": { "type": "Point", "coordinates": [ 174.012687596286042, -36.332694274810706 ] } },
{ "type": "Feature", "properties": { "50": 0.826, "retreat_50": -157.05 }, "geometry": { "type": "Point", "coordinates": [ 174.012097169314387, -36.3320375442025 ] } },
{ "type": "Feature", "properties": { "50": 0.826, "retreat_50": -213.1 }, "geometry": { "type": "Point", "coordinates": [ 174.011570296697414, -36.331372610258327 ] } },
{ "type": "Feature", "properties": { "50": 0.826, "retreat_50": -271.05 }, "geometry": { "type": "Point", "coordinates": [ 174.011117753578702, -36.330698084231059 ] } },
{ "type": "Feature", "properties": { "50": 0.826, "retreat_50": -329.95 }, "geometry": { "type": "Point", "coordinates": [ 174.010653318913313, -36.33002508412271 ] } },
{ "type": "Feature", "properties": { "50": 0.826, "retreat_50": -388.85 }, "geometry": { "type": "Point", "coordinates": [ 174.01026216276486, -36.329342628186659 ] } },
{ "type": "Feature", "properties": { "50": 0.826, "retreat_50": -446.8 }, "geometry": { "type": "Point", "coordinates": [ 174.009863111632654, -36.328661183111095 ] } },
{ "type": "Feature", "properties": { "50": 0.826, "retreat_50": -504.75 }, "geometry": { "type": "Point", "coordinates": [ 174.009249442258806, -36.328007402270458 ] } },
{ "type": "Feature", "properties": { "50": 0.826, "retreat_50": -559.85 }, "geometry": { "type": "Point", "coordinates": [ 174.0088509243825, -36.327325873727595 ] } },
{ "type": "Feature", "properties": { "50": 0.826, "retreat_50": -614.0 }, "geometry": { "type": "Point", "coordinates": [ 174.008187063066913, -36.326678547846264 ] } },
{ "type": "Feature", "properties": { "50": 0.826, "retreat_50": -666.25 }, "geometry": { "type": "Point", "coordinates": [ 174.00764358354985, -36.326015693290117 ] } },
{ "type": "Feature", "properties": { "50": 0.826, "retreat_50": -716.6 }, "geometry": { "type": "Point", "coordinates": [ 174.007057359095455, -36.325358341392722 ] } },
{ "type": "Feature", "properties": { "50": 0.826, "retreat_50": -766.0 }, "geometry": { "type": "Point", "coordinates": [ 174.006485091732173, -36.324699181976882 ] } },
{ "type": "Feature", "properties": { "50": 0.826, "retreat_50": -815.4 }, "geometry": { "type": "Point", "coordinates": [ 174.005998157526477, -36.324029014041123 ] } },
{ "type": "Feature", "properties": { "50": 0.826, "retreat_50": -864.8 }, "geometry": { "type": "Point", "coordinates": [ 174.005394792399869, -36.323373847383223 ] } },
{ "type": "Feature", "properties": { "50": 0.826, "retreat_50": -914.2 }, "geometry": { "type": "Point", "coordinates": [ 174.004840587914202, -36.322712335360826 ] } },
{ "type": "Feature", "properties": { "50": 0.826, "retreat_50": -962.65 }, "geometry": { "type": "Point", "coordinates": [ 174.004447973617033, -36.322029986207198 ] } },
{ "type": "Feature", "properties": { "50": 0.826, "retreat_50": -1011.1 }, "geometry": { "type": "Point", "coordinates": [ 174.003912153276104, -36.321366089050315 ] } },
{ "type": "Feature", "properties": { "50": 0.826, "retreat_50": -1057.65 }, "geometry": { "type": "Point", "coordinates": [ 174.003312142614163, -36.320710479465404 ] } },
{ "type": "Feature", "properties": { "50": 0.826, "retreat_50": -1101.35 }, "geometry": { "type": "Point", "coordinates": [ 174.002810297555186, -36.320042824671013 ] } },
{ "type": "Feature", "properties": { "50": 0.826, "retreat_50": -1143.15 }, "geometry": { "type": "Point", "coordinates": [ 174.002398678153241, -36.319363376736035 ] } },
{ "type": "Feature", "properties": { "50": 0.826, "retreat_50": -1180.2 }, "geometry": { "type": "Point", "coordinates": [ 174.001949387886413, -36.31868884200415 ] } },
{ "type": "Feature", "properties": { "50": 0.826, "retreat_50": -1213.45 }, "geometry": { "type": "Point", "coordinates": [ 174.001539735521902, -36.318009122456175 ] } },
{ "type": "Feature", "properties": { "50": 0.826, "retreat_50": -1241.0 }, "geometry": { "type": "Point", "coordinates": [ 174.001188040731648, -36.317321825594988 ] } },
{ "type": "Feature", "properties": { "50": 0.826, "retreat_50": -1261.9 }, "geometry": { "type": "Point", "coordinates": [ 174.000893224433753, -36.31662709270897 ] } },
{ "type": "Feature", "properties": { "50": 0.826, "retreat_50": -1274.25 }, "geometry": { "type": "Point", "coordinates": [ 174.000814095350876, -36.316858642488498 ] } },
{ "type": "Feature", "properties": { "50": 0.826, "retreat_50": -1279.0 }, "geometry": { "type": "Point", "coordinates": [ 174.000943153836801, -36.317058838542756 ] } }
]
}
