{
"type": "FeatureCollection",
"name": "htrend_lines_shoreline_50qtl_2100_4.5",
"crs": { "type": "name", "properties": { "name": "urn:ogc:def:crs:OGC:1.3:CRS84" } },
"features": [
{ "type": "Feature", "properties": { "group_id": "nzd0126" }, "geometry": { "type": "LineString", "coordinates": [ [ 174.102092110919642, -36.386488495132888 ], [ 174.101191307936404, -36.386522139522889 ], [ 174.100270391801899, -36.386436713854586 ], [ 174.099376772704517, -36.386512863390536 ], [ 174.098485488989951, -36.386602837473909 ], [ 174.097584785512623, -36.386637038579757 ], [ 174.09671786149147, -36.3868712481693 ], [ 174.095839450345579, -36.387037454406702 ], [ 174.094941584220038, -36.387088458236427 ], [ 174.094067089213524, -36.387277870011104 ], [ 174.093172103811185, -36.387345934547589 ], [ 174.092289126133636, -36.387485120180806 ], [ 174.091418963529463, -36.387700223415486 ], [ 174.090529222365404, -36.387799360428858 ], [ 174.089660349050121, -36.388022127233185 ], [ 174.088787486716228, -36.388222098110163 ], [ 174.087920265690656, -36.388456855128716 ], [ 174.087042455585731, -36.388627931112353 ], [ 174.086154123402935, -36.388735718936793 ], [ 174.085269007504138, -36.388862857703984 ], [ 174.084386492597588, -36.389005648809231 ], [ 174.083473420775476, -36.388964596042783 ], [ 174.082578813369764, -36.389034628377345 ], [ 174.08166799548934, -36.389007114685455 ], [ 174.080757125582664, -36.38897927439556 ], [ 174.079821528370587, -36.388806489480125 ], [ 174.078890809872036, -36.388662666295545 ], [ 174.077950525601381, -36.388462088004879 ], [ 174.077000477110005, -36.388203564887021 ], [ 174.076049000265527, -36.387936520187289 ], [ 174.075099176601867, -36.387679228673541 ], [ 174.074142245756065, -36.387379730377475 ], [ 174.073179987505483, -36.387048572979893 ], [ 174.072214886225169, -36.386700487411431 ], [ 174.0712483330135, -36.386343722917971 ], [ 174.070258202114758, -36.38584699582875 ], [ 174.06927085849199, -36.385366719181654 ], [ 174.068267204978014, -36.384789566139517 ], [ 174.067236876625117, -36.384053995849229 ], [ 174.066192373464531, -36.383234159685628 ], [ 174.065125324404619, -36.382280342395141 ], [ 174.06404534072044, -36.381249564373071 ], [ 174.062951616833033, -36.380137019803882 ], [ 174.061840321088113, -36.378919931795636 ], [ 174.060718278285236, -36.377638797131809 ], [ 174.059598530625436, -36.376371055510077 ], [ 174.058471215822834, -36.375058131099678 ], [ 174.057357001612274, -36.373822784989088 ], [ 174.056262793788648, -36.372706069197889 ], [ 174.055193658526264, -36.371738121113552 ], [ 174.055946464897403, -36.370818633277558 ], [ 174.069813342451567, -36.372508318816848 ], [ 174.078432398498649, -36.378435799688454 ], [ 174.077198906748265, -36.378408646388884 ], [ 174.075849791506499, -36.378474999255737 ], [ 174.074191034494078, -36.378791781297977 ], [ 174.072185162885916, -36.379389271967639 ], [ 174.069771382696302, -36.38031659751195 ], [ 174.067079997315034, -36.381468321105757 ], [ 174.064079912847205, -36.382869539156886 ], [ 174.061015541998785, -36.384322568498469 ], [ 174.057814168478359, -36.385886187521351 ], [ 174.054777890157709, -36.387314957580571 ], [ 174.051996362039574, -36.388530339945724 ], [ 174.049452780146737, -36.389554188605146 ], [ 174.047203397812211, -36.390341292494014 ], [ 174.045270344031081, -36.390873891291854 ], [ 174.043720088189673, -36.391098558369364 ], [ 174.042480403335958, -36.391073413637081 ], [ 174.04151627889479, -36.39082663177944 ], [ 174.040784058628901, -36.3903933329957 ], [ 174.040233327874375, -36.389814067381977 ], [ 174.039820847365462, -36.38912361096888 ], [ 174.039553155748223, -36.388316704167927 ], [ 174.03939608263056, -36.387420826628137 ], [ 174.039368950385153, -36.386420435051292 ], [ 174.03943640243358, -36.385343961925194 ], [ 174.039542098478421, -36.384236718170655 ], [ 174.03965712816418, -36.383121955295081 ], [ 174.039805962882923, -36.381974521410534 ], [ 174.040043068889247, -36.380936615591729 ], [ 174.04041757547472, -36.380062681008503 ], [ 174.040699257927685, -36.379130144179364 ], [ 174.040889984969994, -36.378235608151577 ], [ 174.041009135590031, -36.377370976004599 ], [ 174.040981375057584, -36.376567733770678 ], [ 174.040785436436693, -36.375834771638061 ], [ 174.04045091388204, -36.375159722521019 ], [ 174.039901578371911, -36.374574445206868 ], [ 174.03908778028773, -36.374099688254752 ], [ 174.038122967816804, -36.373688035456354 ], [ 174.036891337372765, -36.373387878746222 ], [ 174.035404671293236, -36.373194285799947 ], [ 174.033690792797699, -36.373095619277542 ], [ 174.031756306830658, -36.373089107769793 ], [ 174.02964587001091, -36.373156079181285 ], [ 174.027490907872959, -36.37324161084625 ], [ 174.02520964099449, -36.373379866286392 ], [ 174.022802782084881, -36.373570538630219 ], [ 174.020622081920806, -36.373666678713789 ], [ 174.018518008798054, -36.373733719002217 ], [ 174.016526974420657, -36.373754323376758 ], [ 174.014864004340922, -36.37363707993449 ], [ 174.013507467111737, -36.373391091783716 ], [ 174.012225098121178, -36.373113931397185 ], [ 174.011371113666854, -36.37265682023645 ], [ 174.010786867103121, -36.372086403178827 ], [ 174.010200015731613, -36.371517074101121 ], [ 174.009935686909643, -36.370812271722649 ], [ 174.009661226819645, -36.370111719411625 ], [ 174.009420615059923, -36.369396944546686 ], [ 174.009348142027363, -36.368611540977668 ], [ 174.009255425409464, -36.367834634275219 ], [ 174.009050097796745, -36.367105022297167 ], [ 174.008983150026978, -36.366317280006264 ], [ 174.008798073371167, -36.365579150614259 ], [ 174.008491784667427, -36.36489192983835 ], [ 174.008199520559742, -36.364198812859144 ], [ 174.008007097091593, -36.363463753221318 ], [ 174.008025549631384, -36.362640110280317 ], [ 174.007853580959221, -36.361330067279546 ], [ 174.007111246730005, -36.35849248104271 ], [ 174.007099600422862, -36.356134880717114 ], [ 174.00769526198664, -36.355324197151646 ], [ 174.00834450963967, -36.354506503077843 ], [ 174.009049937911612, -36.353681458489334 ], [ 174.009783681589454, -36.352853461593355 ], [ 174.010424206969105, -36.352038219325188 ], [ 174.011305330063351, -36.351191950219935 ], [ 174.012219314006614, -36.350341428906482 ], [ 174.013068963756012, -36.349499185519072 ], [ 174.01386900585257, -36.348663322985367 ], [ 174.014466149818389, -36.347853608120076 ], [ 174.015218715254917, -36.34702384043954 ], [ 174.015532193809292, -36.346250681596146 ], [ 174.015757795837914, -36.345488846596098 ], [ 174.015860828388355, -36.344742810269189 ], [ 174.015681127654915, -36.344033228016514 ], [ 174.015400973883686, -36.343336593380961 ], [ 174.015302081472186, -36.342616577110057 ], [ 174.014735534195751, -36.341956861203982 ], [ 174.013312816761754, -36.333346510266161 ], [ 174.012626093005935, -36.332702205827914 ], [ 174.012056570846767, -36.33204277933293 ], [ 174.011550602739106, -36.33137514971034 ], [ 174.011098059774014, -36.330700623610717 ], [ 174.010633625261477, -36.330027623428066 ], [ 174.010242469270906, -36.329345167429707 ], [ 174.009832966524641, -36.328665069898484 ], [ 174.00922974906473, -36.328009941351191 ], [ 174.008820779733583, -36.327329760266657 ], [ 174.008146467092189, -36.326683781685723 ], [ 174.007602987878983, -36.326020926949766 ], [ 174.007016763722362, -36.325363574858109 ], [ 174.006434045351767, -36.324705762570865 ], [ 174.005947111538234, -36.32403559443302 ], [ 174.005343746783012, -36.323380427523567 ], [ 174.004799993750396, -36.3227175680925 ], [ 174.004396928789248, -36.322036565954896 ], [ 174.003861108831757, -36.321372668575172 ], [ 174.003261115622195, -36.320717144941213 ], [ 174.002748823690496, -36.320050854578234 ], [ 174.002337204773283, -36.319371406424757 ], [ 174.001867020790968, -36.318699600599501 ], [ 174.001446922062371, -36.318021245293998 ], [ 174.001084781093653, -36.317335312650251 ], [ 174.000769071964839, -36.316643308442984 ], [ 174.00067134821839, -36.316886790616557 ], [ 174.000783504853985, -36.317101399082262 ] ] } }
]
}
