{
"type": "FeatureCollection",
"name": "htrend_lines_shoreline_50qtl_2100_1.9",
"crs": { "type": "name", "properties": { "name": "urn:ogc:def:crs:OGC:1.3:CRS84" } },
"features": [
{ "type": "Feature", "properties": { "group_id": "nzd0126" }, "geometry": { "type": "LineString", "coordinates": [ [ 174.102111984170477, -36.386606120673221 ], [ 174.101206366520984, -36.386611274270024 ], [ 174.100292057740091, -36.386564968053335 ], [ 174.099386790262713, -36.386572167647032 ], [ 174.098495536057783, -36.386662320443122 ], [ 174.09761033897189, -36.386788336320116 ], [ 174.09672547877409, -36.386916351749761 ], [ 174.095846825816523, -36.387081129023969 ], [ 174.094953438479706, -36.387158659256627 ], [ 174.094078460136245, -36.387345213068045 ], [ 174.093187816961631, -36.387439000285447 ], [ 174.092298490077667, -36.387540584581288 ], [ 174.091428598288644, -36.38775729555821 ], [ 174.090541992483907, -36.387875010153145 ], [ 174.089672191752072, -36.388092511541991 ], [ 174.088800528170538, -36.388300538100133 ], [ 174.087929608126984, -36.388513049672035 ], [ 174.087051500493544, -36.388682338928106 ], [ 174.086167593505479, -36.388816750047752 ], [ 174.085283575824832, -36.38895050005506 ], [ 174.084404297385476, -36.389112767361908 ], [ 174.08349915382675, -36.389119422298606 ], [ 174.082598620633462, -36.389153808107991 ], [ 174.0816855151445, -36.38911253616719 ], [ 174.080777643187815, -36.389102742757771 ], [ 174.079850799490828, -36.388980031326163 ], [ 174.078919642015364, -36.388833618228581 ], [ 174.077982548906618, -36.38865197534988 ], [ 174.077033913779388, -36.388401848319781 ], [ 174.07608243439347, -36.388134803937355 ], [ 174.075134038832772, -36.387885997868459 ], [ 174.074177105305751, -36.387586499906327 ], [ 174.073216334986057, -36.387264185271491 ], [ 174.072251531977798, -36.38691788640763 ], [ 174.071284629632942, -36.386559067963312 ], [ 174.070299087032708, -36.386089583194106 ], [ 174.069313200122593, -36.385617970807871 ], [ 174.068312086631408, -36.385055912977002 ], [ 174.067286269160917, -36.38434713867467 ], [ 174.06624720894834, -36.383559636356388 ], [ 174.065183028621561, -36.382622879559314 ], [ 174.064105897953112, -36.381609072790177 ], [ 174.063016455553054, -36.380521984862625 ], [ 174.061905153183659, -36.379304897641667 ], [ 174.060784532515896, -36.378032249119492 ], [ 174.059664777994982, -36.376764508311396 ], [ 174.058538884825282, -36.375460070100992 ], [ 174.057423235238474, -36.374216239419496 ], [ 174.05632330768654, -36.373065582763019 ], [ 174.055248454061569, -36.372063693654411 ], [ 174.055972491189465, -36.371086436175169 ], [ 174.069718393194421, -36.372693120268863 ], [ 174.078324820588733, -36.378522821370481 ], [ 174.077166199521201, -36.378435103209377 ], [ 174.075899444148632, -36.378434836422066 ], [ 174.074338025090583, -36.378672888497718 ], [ 174.072429497183748, -36.37919165245706 ], [ 174.070105581063359, -36.380046311488897 ], [ 174.06748909226161, -36.381137484582638 ], [ 174.064541448040785, -36.38249632342005 ], [ 174.06149956742172, -36.383931198051265 ], [ 174.058290730414171, -36.385500884952563 ], [ 174.055232738780575, -36.38694842536281 ], [ 174.052406554683216, -36.388200361430343 ], [ 174.049795411088809, -36.389278577592961 ], [ 174.047478460104031, -36.390120045612321 ], [ 174.045462813721883, -36.390719084971693 ], [ 174.043844978442849, -36.390998110591759 ], [ 174.042530201959408, -36.39103336214793 ], [ 174.041506002922233, -36.390834896298571 ], [ 174.04073623576528, -36.390431794547268 ], [ 174.040147958331943, -36.389882725701213 ], [ 174.039705440996244, -36.389216426548188 ], [ 174.039407713300989, -36.388433677024501 ], [ 174.039220604999315, -36.387561956836578 ], [ 174.039170947845292, -36.386579683445845 ], [ 174.039223384992709, -36.385515289338805 ], [ 174.039306557914017, -36.384426164092901 ], [ 174.039421591466834, -36.383311401653138 ], [ 174.039565456475657, -36.382159837465885 ], [ 174.03977038553586, -36.381090056617694 ], [ 174.04014126680687, -36.380178150478734 ], [ 174.040432361314885, -36.379241682664237 ], [ 174.040651316138593, -36.378335351815558 ], [ 174.040808101648025, -36.377454992786852 ], [ 174.040799159020395, -36.376643886982464 ], [ 174.040640853246742, -36.375895197422182 ], [ 174.040343962715127, -36.37520442082522 ], [ 174.039841666213988, -36.374599484307282 ], [ 174.039074906628713, -36.374105068480439 ], [ 174.038166540176263, -36.373669825774378 ], [ 174.037000763660387, -36.373342148634293 ], [ 174.03557054456428, -36.373124968302086 ], [ 174.033894298577678, -36.373010578749472 ], [ 174.032006854164052, -36.372984414478886 ], [ 174.029934646594171, -36.373035417738414 ], [ 174.027798504345185, -36.373113092643031 ], [ 174.025526650025171, -36.373247423001203 ], [ 174.023119795987128, -36.37343810145628 ], [ 174.020929691400539, -36.373538177409557 ], [ 174.018797059900123, -36.373616488566732 ], [ 174.016759041594412, -36.373656836076265 ], [ 174.015039688330234, -36.373563281271501 ], [ 174.013626766604546, -36.373340979875202 ], [ 174.012278614940186, -36.373091452262237 ], [ 174.011358847343189, -36.372661972479648 ], [ 174.010718215510792, -36.372115238767115 ], [ 174.01009377432726, -36.371561698087135 ], [ 174.009801253935706, -36.370868736946697 ], [ 174.00950800005873, -36.3701760785898 ], [ 174.009257992164947, -36.369465250520413 ], [ 174.009185520685122, -36.368679846837026 ], [ 174.009102202722858, -36.367898992892457 ], [ 174.00891567047384, -36.36716148646935 ], [ 174.008858120965186, -36.366369797010258 ], [ 174.00868244224003, -36.365627720349266 ], [ 174.008376154345598, -36.364940499269451 ], [ 174.008093287821396, -36.364243434982143 ], [ 174.007882071869403, -36.36351626916737 ], [ 174.007872335977737, -36.362704467231865 ], [ 174.007659268582813, -36.361404481891846 ], [ 174.006864076652676, -36.358550407614807 ], [ 174.006814206218138, -36.356172154711203 ], [ 174.007368063564797, -36.355366933006231 ], [ 174.007985959773947, -36.354553336175456 ], [ 174.008670489034984, -36.353731024105493 ], [ 174.00938319937066, -36.352905080013279 ], [ 174.010013274501773, -36.35209118750933 ], [ 174.010894402718321, -36.351244921454523 ], [ 174.011808391831011, -36.350394403303753 ], [ 174.012668501170509, -36.349550815032906 ], [ 174.013489456915693, -36.348712259405666 ], [ 174.014107513764856, -36.34789985055545 ], [ 174.014901900061346, -36.34706469306613 ], [ 174.015236289990185, -36.346288838972399 ], [ 174.015503710707037, -36.345521612250607 ], [ 174.015638107182298, -36.344771531897266 ], [ 174.015489769569797, -36.344057905100378 ], [ 174.015251431944307, -36.343355877808577 ], [ 174.015194355037636, -36.342630469216672 ], [ 174.014669622396212, -36.341965360779838 ], [ 174.013278269055007, -36.333350965436587 ], [ 174.012622902316622, -36.332702617275174 ], [ 174.012074284542024, -36.332040495172016 ], [ 174.011568316299446, -36.33137286562237 ], [ 174.011126225214952, -36.330696991871235 ], [ 174.010661790483795, -36.330023991794839 ], [ 174.010270634267442, -36.329341535885568 ], [ 174.009861131297185, -36.328661438447725 ], [ 174.009247461937662, -36.328007657597176 ], [ 174.008828040853672, -36.327328824093712 ], [ 174.008164179699747, -36.326681498088085 ], [ 174.007610248893712, -36.326019990849055 ], [ 174.007013573299844, -36.325363986159687 ], [ 174.006441306259887, -36.324704826539424 ], [ 174.005954372390562, -36.324034658430314 ], [ 174.005350347509847, -36.323379576644577 ], [ 174.004796143355151, -36.322718064421373 ], [ 174.004403529414049, -36.322035715126674 ], [ 174.003867709406961, -36.32137181777577 ], [ 174.003257266603015, -36.320717647724074 ], [ 174.002734527440992, -36.320052721994017 ], [ 174.002312461459184, -36.319374638401506 ], [ 174.001842277666839, -36.318702832476255 ], [ 174.001411732117134, -36.318025841611878 ], [ 174.001028697568387, -36.317342637850764 ], [ 174.000702542054313, -36.31665199795539 ], [ 174.000585310281991, -36.316903756237579 ], [ 174.0006792938579, -36.317129180367743 ] ] } }
]
}
