{
"type": "FeatureCollection",
"name": "htrend_points_shoreline_50qtl_2100_1.9",
"crs": { "type": "name", "properties": { "name": "urn:ogc:def:crs:OGC:1.3:CRS84" } },
"features": [
{ "type": "Feature", "properties": { "50": 0.373, "retreat_50": 675.32 }, "geometry": { "type": "Point", "coordinates": [ 174.102133487190969, -36.386733392036327 ] } },
{ "type": "Feature", "properties": { "50": 0.373, "retreat_50": 672.12 }, "geometry": { "type": "Point", "coordinates": [ 174.10120779995529, -36.386619759040336 ] } },
{ "type": "Feature", "properties": { "50": 0.373, "retreat_50": 697.6 }, "geometry": { "type": "Point", "coordinates": [ 174.100256224492369, -36.386352848465506 ] } },
{ "type": "Feature", "properties": { "50": 0.373, "retreat_50": 652.86 }, "geometry": { "type": "Point", "coordinates": [ 174.099426921006312, -36.386809741910689 ] } },
{ "type": "Feature", "properties": { "50": 0.373, "retreat_50": 677.76 }, "geometry": { "type": "Point", "coordinates": [ 174.098453975095765, -36.386416261002452 ] } },
{ "type": "Feature", "properties": { "50": 0.373, "retreat_50": 660.08 }, "geometry": { "type": "Point", "coordinates": [ 174.097616071167465, -36.386822275599208 ] } },
{ "type": "Feature", "properties": { "50": 0.373, "retreat_50": 664.92 }, "geometry": { "type": "Point", "coordinates": [ 174.096689655002677, -36.386704230942129 ] } },
{ "type": "Feature", "properties": { "50": 0.373, "retreat_50": 619.75 }, "geometry": { "type": "Point", "coordinates": [ 174.095842527228086, -36.387055674492551 ] } },
{ "type": "Feature", "properties": { "50": 0.373, "retreat_50": 605.47 }, "geometry": { "type": "Point", "coordinates": [ 174.094960602324619, -36.387201083536148 ] } },
{ "type": "Feature", "properties": { "50": 0.373, "retreat_50": 583.98 }, "geometry": { "type": "Point", "coordinates": [ 174.094092786925671, -36.387430061744105 ] } },
{ "type": "Feature", "properties": { "50": 0.373, "retreat_50": 561.61 }, "geometry": { "type": "Point", "coordinates": [ 174.093225064225862, -36.387659607152337 ] } },
{ "type": "Feature", "properties": { "50": 0.373, "retreat_50": 547.14 }, "geometry": { "type": "Point", "coordinates": [ 174.092340032385067, -36.387786646436936 ] } },
{ "type": "Feature", "properties": { "50": 0.373, "retreat_50": 549.85 }, "geometry": { "type": "Point", "coordinates": [ 174.091434327886617, -36.38779123517287 ] } },
{ "type": "Feature", "properties": { "50": 0.373, "retreat_50": 573.23 }, "geometry": { "type": "Point", "coordinates": [ 174.090506184957945, -36.387662887247586 ] } },
{ "type": "Feature", "properties": { "50": 0.373, "retreat_50": 562.82 }, "geometry": { "type": "Point", "coordinates": [ 174.089634991398299, -36.387871899349406 ] } },
{ "type": "Feature", "properties": { "50": 0.373, "retreat_50": 548.62 }, "geometry": { "type": "Point", "coordinates": [ 174.088765055504865, -36.388088378431327 ] } },
{ "type": "Feature", "properties": { "50": 0.373, "retreat_50": 527.23 }, "geometry": { "type": "Point", "coordinates": [ 174.087909853866933, -36.388394228139923 ] } },
{ "type": "Feature", "properties": { "50": 0.373, "retreat_50": 503.04 }, "geometry": { "type": "Point", "coordinates": [ 174.087033158206935, -36.388572004521976 ] } },
{ "type": "Feature", "properties": { "50": 0.373, "retreat_50": 467.84 }, "geometry": { "type": "Point", "coordinates": [ 174.086190167504384, -36.388952546390009 ] } },
{ "type": "Feature", "properties": { "50": 0.373, "retreat_50": 446.59 }, "geometry": { "type": "Point", "coordinates": [ 174.085327310699313, -36.389213605766308 ] } },
{ "type": "Feature", "properties": { "50": 0.373, "retreat_50": 466.06 }, "geometry": { "type": "Point", "coordinates": [ 174.084405708109017, -36.38912125465319 ] } },
{ "type": "Feature", "properties": { "50": 0.373, "retreat_50": 500.57 }, "geometry": { "type": "Point", "coordinates": [ 174.083470941023876, -36.388949676258733 ] } },
{ "type": "Feature", "properties": { "50": 0.373, "retreat_50": 465.67 }, "geometry": { "type": "Point", "coordinates": [ 174.082611315728002, -36.38923019391386 ] } },
{ "type": "Feature", "properties": { "50": 0.373, "retreat_50": 474.28 }, "geometry": { "type": "Point", "coordinates": [ 174.081696799017152, -36.38918043474591 ] } },
{ "type": "Feature", "properties": { "50": 0.373, "retreat_50": 492.46 }, "geometry": { "type": "Point", "coordinates": [ 174.080777643187815, -36.389102742757771 ] } },
{ "type": "Feature", "properties": { "50": 0.373, "retreat_50": 494.99 }, "geometry": { "type": "Point", "coordinates": [ 174.079903188048291, -36.389294040412608 ] } },
{ "type": "Feature", "properties": { "50": 0.373, "retreat_50": 528.64 }, "geometry": { "type": "Point", "coordinates": [ 174.078968298447847, -36.389122110748666 ] } },
{ "type": "Feature", "properties": { "50": 0.373, "retreat_50": 591.31 }, "geometry": { "type": "Point", "coordinates": [ 174.077999720456233, -36.38875379640271 ] } },
{ "type": "Feature", "properties": { "50": 0.373, "retreat_50": 626.46 }, "geometry": { "type": "Point", "coordinates": [ 174.077069685193038, -36.388613975845409 ] } },
{ "type": "Feature", "properties": { "50": 0.373, "retreat_50": 762.31 }, "geometry": { "type": "Point", "coordinates": [ 174.07599229820886, -36.387600241622572 ] } },
{ "type": "Feature", "properties": { "50": 0.373, "retreat_50": 808.86 }, "geometry": { "type": "Point", "coordinates": [ 174.075053923764301, -36.387410830617021 ] } },
{ "type": "Feature", "properties": { "50": 0.373, "retreat_50": 817.41 }, "geometry": { "type": "Point", "coordinates": [ 174.074167091635076, -36.387527103909825 ] } },
{ "type": "Feature", "properties": { "50": 0.373, "retreat_50": 883.92 }, "geometry": { "type": "Point", "coordinates": [ 174.073190587576988, -36.387111452457432 ] } },
{ "type": "Feature", "properties": { "50": 0.373, "retreat_50": 930.42 }, "geometry": { "type": "Point", "coordinates": [ 174.072244380468192, -36.386875460557619 ] } },
{ "type": "Feature", "properties": { "50": 0.373, "retreat_50": 972.49 }, "geometry": { "type": "Point", "coordinates": [ 174.07130608252649, -36.386686345717223 ] } },
{ "type": "Feature", "properties": { "50": 0.373, "retreat_50": 1077.71 }, "geometry": { "type": "Point", "coordinates": [ 174.07026905555864, -36.385911394023815 ] } },
{ "type": "Feature", "properties": { "50": 0.373, "retreat_50": 1086.22 }, "geometry": { "type": "Point", "coordinates": [ 174.069383268412139, -36.386033746184722 ] } },
{ "type": "Feature", "properties": { "50": 0.373, "retreat_50": 1254.64 }, "geometry": { "type": "Point", "coordinates": [ 174.068252033789236, -36.38469953339812 ] } },
{ "type": "Feature", "properties": { "50": 0.373, "retreat_50": 1262.0 }, "geometry": { "type": "Point", "coordinates": [ 174.067360614557288, -36.384788371248014 ] } },
{ "type": "Feature", "properties": { "50": 0.373, "retreat_50": 1374.12 }, "geometry": { "type": "Point", "coordinates": [ 174.066310110848576, -36.383932987689676 ] } },
{ "type": "Feature", "properties": { "50": 0.373, "retreat_50": 1508.06 }, "geometry": { "type": "Point", "coordinates": [ 174.065220194337115, -36.382843496686483 ] } },
{ "type": "Feature", "properties": { "50": 0.373, "retreat_50": 1636.31 }, "geometry": { "type": "Point", "coordinates": [ 174.064141630762492, -36.381821205057278 ] } },
{ "type": "Feature", "properties": { "50": 0.373, "retreat_50": 1805.41 }, "geometry": { "type": "Point", "coordinates": [ 174.063003593061012, -36.380445617089727 ] } },
{ "type": "Feature", "properties": { "50": 0.373, "retreat_50": 1902.31 }, "geometry": { "type": "Point", "coordinates": [ 174.061965172370918, -36.379661281274196 ] } },
{ "type": "Feature", "properties": { "50": 0.373, "retreat_50": 2134.11 }, "geometry": { "type": "Point", "coordinates": [ 174.060721662422651, -36.377658894000149 ] } },
{ "type": "Feature", "properties": { "50": 0.373, "retreat_50": 2212.01 }, "geometry": { "type": "Point", "coordinates": [ 174.059714783578045, -36.377061495905231 ] } },
{ "type": "Feature", "properties": { "50": 0.373, "retreat_50": 2300.36 }, "geometry": { "type": "Point", "coordinates": [ 174.058686029891106, -36.376334063865741 ] } },
{ "type": "Feature", "properties": { "50": 0.373, "retreat_50": 2379.21 }, "geometry": { "type": "Point", "coordinates": [ 174.057677500825946, -36.375726639288672 ] } },
{ "type": "Feature", "properties": { "50": 0.373, "retreat_50": 2562.56 }, "geometry": { "type": "Point", "coordinates": [ 174.056516129247996, -36.374211113156321 ] } },
{ "type": "Feature", "properties": { "50": 0.373, "retreat_50": 2836.16 }, "geometry": { "type": "Point", "coordinates": [ 174.055219891169941, -36.371893985065974 ] } },
{ "type": "Feature", "properties": { "50": 0.373, "retreat_50": 2912.16 }, "geometry": { "type": "Point", "coordinates": [ 174.055980788204067, -36.371171809577831 ] } },
{ "type": "Feature", "properties": { "50": 0.373, "retreat_50": 3119.26 }, "geometry": { "type": "Point", "coordinates": [ 174.070246596314092, -36.3716650572023 ] } },
{ "type": "Feature", "properties": { "50": 0.373, "retreat_50": 3745.31 }, "geometry": { "type": "Point", "coordinates": [ 174.083932344484197, -36.373986411845316 ] } },
{ "type": "Feature", "properties": { "50": 0.373, "retreat_50": 3836.51 }, "geometry": { "type": "Point", "coordinates": [ 174.083522413073098, -36.373293072605975 ] } },
{ "type": "Feature", "properties": { "50": 0.373, "retreat_50": 3623.71 }, "geometry": { "type": "Point", "coordinates": [ 174.080968079695708, -36.37433461558733 ] } },
{ "type": "Feature", "properties": { "50": 0.373, "retreat_50": 3445.11 }, "geometry": { "type": "Point", "coordinates": [ 174.078785362719373, -36.375075421618781 ] } },
{ "type": "Feature", "properties": { "50": 0.373, "retreat_50": 3013.81 }, "geometry": { "type": "Point", "coordinates": [ 174.074690713023529, -36.377362692711685 ] } },
{ "type": "Feature", "properties": { "50": 0.373, "retreat_50": 2867.51 }, "geometry": { "type": "Point", "coordinates": [ 174.072853565530465, -36.377823748208939 ] } },
{ "type": "Feature", "properties": { "50": 0.373, "retreat_50": 2440.96 }, "geometry": { "type": "Point", "coordinates": [ 174.068896856861045, -36.379998988567344 ] } },
{ "type": "Feature", "properties": { "50": 0.373, "retreat_50": 1990.66 }, "geometry": { "type": "Point", "coordinates": [ 174.064713685065442, -36.382357044344737 ] } },
{ "type": "Feature", "properties": { "50": 0.373, "retreat_50": 1544.16 }, "geometry": { "type": "Point", "coordinates": [ 174.060645818985165, -36.384621513043868 ] } },
{ "type": "Feature", "properties": { "50": 0.373, "retreat_50": 1130.91 }, "geometry": { "type": "Point", "coordinates": [ 174.056740408715001, -36.386754306631417 ] } },
{ "type": "Feature", "properties": { "50": 0.373, "retreat_50": 823.11 }, "geometry": { "type": "Point", "coordinates": [ 174.05375401843699, -36.388138648559135 ] } },
{ "type": "Feature", "properties": { "50": 0.373, "retreat_50": 546.66 }, "geometry": { "type": "Point", "coordinates": [ 174.05109258238744, -36.389257368697905 ] } },
{ "type": "Feature", "properties": { "50": 0.373, "retreat_50": 279.71 }, "geometry": { "type": "Point", "coordinates": [ 174.048488895349664, -36.390329518261211 ] } },
{ "type": "Feature", "properties": { "50": 0.373, "retreat_50": 81.16 }, "geometry": { "type": "Point", "coordinates": [ 174.046412189825361, -36.390977691725929 ] } },
{ "type": "Feature", "properties": { "50": 0.373, "retreat_50": -85.09 }, "geometry": { "type": "Point", "coordinates": [ 174.044569226216851, -36.391437803343344 ] } },
{ "type": "Feature", "properties": { "50": 0.373, "retreat_50": -201.94 }, "geometry": { "type": "Point", "coordinates": [ 174.04316163511902, -36.391547710959443 ] } },
{ "type": "Feature", "properties": { "50": 0.373, "retreat_50": -352.99 }, "geometry": { "type": "Point", "coordinates": [ 174.041463867885227, -36.391890968189692 ] } },
{ "type": "Feature", "properties": { "50": 0.373, "retreat_50": -321.64 }, "geometry": { "type": "Point", "coordinates": [ 174.041205627377877, -36.391076474169907 ] } },
{ "type": "Feature", "properties": { "50": 0.373, "retreat_50": -140.19 }, "geometry": { "type": "Point", "coordinates": [ 174.04213296015476, -36.389308455274445 ] } },
{ "type": "Feature", "properties": { "50": 0.373, "retreat_50": -98.39 }, "geometry": { "type": "Point", "coordinates": [ 174.041957681432848, -36.388427220191737 ] } },
{ "type": "Feature", "properties": { "50": 0.373, "retreat_50": -141.14 }, "geometry": { "type": "Point", "coordinates": [ 174.041109664917599, -36.388087057005613 ] } },
{ "type": "Feature", "properties": { "50": 0.373, "retreat_50": -291.24 }, "geometry": { "type": "Point", "coordinates": [ 174.039430241099893, -36.388415558957462 ] } },
{ "type": "Feature", "properties": { "50": 0.373, "retreat_50": -290.29 }, "geometry": { "type": "Point", "coordinates": [ 174.038942764118843, -36.387785412486771 ] } },
{ "type": "Feature", "properties": { "50": 0.373, "retreat_50": -315.94 }, "geometry": { "type": "Point", "coordinates": [ 174.038262339005115, -36.387310441942148 ] } },
{ "type": "Feature", "properties": { "50": 0.373, "retreat_50": -299.79 }, "geometry": { "type": "Point", "coordinates": [ 174.037901786506353, -36.386578210335429 ] } },
{ "type": "Feature", "properties": { "50": 0.373, "retreat_50": 134.36 }, "geometry": { "type": "Point", "coordinates": [ 174.04080830702361, -36.383218279660284 ] } },
{ "type": "Feature", "properties": { "50": 0.373, "retreat_50": 51.71 }, "geometry": { "type": "Point", "coordinates": [ 174.039609309564725, -36.383160416756702 ] } },
{ "type": "Feature", "properties": { "50": 0.373, "retreat_50": 114.41 }, "geometry": { "type": "Point", "coordinates": [ 174.039565456475657, -36.382159837465885 ] } },
{ "type": "Feature", "properties": { "50": 0.373, "retreat_50": 132.46 }, "geometry": { "type": "Point", "coordinates": [ 174.039153183824595, -36.381437356287179 ] } },
{ "type": "Feature", "properties": { "50": 0.373, "retreat_50": 292.06 }, "geometry": { "type": "Point", "coordinates": [ 174.040225942131826, -36.380142764740114 ] } },
{ "type": "Feature", "properties": { "50": 0.373, "retreat_50": 542.86 }, "geometry": { "type": "Point", "coordinates": [ 174.042248134325064, -36.37848283691082 ] } },
{ "type": "Feature", "properties": { "50": 0.373, "retreat_50": 495.36 }, "geometry": { "type": "Point", "coordinates": [ 174.041338106313049, -36.378048328844031 ] } },
{ "type": "Feature", "properties": { "50": 0.373, "retreat_50": 487.76 }, "geometry": { "type": "Point", "coordinates": [ 174.040883365638251, -36.377423538266925 ] } },
{ "type": "Feature", "properties": { "50": 0.373, "retreat_50": 402.26 }, "geometry": { "type": "Point", "coordinates": [ 174.039632571721825, -36.377131426614405 ] } },
{ "type": "Feature", "properties": { "50": 0.373, "retreat_50": 370.91 }, "geometry": { "type": "Point", "coordinates": [ 174.038900390537322, -36.376622569646592 ] } },
{ "type": "Feature", "properties": { "50": 0.373, "retreat_50": 323.41 }, "geometry": { "type": "Point", "coordinates": [ 174.038039035873766, -36.376167687795089 ] } },
{ "type": "Feature", "properties": { "50": 0.373, "retreat_50": 562.81 }, "geometry": { "type": "Point", "coordinates": [ 174.039992189247499, -36.374536576098073 ] } },
{ "type": "Feature", "properties": { "50": 0.373, "retreat_50": 1143.26 }, "geometry": { "type": "Point", "coordinates": [ 174.04526951986648, -36.371506373765932 ] } },
{ "type": "Feature", "properties": { "50": 0.373, "retreat_50": 1104.31 }, "geometry": { "type": "Point", "coordinates": [ 174.044502691940551, -36.37101287631662 ] } },
{ "type": "Feature", "properties": { "50": 0.373, "retreat_50": 782.26 }, "geometry": { "type": "Point", "coordinates": [ 174.040941918847608, -36.371693858949499 ] } },
{ "type": "Feature", "properties": { "50": 0.373, "retreat_50": 773.71 }, "geometry": { "type": "Point", "coordinates": [ 174.040480735440951, -36.371071853539604 ] } },
{ "type": "Feature", "properties": { "50": 0.373, "retreat_50": 192.31 }, "geometry": { "type": "Point", "coordinates": [ 174.034355279595246, -36.372817943105517 ] } },
{ "type": "Feature", "properties": { "50": 0.373, "retreat_50": 11.81 }, "geometry": { "type": "Point", "coordinates": [ 174.032185603920453, -36.372909721914077 ] } },
{ "type": "Feature", "properties": { "50": 0.374, "retreat_50": -231.33 }, "geometry": { "type": "Point", "coordinates": [ 174.029379572833193, -36.373267346961192 ] } },
{ "type": "Feature", "properties": { "50": 0.374, "retreat_50": -404.23 }, "geometry": { "type": "Point", "coordinates": [ 174.027328097219225, -36.37330963497606 ] } },
{ "type": "Feature", "properties": { "50": 0.374, "retreat_50": -515.38 }, "geometry": { "type": "Point", "coordinates": [ 174.02582771351257, -36.373121640421267 ] } },
{ "type": "Feature", "properties": { "50": 0.374, "retreat_50": -571.43 }, "geometry": { "type": "Point", "coordinates": [ 174.024766250223365, -36.372750250595274 ] } },
{ "type": "Feature", "properties": { "50": 0.374, "retreat_50": -982.78 }, "geometry": { "type": "Point", "coordinates": [ 174.020383995836681, -36.373766136368154 ] } },
{ "type": "Feature", "properties": { "50": 0.374, "retreat_50": -994.18 }, "geometry": { "type": "Point", "coordinates": [ 174.019934340491233, -36.373139124331999 ] } },
{ "type": "Feature", "properties": { "50": 0.374, "retreat_50": -1358.98 }, "geometry": { "type": "Point", "coordinates": [ 174.015941462176954, -36.374000283610869 ] } },
{ "type": "Feature", "properties": { "50": 0.374, "retreat_50": -1524.28 }, "geometry": { "type": "Point", "coordinates": [ 174.014024752532521, -36.373989614636137 ] } },
{ "type": "Feature", "properties": { "50": 0.374, "retreat_50": -1617.38 }, "geometry": { "type": "Point", "coordinates": [ 174.012865561953646, -36.373660721757865 ] } },
{ "type": "Feature", "properties": { "50": 0.374, "retreat_50": -1711.43 }, "geometry": { "type": "Point", "coordinates": [ 174.011489213963046, -36.373423027499271 ] } },
{ "type": "Feature", "properties": { "50": 0.374, "retreat_50": -1790.28 }, "geometry": { "type": "Point", "coordinates": [ 174.010400288429651, -36.373064591524717 ] } },
{ "type": "Feature", "properties": { "50": 0.374, "retreat_50": -1803.58 }, "geometry": { "type": "Point", "coordinates": [ 174.009975805600476, -36.372427067830358 ] } },
{ "type": "Feature", "properties": { "50": 0.374, "retreat_50": -1686.73 }, "geometry": { "type": "Point", "coordinates": [ 174.010629431550882, -36.371336707490123 ] } },
{ "type": "Feature", "properties": { "50": 0.374, "retreat_50": -1860.58 }, "geometry": { "type": "Point", "coordinates": [ 174.008579576600965, -36.371381861485936 ] } },
{ "type": "Feature", "properties": { "50": 0.374, "retreat_50": -1812.13 }, "geometry": { "type": "Point", "coordinates": [ 174.008615243828928, -36.370551053172747 ] } },
{ "type": "Feature", "properties": { "50": 0.374, "retreat_50": -1165.18 }, "geometry": { "type": "Point", "coordinates": [ 174.014548528947842, -36.367242909527356 ] } },
{ "type": "Feature", "properties": { "50": 0.374, "retreat_50": -1149.98 }, "geometry": { "type": "Point", "coordinates": [ 174.014382040059587, -36.366496984708888 ] } },
{ "type": "Feature", "properties": { "50": 0.374, "retreat_50": -1508.13 }, "geometry": { "type": "Point", "coordinates": [ 174.010530556641982, -36.367299025141776 ] } },
{ "type": "Feature", "properties": { "50": 0.374, "retreat_50": -754.78 }, "geometry": { "type": "Point", "coordinates": [ 174.017611285916047, -36.363515970698849 ] } },
{ "type": "Feature", "properties": { "50": 0.374, "retreat_50": -884.93 }, "geometry": { "type": "Point", "coordinates": [ 174.016133547841804, -36.363318381980157 ] } },
{ "type": "Feature", "properties": { "50": 0.374, "retreat_50": -1402.68 }, "geometry": { "type": "Point", "coordinates": [ 174.010759131424436, -36.364755401117044 ] } },
{ "type": "Feature", "properties": { "50": 0.374, "retreat_50": -1106.28 }, "geometry": { "type": "Point", "coordinates": [ 174.0133658503851, -36.362844702448655 ] } },
{ "type": "Feature", "properties": { "50": 0.374, "retreat_50": -1605.98 }, "geometry": { "type": "Point", "coordinates": [ 174.008130874837889, -36.364227646904538 ] } },
{ "type": "Feature", "properties": { "50": 0.374, "retreat_50": -1817.83 }, "geometry": { "type": "Point", "coordinates": [ 174.005786588186339, -36.364396432227373 ] } },
{ "type": "Feature", "properties": { "50": 0.374, "retreat_50": -1812.13 }, "geometry": { "type": "Point", "coordinates": [ 174.005720492921256, -36.363608310908539 ] } },
{ "type": "Feature", "properties": { "50": 0.374, "retreat_50": -1655.38 }, "geometry": { "type": "Point", "coordinates": [ 174.006798003912962, -36.361734309630563 ] } },
{ "type": "Feature", "properties": { "50": 0.374, "retreat_50": -1710.48 }, "geometry": { "type": "Point", "coordinates": [ 174.004911537521281, -36.359007982143758 ] } },
{ "type": "Feature", "properties": { "50": 0.374, "retreat_50": -1841.58 }, "geometry": { "type": "Point", "coordinates": [ 174.002696092013394, -36.356709922592373 ] } },
{ "type": "Feature", "properties": { "50": 0.374, "retreat_50": -1312.43 }, "geometry": { "type": "Point", "coordinates": [ 174.008235567630493, -36.355253624999158 ] } },
{ "type": "Feature", "properties": { "50": 0.374, "retreat_50": -1341.88 }, "geometry": { "type": "Point", "coordinates": [ 174.007546985861126, -36.354610672570814 ] } },
{ "type": "Feature", "properties": { "50": 0.374, "retreat_50": -1177.53 }, "geometry": { "type": "Point", "coordinates": [ 174.008921328013088, -36.353698258335157 ] } },
{ "type": "Feature", "properties": { "50": 0.374, "retreat_50": -1117.68 }, "geometry": { "type": "Point", "coordinates": [ 174.009080093662362, -36.352944612989276 ] } },
{ "type": "Feature", "properties": { "50": 0.374, "retreat_50": -959.03 }, "geometry": { "type": "Point", "coordinates": [ 174.010170098022343, -36.352070973518082 ] } },
{ "type": "Feature", "properties": { "50": 0.374, "retreat_50": -868.78 }, "geometry": { "type": "Point", "coordinates": [ 174.010716671506572, -36.351267831716569 ] } },
{ "type": "Feature", "properties": { "50": 0.374, "retreat_50": -747.18 }, "geometry": { "type": "Point", "coordinates": [ 174.011641117503814, -36.350415967198053 ] } },
{ "type": "Feature", "properties": { "50": 0.374, "retreat_50": -604.68 }, "geometry": { "type": "Point", "coordinates": [ 174.012762591770638, -36.349538684558077 ] } },
{ "type": "Feature", "properties": { "50": 0.374, "retreat_50": -477.38 }, "geometry": { "type": "Point", "coordinates": [ 174.013740362039101, -36.348679909572354 ] } },
{ "type": "Feature", "properties": { "50": 0.374, "retreat_50": -339.63 }, "geometry": { "type": "Point", "coordinates": [ 174.014745223159395, -36.347817623698745 ] } },
{ "type": "Feature", "properties": { "50": 0.374, "retreat_50": -283.58 }, "geometry": { "type": "Point", "coordinates": [ 174.015142345108359, -36.347033688283496 ] } },
{ "type": "Feature", "properties": { "50": 0.374, "retreat_50": -215.18 }, "geometry": { "type": "Point", "coordinates": [ 174.015361738281115, -36.346272662263694 ] } },
{ "type": "Feature", "properties": { "50": 0.374, "retreat_50": -199.98 }, "geometry": { "type": "Point", "coordinates": [ 174.015064645787106, -36.345578230716654 ] } },
{ "type": "Feature", "properties": { "50": 0.374, "retreat_50": -134.43 }, "geometry": { "type": "Point", "coordinates": [ 174.015334946368768, -36.344810626137871 ] } },
{ "type": "Feature", "properties": { "50": 0.374, "retreat_50": -49.88 }, "geometry": { "type": "Point", "coordinates": [ 174.01568839023642, -36.344032291444947 ] } },
{ "type": "Feature", "properties": { "50": 0.374, "retreat_50": -20.43 }, "geometry": { "type": "Point", "coordinates": [ 174.015512772662959, -36.343322176056759 ] } },
{ "type": "Feature", "properties": { "50": 0.374, "retreat_50": 10.92 }, "geometry": { "type": "Point", "coordinates": [ 174.015727484953345, -36.342561717245069 ] } },
{ "type": "Feature", "properties": { "50": 0.374, "retreat_50": 40.37 }, "geometry": { "type": "Point", "coordinates": [ 174.01563133896758, -36.341841340012316 ] } },
{ "type": "Feature", "properties": { "50": 0.374, "retreat_50": -63.18 }, "geometry": { "type": "Point", "coordinates": [ 174.013382792358868, -36.333337486387364 ] } },
{ "type": "Feature", "properties": { "50": 0.374, "retreat_50": -117.33 }, "geometry": { "type": "Point", "coordinates": [ 174.012560188760858, -36.332710704324853 ] } },
{ "type": "Feature", "properties": { "50": 0.374, "retreat_50": -177.18 }, "geometry": { "type": "Point", "coordinates": [ 174.011875693051223, -36.33206610316207 ] } },
{ "type": "Feature", "properties": { "50": 0.374, "retreat_50": -249.38 }, "geometry": { "type": "Point", "coordinates": [ 174.011171136204922, -36.331424079638644 ] } },
{ "type": "Feature", "properties": { "50": 0.374, "retreat_50": -269.33 }, "geometry": { "type": "Point", "coordinates": [ 174.01113667723331, -36.330695644153728 ] } },
{ "type": "Feature", "properties": { "50": 0.374, "retreat_50": -379.53 }, "geometry": { "type": "Point", "coordinates": [ 174.010107837262865, -36.330095417432169 ] } },
{ "type": "Feature", "properties": { "50": 0.374, "retreat_50": -388.08 }, "geometry": { "type": "Point", "coordinates": [ 174.010270634267442, -36.329341535885568 ] } },
{ "type": "Feature", "properties": { "50": 0.374, "retreat_50": -403.28 }, "geometry": { "type": "Point", "coordinates": [ 174.010341912339129, -36.32859944743057 ] } },
{ "type": "Feature", "properties": { "50": 0.374, "retreat_50": -557.18 }, "geometry": { "type": "Point", "coordinates": [ 174.0086726181421, -36.328081771885294 ] } },
{ "type": "Feature", "properties": { "50": 0.374, "retreat_50": -543.88 }, "geometry": { "type": "Point", "coordinates": [ 174.009026621415416, -36.327303221011867 ] } },
{ "type": "Feature", "properties": { "50": 0.374, "retreat_50": -635.08 }, "geometry": { "type": "Point", "coordinates": [ 174.007955148857491, -36.326708447210827 ] } },
{ "type": "Feature", "properties": { "50": 0.374, "retreat_50": -675.93 }, "geometry": { "type": "Point", "coordinates": [ 174.007537088661167, -36.326029422752917 ] } },
{ "type": "Feature", "properties": { "50": 0.374, "retreat_50": -736.73 }, "geometry": { "type": "Point", "coordinates": [ 174.006835899713849, -36.325386891269069 ] } },
{ "type": "Feature", "properties": { "50": 0.374, "retreat_50": -729.13 }, "geometry": { "type": "Point", "coordinates": [ 174.006890712108344, -36.324646891012407 ] } },
{ "type": "Feature", "properties": { "50": 0.374, "retreat_50": -835.53 }, "geometry": { "type": "Point", "coordinates": [ 174.005776701481409, -36.324057562006736 ] } },
{ "type": "Feature", "properties": { "50": 0.373, "retreat_50": -855.54 }, "geometry": { "type": "Point", "coordinates": [ 174.005496663582193, -36.323360715400369 ] } },
{ "type": "Feature", "properties": { "50": 0.373, "retreat_50": -907.79 }, "geometry": { "type": "Point", "coordinates": [ 174.004911105133573, -36.322703245406785 ] } },
{ "type": "Feature", "properties": { "50": 0.373, "retreat_50": -959.09 }, "geometry": { "type": "Point", "coordinates": [ 174.004487137314953, -36.322024937937812 ] } },
{ "type": "Feature", "properties": { "50": 0.373, "retreat_50": -1008.49 }, "geometry": { "type": "Point", "coordinates": [ 174.00394086577208, -36.321362388058041 ] } },
{ "type": "Feature", "properties": { "50": 0.373, "retreat_50": -1062.64 }, "geometry": { "type": "Point", "coordinates": [ 174.003257266603015, -36.320717647724074 ] } },
{ "type": "Feature", "properties": { "50": 0.373, "retreat_50": -1116.79 }, "geometry": { "type": "Point", "coordinates": [ 174.002640502089662, -36.320065003801588 ] } },
{ "type": "Feature", "properties": { "50": 0.373, "retreat_50": -1144.34 }, "geometry": { "type": "Point", "coordinates": [ 174.002385591692445, -36.319365086099936 ] } },
{ "type": "Feature", "properties": { "50": 0.373, "retreat_50": -1171.89 }, "geometry": { "type": "Point", "coordinates": [ 174.002040772446236, -36.318676905499224 ] } },
{ "type": "Feature", "properties": { "50": 0.373, "retreat_50": -1226.99 }, "geometry": { "type": "Point", "coordinates": [ 174.001390838085115, -36.318028570670755 ] } },
{ "type": "Feature", "properties": { "50": 0.373, "retreat_50": -1262.14 }, "geometry": { "type": "Point", "coordinates": [ 174.000955569033493, -36.31735218929844 ] } },
{ "type": "Feature", "properties": { "50": 0.373, "retreat_50": -1287.79 }, "geometry": { "type": "Point", "coordinates": [ 174.000608520418581, -36.316664278112633 ] } },
{ "type": "Feature", "properties": { "50": 0.373, "retreat_50": -1303.94 }, "geometry": { "type": "Point", "coordinates": [ 174.000492778873223, -36.316922002214298 ] } },
{ "type": "Feature", "properties": { "50": 0.373, "retreat_50": -1318.19 }, "geometry": { "type": "Point", "coordinates": [ 174.000528531622706, -36.317169371408532 ] } }
]
}
