{
"type": "FeatureCollection",
"name": "htrend_lines_shoreline_50qtl_2100_8.5",
"crs": { "type": "name", "properties": { "name": "urn:ogc:def:crs:OGC:1.3:CRS84" } },
"features": [
{ "type": "Feature", "properties": { "group_id": "nzd0126" }, "geometry": { "type": "LineString", "coordinates": [ [ 174.102074274845052, -36.386382926874646 ], [ 174.101167015107421, -36.386378344982958 ], [ 174.100231495901653, -36.386206463608993 ], [ 174.099376425711085, -36.386510809176812 ], [ 174.098460265793136, -36.386453504847061 ], [ 174.097563938554515, -36.386513606766982 ], [ 174.096711526332967, -36.386833736279868 ], [ 174.095824156452522, -36.386946889860035 ], [ 174.094927844769614, -36.387007092928904 ], [ 174.09404570469718, -36.387151222187327 ], [ 174.093148775436532, -36.387207764965652 ], [ 174.092279143973968, -36.387425993877869 ], [ 174.09140171448351, -36.387598047306312 ], [ 174.090509170166825, -36.387680571600114 ], [ 174.08964210720913, -36.387914056045581 ], [ 174.088766382097731, -36.388096238165218 ], [ 174.087909230049263, -36.388390475880897 ], [ 174.087025034151281, -36.388523135758902 ], [ 174.086131995074936, -36.388602602772103 ], [ 174.085248944563489, -36.388742159618289 ], [ 174.084351001976245, -36.388792126407097 ], [ 174.083448549061643, -36.388814951497501 ], [ 174.082551894006968, -36.388872654714774 ], [ 174.081650446190821, -36.388901514518032 ], [ 174.080725363476631, -36.388790904987843 ], [ 174.079787572238473, -36.38860517020283 ], [ 174.078853843466675, -36.388443483389302 ], [ 174.077912055680855, -36.388233973081419 ], [ 174.076960579268899, -36.387966964496187 ], [ 174.076007674730675, -36.387691434301075 ], [ 174.075057854197155, -36.387434142396337 ], [ 174.074100941587403, -36.387134733021774 ], [ 174.073137075471664, -36.386794018257604 ], [ 174.072175410232347, -36.386466296684588 ], [ 174.071202883505777, -36.386074072662225 ], [ 174.070210965019783, -36.385566716282774 ], [ 174.069224242395961, -36.385090101199516 ], [ 174.068214632755144, -36.384477577665045 ], [ 174.06717980932811, -36.383715300614455 ], [ 174.066132512456619, -36.382878850573377 ], [ 174.065061165777763, -36.381899487449054 ], [ 174.063976900484022, -36.380843252798904 ], [ 174.062881754256267, -36.37972222210756 ], [ 174.061767607669907, -36.378488162593932 ], [ 174.060644143583346, -36.377198541688053 ], [ 174.059524403600733, -36.375930799155888 ], [ 174.058398525109254, -36.374626359207376 ], [ 174.057287175154869, -36.373407983008647 ], [ 174.056195830783111, -36.372308237221311 ], [ 174.055135270626806, -36.371391200962762 ], [ 174.055917521800893, -36.370520814863411 ], [ 174.069922576322853, -36.372295713812022 ], [ 174.078558812087834, -36.378333541122743 ], [ 174.077242962954045, -36.378373009356672 ], [ 174.075804000691249, -36.378512038295661 ], [ 174.074055392908491, -36.378901494015601 ], [ 174.071959664877028, -36.37957165522041 ], [ 174.069456020276107, -36.380571647239371 ], [ 174.066689737999582, -36.381783921305683 ], [ 174.063652190725463, -36.383215407564158 ], [ 174.060565330934679, -36.38468659229526 ], [ 174.057371422852214, -36.386244144379887 ], [ 174.054364076292387, -36.387647868370301 ], [ 174.051635089307268, -36.388820961507008 ], [ 174.049159071973747, -36.389790444019546 ], [ 174.046977260662459, -36.390523184942836 ], [ 174.045119292334505, -36.390995383843439 ], [ 174.043651635547434, -36.391153613869484 ], [ 174.04247202451495, -36.391080152457079 ], [ 174.041567974908418, -36.390785054877824 ], [ 174.040880810856805, -36.390315519816212 ], [ 174.040367626508015, -36.389706057554015 ], [ 174.039977673114976, -36.388997483322754 ], [ 174.039732507818059, -36.388172458598227 ], [ 174.039605469298209, -36.387252423632162 ], [ 174.039600861314909, -36.38623391377098 ], [ 174.039690836511483, -36.385139322129142 ], [ 174.039804037213315, -36.384026038516808 ], [ 174.039926571259571, -36.382905235735876 ], [ 174.040081091126837, -36.381762526727272 ], [ 174.040355006341201, -36.380761084489819 ], [ 174.040745777597039, -36.379925523982727 ], [ 174.040999230971551, -36.379004781672435 ], [ 174.041161729973823, -36.378122040521184 ], [ 174.041252653457462, -36.377269203506209 ], [ 174.041187258939942, -36.376481688590111 ], [ 174.040963095196417, -36.375760522185608 ], [ 174.040590940499982, -36.375101200710084 ], [ 174.039994565924985, -36.374535582809067 ], [ 174.039124321663934, -36.374084416683637 ], [ 174.038103063163931, -36.373696353964974 ], [ 174.036814986465288, -36.37341978630441 ], [ 174.035271873432379, -36.373249781018608 ], [ 174.03351095471254, -36.373170769163664 ], [ 174.031538835154379, -36.373179979472255 ], [ 174.029400171526675, -36.373258740177178 ], [ 174.027226389931371, -36.373352129257853 ], [ 174.02493571103858, -36.373494310520783 ], [ 174.022528847919489, -36.373684977583807 ], [ 174.020366961367841, -36.373773252288927 ], [ 174.018300781616858, -36.373824976281412 ], [ 174.016347334636549, -36.373829786387638 ], [ 174.014740748368268, -36.373688855196178 ], [ 174.013440596018086, -36.373419180994624 ], [ 174.012233407573859, -36.373110441107912 ], [ 174.011435808604887, -36.372629646288111 ], [ 174.010898549482846, -36.372039493327684 ], [ 174.010349287664468, -36.371454375997303 ], [ 174.010113150004059, -36.37073773241319 ], [ 174.009857483317205, -36.370029286198644 ], [ 174.009626267322744, -36.369310564600269 ], [ 174.009544395136913, -36.36852910831248 ], [ 174.009442279585471, -36.367756148908462 ], [ 174.009236950459297, -36.367026537266213 ], [ 174.009151207018107, -36.366246689305271 ], [ 174.008956732102661, -36.36551250727436 ], [ 174.008641045491856, -36.364829233977105 ], [ 174.008358177046148, -36.364132170334862 ], [ 174.008175148921708, -36.363393163942376 ], [ 174.008221789340951, -36.362557679919398 ], [ 174.008091711321555, -36.361238871342742 ], [ 174.007404981489003, -36.358423640837508 ], [ 174.007443305320265, -36.356089990088307 ], [ 174.008070318488024, -36.355275209328092 ], [ 174.008750916946326, -36.354453417567605 ], [ 174.00948769722936, -36.353624284967118 ], [ 174.010232036121096, -36.352795671209996 ], [ 174.010883011161411, -36.351979078843392 ], [ 174.011774583278481, -36.351131458586067 ], [ 174.012678106708051, -36.350282281487893 ], [ 174.013517296307299, -36.349441382715902 ], [ 174.014285969877051, -36.348609561065345 ], [ 174.01486220058689, -36.347802540130651 ], [ 174.015583398930289, -36.34697681418691 ], [ 174.015865511653288, -36.346207698688396 ], [ 174.016059748597428, -36.345449907415144 ], [ 174.016131416814062, -36.344707915206222 ], [ 174.015909898883734, -36.344003725801066 ], [ 174.015587928707561, -36.343312484037234 ], [ 174.015457674024162, -36.342596512140076 ], [ 174.014838858338408, -36.341943537088305 ], [ 174.013384772800038, -36.333337230993976 ], [ 174.012687596286042, -36.332694274810706 ], [ 174.012097169314387, -36.3320375442025 ], [ 174.011570296697414, -36.331372610258327 ], [ 174.011117753578702, -36.330698084231059 ], [ 174.010653318913313, -36.33002508412271 ], [ 174.01026216276486, -36.329342628186659 ], [ 174.009863111632654, -36.328661183111095 ], [ 174.009249442258806, -36.328007402270458 ], [ 174.0088509243825, -36.327325873727595 ], [ 174.008187063066913, -36.326678547846264 ], [ 174.00764358354985, -36.326015693290117 ], [ 174.007057359095455, -36.325358341392722 ], [ 174.006485091732173, -36.324699181976882 ], [ 174.005998157526477, -36.324029014041123 ], [ 174.005394792399869, -36.323373847383223 ], [ 174.004840587914202, -36.322712335360826 ], [ 174.004447973617033, -36.322029986207198 ], [ 174.003912153276104, -36.321366089050315 ], [ 174.003312142614163, -36.320710479465404 ], [ 174.002810297555186, -36.320042824671013 ], [ 174.002398678153241, -36.319363376736035 ], [ 174.001949387886413, -36.31868884200415 ], [ 174.001539735521902, -36.318009122456175 ], [ 174.001188040731648, -36.317321825594988 ], [ 174.000893224433753, -36.31662709270897 ], [ 174.000814095350876, -36.316858642488498 ], [ 174.000943153836801, -36.317058838542756 ] ] } }
]
}
