{
"type": "FeatureCollection",
"name": "lines_ref_shoreline_2005_2100_8.5",
"crs": { "type": "name", "properties": { "name": "urn:ogc:def:crs:OGC:1.3:CRS84" } },
"features": [
{ "type": "Feature", "properties": { "group_id": "nzd0174" }, "geometry": { "type": "LineString", "coordinates": [ [ 174.774959967575882, -36.784664809933439 ], [ 174.774687714963392, -36.785391105753803 ], [ 174.774790372194616, -36.786159039800708 ], [ 174.774990786710873, -36.78688789204984 ], [ 174.775349177199757, -36.787566040504942 ], [ 174.775730546923853, -36.788233386285704 ], [ 174.776265285339065, -36.788834693025287 ], [ 174.776812207576512, -36.789415012031746 ], [ 174.777387405660079, -36.789967540485151 ], [ 174.777989319404185, -36.7905034736484 ], [ 174.778590905008969, -36.791041043269871 ], [ 174.779246751754982, -36.791537133443732 ], [ 174.779890775209168, -36.79203967892385 ], [ 174.780526052074663, -36.792548078643321 ], [ 174.781190192999958, -36.793029103620832 ], [ 174.781769539668289, -36.793581657703136 ] ] } }
]
}
