{
"type": "FeatureCollection",
"name": "lines_shoreline_50qtl_2100_8.5",
"crs": { "type": "name", "properties": { "name": "urn:ogc:def:crs:OGC:1.3:CRS84" } },
"features": [
{ "type": "Feature", "properties": { "group_id": "nzd0126" }, "geometry": { "type": "LineString", "coordinates": [ [ 174.103045650918261, -36.392213431531076 ], [ 174.102134334402251, -36.392183369767238 ], [ 174.101195173378869, -36.391985962999151 ], [ 174.100329631933647, -36.39223096424724 ], [ 174.09940248601967, -36.392105730038736 ], [ 174.098490646865997, -36.392072472466651 ], [ 174.097620669388931, -36.392290825645219 ], [ 174.096712012711123, -36.392276685040791 ], [ 174.095794547454148, -36.392209579267991 ], [ 174.0948924606692, -36.392234909258413 ], [ 174.093975803123357, -36.392172628776315 ], [ 174.093090281624285, -36.392297539392359 ], [ 174.092195666509042, -36.392367774584194 ], [ 174.091287570527641, -36.39235694341378 ], [ 174.09040176358755, -36.392480138434365 ], [ 174.089504600612031, -36.392535042533382 ], [ 174.088626068840028, -36.39270199582414 ], [ 174.087720668221323, -36.392707352037533 ], [ 174.086809247804723, -36.392676489695013 ], [ 174.085914873825857, -36.39274815313793 ], [ 174.085011250830945, -36.392764175635321 ], [ 174.084111582364528, -36.392803980124079 ], [ 174.083226176344283, -36.392929586496827 ], [ 174.082345850243314, -36.393085760818622 ], [ 174.081453620027247, -36.393170315521388 ], [ 174.080560184963218, -36.393247619595044 ], [ 174.079683441254133, -36.39342536487181 ], [ 174.078808619574914, -36.393614686312063 ], [ 174.077931291142448, -36.393788932117609 ], [ 174.077058185916798, -36.393988604793748 ], [ 174.076189520045801, -36.394215009321492 ], [ 174.075315263014119, -36.394407774005487 ], [ 174.074438370609442, -36.394584686017978 ], [ 174.073566455655055, -36.394791570967165 ], [ 174.072692280648198, -36.394984862557692 ], [ 174.071807434200821, -36.395113917891905 ], [ 174.070938971981548, -36.395341623988067 ], [ 174.070062025955224, -36.39551826269701 ], [ 174.069175707214981, -36.39563847334783 ], [ 174.068293981276071, -36.395786344158921 ], [ 174.067405429918637, -36.395893117769234 ], [ 174.066519613791712, -36.396016365965068 ], [ 174.065635719551523, -36.396151192861474 ], [ 174.064742918639098, -36.396232378748742 ], [ 174.063847937518716, -36.396300431204224 ], [ 174.062957999529402, -36.396398859898994 ], [ 174.062061968899656, -36.396460586635762 ], [ 174.06117177584963, -36.396557478429152 ], [ 174.060285782288389, -36.396679671974489 ], [ 174.059400538459641, -36.396806386235454 ], [ 174.05847001005742, -36.396919047501811 ], [ 174.05708738684973, -36.397231992733197 ], [ 174.054765371430079, -36.397547460993721 ], [ 174.053635234358381, -36.397434312360531 ], [ 174.052757090970459, -36.397118460013402 ], [ 174.051981422792466, -36.396720175779542 ], [ 174.051285688264301, -36.39625759287545 ], [ 174.050601441587816, -36.39578576589556 ], [ 174.050006831311492, -36.395241837672366 ], [ 174.049373094055028, -36.394729377187005 ], [ 174.048825198695909, -36.394147868315237 ], [ 174.048177608926068, -36.393646543086383 ], [ 174.047621321411299, -36.393071777953971 ], [ 174.047144839895736, -36.392432820040888 ], [ 174.046651098509159, -36.391807741638253 ], [ 174.046143761087819, -36.391193595841209 ], [ 174.045614891902744, -36.390596765513884 ], [ 174.045130934133113, -36.389963808964282 ], [ 174.044627151893167, -36.389346794672996 ], [ 174.044121088707499, -36.388731612001166 ], [ 174.043614139681665, -36.388117138834183 ], [ 174.043108454743845, -36.387501645940048 ], [ 174.042598342939982, -36.386889710669216 ], [ 174.042105362627012, -36.386263993200473 ], [ 174.041610366113474, -36.385639894411256 ], [ 174.041132678681038, -36.385001870584837 ], [ 174.040644458426812, -36.384372315528381 ], [ 174.040119405148232, -36.383772383031882 ], [ 174.039573662941763, -36.383189088015961 ], [ 174.039023021555039, -36.382577791844618 ], [ 174.038373003666237, -36.381876355080031 ], [ 174.037800928868478, -36.381156139278033 ], [ 174.037339374266509, -36.380534203326398 ], [ 174.036899776815289, -36.379903086793597 ], [ 174.036520329445921, -36.379246830148951 ], [ 174.036116281300366, -36.378600848011779 ], [ 174.035694585102817, -36.377962235059208 ], [ 174.035303649174182, -36.377310763052932 ], [ 174.034886053183243, -36.376670426048243 ], [ 174.034420366854022, -36.376050178999101 ], [ 174.034038858910691, -36.375394751308534 ], [ 174.033663351984416, -36.374736810643796 ], [ 174.033286814741473, -36.374079295157976 ], [ 174.032918258980033, -36.373418439123483 ], [ 174.032536071273285, -36.37276327406672 ], [ 174.032137875189449, -36.372114793024949 ], [ 174.031798650518169, -36.371441664428083 ], [ 174.031398993203396, -36.370793783287212 ], [ 174.030892584361794, -36.370190504677637 ], [ 174.030584106404717, -36.369504512044912 ], [ 174.03024728094158, -36.368830359478281 ], [ 174.029863145232781, -36.36817597095758 ], [ 174.029581648230987, -36.367478687604915 ], [ 174.029343497134249, -36.366763285752498 ], [ 174.028897370492501, -36.366134785348777 ], [ 174.028588439996696, -36.365448949317916 ], [ 174.028295524928723, -36.364756415435473 ], [ 174.027793045145529, -36.364151447453423 ], [ 174.027462901804739, -36.363474459549359 ], [ 174.027019142146031, -36.362844943353274 ], [ 174.026552826364309, -36.36222484731816 ], [ 174.02623600965245, -36.361542274591422 ], [ 174.025927152762705, -36.360856370247461 ], [ 174.025552606579112, -36.360197910265896 ], [ 174.025363616737479, -36.359461905695788 ], [ 174.025112818178286, -36.358751723729142 ], [ 174.024787716720596, -36.358072585750143 ], [ 174.024495467039628, -36.357379714284008 ], [ 174.024246722216958, -36.35666865748049 ], [ 174.02412441396433, -36.355904759241142 ], [ 174.023960704004168, -36.355188419009018 ], [ 174.023734469784671, -36.354620988979903 ], [ 174.023480753572755, -36.354017916673527 ], [ 174.023198270023272, -36.353321687624785 ], [ 174.022833493824379, -36.352636067979994 ], [ 174.02239947878121, -36.351959373306975 ], [ 174.021899571989962, -36.351291171314081 ], [ 174.021243602213957, -36.350643092997998 ], [ 174.020796883178519, -36.349968014447022 ], [ 174.020383050997367, -36.34928868649498 ], [ 174.019936276150418, -36.348613600522064 ], [ 174.019513099940411, -36.34793546334501 ], [ 174.019002048268476, -36.347268653239468 ], [ 174.018782339309723, -36.346564258262553 ], [ 174.01824901453287, -36.345900306353755 ], [ 174.017784636622167, -36.345227454218858 ], [ 174.01733360101187, -36.34455287385812 ], [ 174.016756647944419, -36.343894525500701 ], [ 174.016256959683972, -36.343226204544777 ], [ 174.016126699026216, -36.342510233312154 ], [ 174.015706493570377, -36.341831647905053 ], [ 174.014597240327276, -36.333180867360817 ], [ 174.014370404521515, -36.332477259186916 ], [ 174.014344379037595, -36.331747746288151 ], [ 174.014434157892651, -36.331003291351649 ], [ 174.014619158495378, -36.330246548270445 ], [ 174.014802708142469, -36.329489984783734 ], [ 174.015059523555777, -36.328723963941542 ], [ 174.015297980709335, -36.327960303007387 ], [ 174.015321812568288, -36.327224317885296 ], [ 174.015529426134179, -36.326464620382048 ], [ 174.015461240770321, -36.32574049057289 ], [ 174.015492521898295, -36.325003523935429 ], [ 174.015460147439228, -36.324274761501187 ], [ 174.015431269461061, -36.323545541358243 ], [ 174.015487712759096, -36.32280530857777 ], [ 174.015427719836708, -36.322080088639254 ], [ 174.015416876804352, -36.321348521910664 ], [ 174.015557157984432, -36.320597453674807 ], [ 174.015554229412885, -36.319864852325118 ], [ 174.015466199286777, -36.319143222420195 ], [ 174.015444852207366, -36.318412983692411 ], [ 174.015492848362499, -36.317673792745225 ], [ 174.015450904346977, -36.316946197618321 ], [ 174.015406802662056, -36.316218874173529 ], [ 174.015357969391403, -36.315492154468423 ], [ 174.015292876877993, -36.314767525665374 ], [ 174.015121305178553, -36.314059493374025 ], [ 174.014982312364566, -36.313339576451938 ] ] } },
{ "type": "Feature", "properties": { "group_id": "nzd0455" }, "geometry": { "type": "LineString", "coordinates": [ [ 168.244062391743967, -44.158042225926245 ], [ 168.245008810209413, -44.157969008839032 ], [ 168.245856757775783, -44.1577483578656 ], [ 168.246641153557135, -44.157402809457203 ], [ 168.247438994048935, -44.15704614555775 ], [ 168.248027089528307, -44.156508627477727 ], [ 168.248689257205029, -44.156071593713278 ], [ 168.249422032050973, -44.155697912525291 ], [ 168.250108767102063, -44.155282916754778 ], [ 168.250755635584483, -44.154819227541033 ], [ 168.251446728471564, -44.154375113626926 ], [ 168.251980094389609, -44.153834968187695 ], [ 168.252544795117075, -44.153334187346758 ], [ 168.253085116927423, -44.152819879456132 ], [ 168.253603022328235, -44.152293133127088 ], [ 168.254099802710073, -44.151726571481426 ], [ 168.254562664189706, -44.151143324267615 ], [ 168.255056350782155, -44.150590331858403 ], [ 168.255387606472766, -44.149990581714441 ], [ 168.255554327785518, -44.14931314373937 ], [ 168.255736040169694, -44.148664785463076 ] ] } },
{ "type": "Feature", "properties": { "group_id": "nzd0456" }, "geometry": { "type": "LineString", "coordinates": [ [ 168.141408326896538, -44.218971683868851 ], [ 168.142208170832873, -44.218638566830741 ], [ 168.142929837318547, -44.218247784361189 ], [ 168.143584890414701, -44.217807866720605 ], [ 168.144244719304311, -44.217371467539309 ], [ 168.144856424937473, -44.216899571358262 ], [ 168.145432189148153, -44.216401163127472 ], [ 168.145991640645605, -44.215890720004964 ], [ 168.146498089092489, -44.215335005281148 ], [ 168.147017895064266, -44.214763941858749 ], [ 168.14755407028747, -44.21421156737275 ], [ 168.148027301881768, -44.213663359391084 ], [ 168.148454817356935, -44.213097680991325 ], [ 168.148911157446406, -44.212543008578365 ], [ 168.149290204791157, -44.211958802762453 ], [ 168.149685188704581, -44.211380679386551 ], [ 168.149991969474854, -44.210762986515924 ], [ 168.150339135096402, -44.210144824241127 ], [ 168.150588374115642, -44.209506637779079 ], [ 168.150944416708029, -44.208915336168154 ], [ 168.151264207662564, -44.208314172915479 ], [ 168.151542748853956, -44.207701789231059 ], [ 168.151868589378466, -44.207102257970249 ], [ 168.152090054507909, -44.206474344937554 ], [ 168.152377565289981, -44.205859552420897 ], [ 168.152691252308585, -44.205252114902713 ] ] } },
{ "type": "Feature", "properties": { "group_id": "nzd0457" }, "geometry": { "type": "LineString", "coordinates": [ [ 171.509351191908536, -44.188184599268453 ], [ 171.50861922852684, -44.188563440439943 ], [ 171.507789163788317, -44.188820969124087 ], [ 171.507034060331449, -44.189171192155001 ], [ 171.506309975369504, -44.189559771637065 ], [ 171.505562566206578, -44.189919506936334 ], [ 171.504794428476771, -44.190253607210096 ], [ 171.504035733370529, -44.190599382887051 ], [ 171.503270575038016, -44.190937164186636 ], [ 171.502540306236142, -44.191318090515843 ], [ 171.50179217005325, -44.191676919659798 ], [ 171.501059419037972, -44.192055606860819 ], [ 171.500304411505823, -44.192408651019932 ], [ 171.499569621941532, -44.192784374817364 ], [ 171.498824493708071, -44.193145652017087 ], [ 171.498085253901962, -44.19351394677102 ], [ 171.497310091130004, -44.193839418644593 ], [ 171.496562692513493, -44.194197984442923 ], [ 171.495800497790214, -44.194538910844301 ], [ 171.495053811277984, -44.194898322105665 ], [ 171.494291097358968, -44.195238625892799 ], [ 171.49353859092389, -44.195591095923383 ], [ 171.492773840990168, -44.195928968819253 ], [ 171.491999696514029, -44.196257314573302 ], [ 171.491240418595254, -44.19660320944913 ], [ 171.490449254266849, -44.196912796929276 ], [ 171.489715466692388, -44.19728489801188 ], [ 171.488924715166064, -44.197594751286267 ], [ 171.488196505996228, -44.19797294355125 ], [ 171.487456720368726, -44.198338483819668 ], [ 171.486705118979557, -44.198691110318251 ], [ 171.485964718694078, -44.199055974557126 ], [ 171.485233358275877, -44.199430715084503 ], [ 171.484496677280617, -44.199799639440563 ], [ 171.483752137158518, -44.200159973428981 ], [ 171.48299866941889, -44.200510549225186 ], [ 171.482273783379242, -44.200892356600917 ], [ 171.481531822342532, -44.201255502480066 ], [ 171.480783421560488, -44.20161160877084 ], [ 171.48006468029746, -44.202000125251544 ], [ 171.479329198349205, -44.202370345275078 ], [ 171.478552213046612, -44.202695206960747 ], [ 171.47780308300463, -44.203050507310813 ], [ 171.477075166427937, -44.203428988535279 ], [ 171.476330886546464, -44.203789585033967 ], [ 171.475591760809095, -44.204155812120518 ], [ 171.47485898212372, -44.204528973614863 ], [ 171.474113236056439, -44.204887961265946 ], [ 171.473363284263257, -44.20524235028978 ], [ 171.472640714471112, -44.205626662763109 ], [ 171.471883745304211, -44.205973423232393 ], [ 171.471154021573852, -44.206350517165482 ], [ 171.470421561117092, -44.206724101999527 ], [ 171.46969263673418, -44.207100842406554 ], [ 171.468953099250882, -44.207466332846153 ], [ 171.468232714653681, -44.207852119362265 ], [ 171.467468804259767, -44.208191774444295 ], [ 171.466731694062872, -44.208559830337443 ], [ 171.465993307257747, -44.208926530940225 ], [ 171.46525222780383, -44.209290375446919 ], [ 171.464548583815429, -44.209693893467801 ], [ 171.463821312211252, -44.210072367842379 ], [ 171.463069649192818, -44.210424988553974 ], [ 171.462339788432104, -44.210800714278562 ], [ 171.46161753935246, -44.211184419733392 ], [ 171.46088699144363, -44.21155866922998 ], [ 171.460145788910296, -44.211922558683234 ], [ 171.459406752252505, -44.212288854321407 ], [ 171.458677634071847, -44.212664892162337 ], [ 171.457979914796539, -44.213071777251663 ], [ 171.457251798741225, -44.213448794560989 ], [ 171.45652901359577, -44.21383104697864 ], [ 171.455832838969002, -44.214239442523656 ], [ 171.455102414831714, -44.214614184314058 ], [ 171.45437034330439, -44.214987304780571 ], [ 171.453705162901798, -44.215426146467891 ], [ 171.45296891134825, -44.215795154841885 ], [ 171.452227703613886, -44.216159290691522 ], [ 171.451542140787268, -44.216578098660619 ], [ 171.450824095031209, -44.216964987590259 ], [ 171.450052863381416, -44.217299614553824 ], [ 171.449355002192902, -44.217706331197903 ], [ 171.448658073640956, -44.218113961932445 ], [ 171.44792027839253, -44.218481434835191 ], [ 171.447201014375224, -44.218867136074934 ], [ 171.446483724409632, -44.219254786043301 ], [ 171.445763360827499, -44.219639387530734 ], [ 171.445049745474677, -44.220030568302249 ], [ 171.4443377611492, -44.220423343514241 ], [ 171.443626108397552, -44.220816440886871 ], [ 171.44291193645347, -44.221207069196041 ], [ 171.442203219337387, -44.22160303593197 ], [ 171.441499760637328, -44.222004148873225 ], [ 171.440799142846316, -44.22240804104635 ], [ 171.440082488153735, -44.222796228528175 ], [ 171.439368155858034, -44.223186687429184 ], [ 171.43867716542124, -44.223599998967934 ], [ 171.437967780604794, -44.22399529732062 ], [ 171.437256843609447, -44.224389073385346 ], [ 171.436545176024538, -44.224782131607597 ], [ 171.435814329602891, -44.225156407982375 ], [ 171.435121141944535, -44.225567556246844 ], [ 171.434402521179976, -44.225953798585621 ], [ 171.433702680324075, -44.226358427422575 ], [ 171.43299833946628, -44.22675227782738 ], [ 171.432304141708073, -44.227152063925466 ], [ 171.43161745298849, -44.227564930730011 ], [ 171.430934214789318, -44.22798276350327 ], [ 171.43025926219147, -44.228407534721505 ], [ 171.429584017439538, -44.228832058098973 ], [ 171.428913151594713, -44.229260247027362 ], [ 171.428233322972744, -44.229680923900951 ], [ 171.427563546745034, -44.230110019587478 ], [ 171.426884036169781, -44.230530956736196 ], [ 171.426209314832221, -44.230955903247036 ], [ 171.425499966939583, -44.23135183606486 ], [ 171.42481580637741, -44.231768867946009 ], [ 171.424148848928638, -44.232200309832542 ], [ 171.423453591597138, -44.2326080383286 ], [ 171.422775581249368, -44.233030028666377 ], [ 171.422088132947948, -44.233444191185299 ], [ 171.421410110033776, -44.233866314307505 ], [ 171.420747820475526, -44.234301293044581 ], [ 171.420071548146552, -44.234724855505206 ], [ 171.419407518103611, -44.235158407288949 ], [ 171.418713995996598, -44.23556788344515 ], [ 171.418037181046941, -44.235990993294635 ], [ 171.417371252884436, -44.236422986179406 ], [ 171.416715963270605, -44.236863659581218 ], [ 171.416042152419664, -44.237289211944358 ], [ 171.415378724045752, -44.23772323582287 ], [ 171.414688506679255, -44.238135389876547 ], [ 171.414023035551054, -44.238567739967984 ], [ 171.413356252248064, -44.238999015824419 ], [ 171.412725660470926, -44.239459830423478 ], [ 171.412068792025281, -44.239899193255077 ], [ 171.411399526104844, -44.240328433280773 ], [ 171.410735087560255, -44.240761610591775 ], [ 171.410061735521367, -44.241187771320035 ], [ 171.409385990064635, -44.241612143023247 ], [ 171.408670102236499, -44.242004633505928 ], [ 171.408025224700111, -44.242453073489841 ], [ 171.407384338507342, -44.242904658775508 ], [ 171.406754756777218, -44.243365158270642 ], [ 171.406152895636041, -44.243847521761431 ], [ 171.405503660029296, -44.244292511187176 ], [ 171.404849652394518, -44.244733732973501 ], [ 171.404199627612854, -44.245178093360998 ], [ 171.403541131135654, -44.245615767588674 ], [ 171.40287632770918, -44.246048463253146 ], [ 171.402222351648987, -44.246489696839916 ], [ 171.401573479524473, -44.246934953451884 ], [ 171.400909289714235, -44.247368123260657 ], [ 171.400250544054387, -44.247805584449274 ], [ 171.399588136753096, -44.248240085477221 ], [ 171.398944880587152, -44.248689050639264 ], [ 171.398314969867499, -44.249147830896447 ], [ 171.397660939600001, -44.249588929601302 ], [ 171.397012057284996, -44.250033836635815 ], [ 171.396345374142697, -44.250465559023525 ], [ 171.395719638983792, -44.250927598854041 ], [ 171.395069562642675, -44.251371611058566 ], [ 171.394403306132375, -44.251803638544679 ], [ 171.393763352369035, -44.252255139196713 ], [ 171.393122831623032, -44.252706216485024 ], [ 171.392494391575468, -44.253166235894952 ], [ 171.391856791448788, -44.253619468864606 ], [ 171.391222817176583, -44.254075383252449 ], [ 171.390570325221915, -44.254517581853037 ], [ 171.38995197052472, -44.254985055503624 ], [ 171.389324355491624, -44.255445668432849 ], [ 171.38866929607002, -44.255885955224109 ], [ 171.388014175488536, -44.256324372979371 ], [ 171.38734521588367, -44.25674692329013 ], [ 171.386718216018494, -44.257208291668569 ], [ 171.386045844020344, -44.257635309174852 ], [ 171.38537651577866, -44.258064938761216 ], [ 171.38467799402639, -44.258469484171073 ], [ 171.384000153308193, -44.258891794428855 ], [ 171.383337864315791, -44.259327462942139 ], [ 171.382659210764018, -44.259749068996776 ], [ 171.381948886067732, -44.260143461680407 ], [ 171.38128269980632, -44.260575773067124 ], [ 171.380594918060353, -44.260989527555914 ], [ 171.379938022998886, -44.261429815801527 ], [ 171.379267108266646, -44.261858055967409 ], [ 171.378587558643602, -44.262278874362465 ], [ 171.377900429591307, -44.262693177716073 ], [ 171.377238729851427, -44.263129320143733 ], [ 171.376561226064467, -44.263551734149267 ], [ 171.37588471414756, -44.263974801146972 ], [ 171.375223330461324, -44.264410551559521 ], [ 171.374566816459861, -44.264850348684512 ], [ 171.373883493841731, -44.265267848067829 ], [ 171.373208061686427, -44.265691906217114 ], [ 171.372526714841626, -44.266111042388559 ], [ 171.371858664306359, -44.266541233102188 ], [ 171.371184951848164, -44.266966712059428 ], [ 171.370511003967806, -44.267391992118938 ], [ 171.369835546078491, -44.267816013270917 ], [ 171.369131377326056, -44.268216173958983 ], [ 171.368464390091418, -44.268647359615819 ], [ 171.367796992001075, -44.269078065101297 ], [ 171.367128494528515, -44.269507739481426 ], [ 171.366468988307957, -44.269944778315228 ], [ 171.365808040983495, -44.270380633177645 ], [ 171.365161898719151, -44.270828616577511 ], [ 171.364515427497167, -44.271276327398077 ], [ 171.363863314392205, -44.271719412062652 ], [ 171.363224270643997, -44.272173203139907 ], [ 171.362585640146051, -44.272627329862836 ], [ 171.361976133435803, -44.273105318726593 ], [ 171.361340679688851, -44.273562042705926 ], [ 171.360669476006393, -44.273989468708187 ], [ 171.360032768176268, -44.274445159014213 ], [ 171.359406202902647, -44.274909157636039 ], [ 171.358771923516144, -44.275351877597181 ], [ 171.35812114109325, -44.275780756559016 ], [ 171.35748602383029, -44.276235002709619 ], [ 171.356856988930275, -44.276694141788902 ], [ 171.356212637581365, -44.277142263294877 ], [ 171.355570607038516, -44.277592049998901 ], [ 171.354888015455117, -44.278012665629859 ], [ 171.354175091024075, -44.278411464901836 ], [ 171.353456281162153, -44.27880602777185 ], [ 171.352816351763209, -44.27925731028904 ] ] } }
]
}
