{
"type": "FeatureCollection",
"name": "points_shoreline_50qtl_2100_1.9",
"crs": { "type": "name", "properties": { "name": "urn:ogc:def:crs:OGC:1.3:CRS84" } },
"features": [
{ "type": "Feature", "properties": { "50": 0.373, "retreat_50": 36.92 }, "geometry": { "type": "Point", "coordinates": [ 174.103082805858094, -36.392436686144485 ] } },
{ "type": "Feature", "properties": { "50": 0.373, "retreat_50": 21.37 }, "geometry": { "type": "Point", "coordinates": [ 174.102175932469265, -36.392433336626567 ] } },
{ "type": "Feature", "properties": { "50": 0.373, "retreat_50": 25.0 }, "geometry": { "type": "Point", "coordinates": [ 174.101257670766898, -36.392361539137539 ] } },
{ "type": "Feature", "properties": { "50": 0.373, "retreat_50": 36.31 }, "geometry": { "type": "Point", "coordinates": [ 174.100344081072393, -36.392317800697782 ] } },
{ "type": "Feature", "properties": { "50": 0.373, "retreat_50": 13.71 }, "geometry": { "type": "Point", "coordinates": [ 174.099442887745141, -36.392348550787638 ] } },
{ "type": "Feature", "properties": { "50": 0.373, "retreat_50": 36.88 }, "geometry": { "type": "Point", "coordinates": [ 174.098543427731613, -36.392389712178719 ] } },
{ "type": "Feature", "properties": { "50": 0.373, "retreat_50": 24.62 }, "geometry": { "type": "Point", "coordinates": [ 174.097642889379586, -36.392424386310978 ] } },
{ "type": "Feature", "properties": { "50": 0.373, "retreat_50": 13.65 }, "geometry": { "type": "Point", "coordinates": [ 174.096744233596752, -36.392470370577215 ] } },
{ "type": "Feature", "properties": { "50": 0.373, "retreat_50": 21.22 }, "geometry": { "type": "Point", "coordinates": [ 174.095829649522898, -36.392420596708718 ] } },
{ "type": "Feature", "properties": { "50": 0.373, "retreat_50": 18.73 }, "geometry": { "type": "Point", "coordinates": [ 174.09493320771233, -36.392479875609638 ] } },
{ "type": "Feature", "properties": { "50": 0.373, "retreat_50": 24.86 }, "geometry": { "type": "Point", "coordinates": [ 174.094022744202874, -36.392454849662343 ] } },
{ "type": "Feature", "properties": { "50": 0.373, "retreat_50": 24.64 }, "geometry": { "type": "Point", "coordinates": [ 174.093116403140669, -36.392454596977743 ] } },
{ "type": "Feature", "properties": { "50": 0.373, "retreat_50": 15.0 }, "geometry": { "type": "Point", "coordinates": [ 174.092229215532086, -36.392569501801319 ] } },
{ "type": "Feature", "properties": { "50": 0.373, "retreat_50": 21.28 }, "geometry": { "type": "Point", "coordinates": [ 174.091326971311133, -36.39259387044418 ] } },
{ "type": "Feature", "properties": { "50": 0.373, "retreat_50": 21.32 }, "geometry": { "type": "Point", "coordinates": [ 174.09043991433964, -36.392709561257341 ] } },
{ "type": "Feature", "properties": { "50": 0.373, "retreat_50": 21.37 }, "geometry": { "type": "Point", "coordinates": [ 174.089548453743816, -36.392798771887492 ] } },
{ "type": "Feature", "properties": { "50": 0.373, "retreat_50": 24.68 }, "geometry": { "type": "Point", "coordinates": [ 174.088656327668673, -36.392883980011653 ] } },
{ "type": "Feature", "properties": { "50": 0.373, "retreat_50": 16.64 }, "geometry": { "type": "Point", "coordinates": [ 174.087755604282876, -36.392917478365483 ] } },
{ "type": "Feature", "properties": { "50": 0.373, "retreat_50": 21.34 }, "geometry": { "type": "Point", "coordinates": [ 174.086853316423799, -36.392941560094847 ] } },
{ "type": "Feature", "properties": { "50": 0.373, "retreat_50": 24.79 }, "geometry": { "type": "Point", "coordinates": [ 174.085953741772443, -36.392981954981039 ] } },
{ "type": "Feature", "properties": { "50": 0.373, "retreat_50": 21.46 }, "geometry": { "type": "Point", "coordinates": [ 174.085065962953678, -36.393093303270035 ] } },
{ "type": "Feature", "properties": { "50": 0.373, "retreat_50": 36.97 }, "geometry": { "type": "Point", "coordinates": [ 174.084159371097456, -36.393091475785582 ] } },
{ "type": "Feature", "properties": { "50": 0.373, "retreat_50": 24.87 }, "geometry": { "type": "Point", "coordinates": [ 174.083265854588376, -36.393168302877307 ] } },
{ "type": "Feature", "properties": { "50": 0.373, "retreat_50": 21.13 }, "geometry": { "type": "Point", "coordinates": [ 174.082369638088437, -36.393228883607016 ] } },
{ "type": "Feature", "properties": { "50": 0.373, "retreat_50": 13.66 }, "geometry": { "type": "Point", "coordinates": [ 174.081488527783335, -36.393380354266121 ] } },
{ "type": "Feature", "properties": { "50": 0.373, "retreat_50": 24.74 }, "geometry": { "type": "Point", "coordinates": [ 174.080601341514779, -36.39349527084439 ] } },
{ "type": "Feature", "properties": { "50": 0.373, "retreat_50": 21.34 }, "geometry": { "type": "Point", "coordinates": [ 174.079721492744625, -36.393654344265464 ] } },
{ "type": "Feature", "properties": { "50": 0.373, "retreat_50": 21.31 }, "geometry": { "type": "Point", "coordinates": [ 174.078847069934596, -36.393846078158639 ] } },
{ "type": "Feature", "properties": { "50": 0.373, "retreat_50": 21.31 }, "geometry": { "type": "Point", "coordinates": [ 174.077969724654537, -36.394020234887961 ] } },
{ "type": "Feature", "properties": { "50": 0.373, "retreat_50": 21.31 }, "geometry": { "type": "Point", "coordinates": [ 174.077096617453918, -36.394219907825558 ] } },
{ "type": "Feature", "properties": { "50": 0.373, "retreat_50": 21.31 }, "geometry": { "type": "Point", "coordinates": [ 174.076227949636205, -36.394446312611862 ] } },
{ "type": "Feature", "properties": { "50": 0.373, "retreat_50": 21.31 }, "geometry": { "type": "Point", "coordinates": [ 174.075353675779439, -36.394638988217103 ] } },
{ "type": "Feature", "properties": { "50": 0.373, "retreat_50": 21.32 }, "geometry": { "type": "Point", "coordinates": [ 174.074477018847062, -36.394817329948999 ] } },
{ "type": "Feature", "properties": { "50": 0.373, "retreat_50": 21.27 }, "geometry": { "type": "Point", "coordinates": [ 174.073600605043708, -36.394997144811853 ] } },
{ "type": "Feature", "properties": { "50": 0.373, "retreat_50": 18.69 }, "geometry": { "type": "Point", "coordinates": [ 174.07272915890664, -36.395206875413258 ] } },
{ "type": "Feature", "properties": { "50": 0.373, "retreat_50": 21.31 }, "geometry": { "type": "Point", "coordinates": [ 174.071846373196252, -36.395348349444561 ] } },
{ "type": "Feature", "properties": { "50": 0.373, "retreat_50": 21.27 }, "geometry": { "type": "Point", "coordinates": [ 174.070973101218698, -36.39554710919252 ] } },
{ "type": "Feature", "properties": { "50": 0.373, "retreat_50": 18.69 }, "geometry": { "type": "Point", "coordinates": [ 174.070098898459122, -36.395740276311365 ] } },
{ "type": "Feature", "properties": { "50": 0.373, "retreat_50": 21.3 }, "geometry": { "type": "Point", "coordinates": [ 174.069214417565121, -36.395871565578645 ] } },
{ "type": "Feature", "properties": { "50": 0.373, "retreat_50": 21.32 }, "geometry": { "type": "Point", "coordinates": [ 174.068332363177348, -36.396017471141086 ] } },
{ "type": "Feature", "properties": { "50": 0.373, "retreat_50": 21.31 }, "geometry": { "type": "Point", "coordinates": [ 174.067443839419155, -36.396124423705785 ] } },
{ "type": "Feature", "properties": { "50": 0.373, "retreat_50": 21.31 }, "geometry": { "type": "Point", "coordinates": [ 174.066558021235892, -36.396247672170794 ] } },
{ "type": "Feature", "properties": { "50": 0.373, "retreat_50": 21.31 }, "geometry": { "type": "Point", "coordinates": [ 174.065674124951556, -36.396382499335061 ] } },
{ "type": "Feature", "properties": { "50": 0.373, "retreat_50": 21.31 }, "geometry": { "type": "Point", "coordinates": [ 174.064781321938256, -36.396463685495938 ] } },
{ "type": "Feature", "properties": { "50": 0.373, "retreat_50": 21.31 }, "geometry": { "type": "Point", "coordinates": [ 174.063886338703071, -36.396531738226408 ] } },
{ "type": "Feature", "properties": { "50": 0.373, "retreat_50": 21.31 }, "geometry": { "type": "Point", "coordinates": [ 174.062996398631071, -36.396630167192846 ] } },
{ "type": "Feature", "properties": { "50": 0.373, "retreat_50": 21.31 }, "geometry": { "type": "Point", "coordinates": [ 174.062100365879814, -36.396691894205162 ] } },
{ "type": "Feature", "properties": { "50": 0.373, "retreat_50": 21.31 }, "geometry": { "type": "Point", "coordinates": [ 174.061210170745426, -36.396788786270285 ] } },
{ "type": "Feature", "properties": { "50": 0.373, "retreat_50": 21.31 }, "geometry": { "type": "Point", "coordinates": [ 174.06032417512651, -36.39691098008457 ] } },
{ "type": "Feature", "properties": { "50": 0.373, "retreat_50": 21.31 }, "geometry": { "type": "Point", "coordinates": [ 174.059438929244891, -36.397037694613957 ] } },
{ "type": "Feature", "properties": { "50": 0.373, "retreat_50": 21.31 }, "geometry": { "type": "Point", "coordinates": [ 174.058492066001378, -36.397151746705021 ] } },
{ "type": "Feature", "properties": { "50": 0.373, "retreat_50": 21.31 }, "geometry": { "type": "Point", "coordinates": [ 174.05697596370581, -36.397447289630136 ] } },
{ "type": "Feature", "properties": { "50": 0.373, "retreat_50": 21.31 }, "geometry": { "type": "Point", "coordinates": [ 174.054560728078371, -36.397712070827296 ] } },
{ "type": "Feature", "properties": { "50": 0.373, "retreat_50": 21.31 }, "geometry": { "type": "Point", "coordinates": [ 174.053430589114214, -36.397598920496613 ] } },
{ "type": "Feature", "properties": { "50": 0.373, "retreat_50": 21.31 }, "geometry": { "type": "Point", "coordinates": [ 174.052552444897088, -36.397283066871985 ] } },
{ "type": "Feature", "properties": { "50": 0.373, "retreat_50": 21.31 }, "geometry": { "type": "Point", "coordinates": [ 174.051776776322271, -36.396884781531412 ] } },
{ "type": "Feature", "properties": { "50": 0.373, "retreat_50": 21.31 }, "geometry": { "type": "Point", "coordinates": [ 174.051081041734562, -36.396422197653905 ] } },
{ "type": "Feature", "properties": { "50": 0.373, "retreat_50": 21.31 }, "geometry": { "type": "Point", "coordinates": [ 174.05039679504705, -36.395950369719699 ] } },
{ "type": "Feature", "properties": { "50": 0.373, "retreat_50": 21.31 }, "geometry": { "type": "Point", "coordinates": [ 174.049802185137878, -36.395406440691659 ] } },
{ "type": "Feature", "properties": { "50": 0.373, "retreat_50": 21.31 }, "geometry": { "type": "Point", "coordinates": [ 174.049168448083549, -36.394893979336203 ] } },
{ "type": "Feature", "properties": { "50": 0.373, "retreat_50": 21.31 }, "geometry": { "type": "Point", "coordinates": [ 174.048620553288657, -36.394312469737464 ] } },
{ "type": "Feature", "properties": { "50": 0.373, "retreat_50": 21.31 }, "geometry": { "type": "Point", "coordinates": [ 174.047972963662573, -36.393811143615459 ] } },
{ "type": "Feature", "properties": { "50": 0.373, "retreat_50": 21.31 }, "geometry": { "type": "Point", "coordinates": [ 174.047416676676761, -36.393236377742113 ] } },
{ "type": "Feature", "properties": { "50": 0.373, "retreat_50": 21.31 }, "geometry": { "type": "Point", "coordinates": [ 174.046940196026725, -36.392597419221147 ] } },
{ "type": "Feature", "properties": { "50": 0.373, "retreat_50": 21.31 }, "geometry": { "type": "Point", "coordinates": [ 174.046446455432914, -36.391972340181887 ] } },
{ "type": "Feature", "properties": { "50": 0.373, "retreat_50": 21.31 }, "geometry": { "type": "Point", "coordinates": [ 174.045939118746958, -36.391358193725544 ] } },
{ "type": "Feature", "properties": { "50": 0.373, "retreat_50": 21.31 }, "geometry": { "type": "Point", "coordinates": [ 174.045410250206544, -36.390761362703032 ] } },
{ "type": "Feature", "properties": { "50": 0.373, "retreat_50": 21.31 }, "geometry": { "type": "Point", "coordinates": [ 174.044926293270947, -36.39012840553314 ] } },
{ "type": "Feature", "properties": { "50": 0.373, "retreat_50": 21.31 }, "geometry": { "type": "Point", "coordinates": [ 174.044422511781505, -36.389511390588531 ] } },
{ "type": "Feature", "properties": { "50": 0.373, "retreat_50": 21.31 }, "geometry": { "type": "Point", "coordinates": [ 174.043916449336649, -36.388896207259585 ] } },
{ "type": "Feature", "properties": { "50": 0.373, "retreat_50": 21.31 }, "geometry": { "type": "Point", "coordinates": [ 174.043409501047961, -36.388281733434006 ] } },
{ "type": "Feature", "properties": { "50": 0.373, "retreat_50": 21.31 }, "geometry": { "type": "Point", "coordinates": [ 174.042903816852601, -36.387666239883394 ] } },
{ "type": "Feature", "properties": { "50": 0.373, "retreat_50": 21.31 }, "geometry": { "type": "Point", "coordinates": [ 174.042393705772582, -36.387054303948737 ] } },
{ "type": "Feature", "properties": { "50": 0.373, "retreat_50": 21.31 }, "geometry": { "type": "Point", "coordinates": [ 174.041900726255676, -36.386428585844733 ] } },
{ "type": "Feature", "properties": { "50": 0.373, "retreat_50": 21.31 }, "geometry": { "type": "Point", "coordinates": [ 174.041405730529704, -36.38580448641688 ] } },
{ "type": "Feature", "properties": { "50": 0.373, "retreat_50": 21.31 }, "geometry": { "type": "Point", "coordinates": [ 174.040928043957848, -36.385166461980724 ] } },
{ "type": "Feature", "properties": { "50": 0.373, "retreat_50": 21.31 }, "geometry": { "type": "Point", "coordinates": [ 174.040439824519808, -36.384536906296965 ] } },
{ "type": "Feature", "properties": { "50": 0.373, "retreat_50": 21.31 }, "geometry": { "type": "Point", "coordinates": [ 174.03991477190209, -36.383936973111794 ] } },
{ "type": "Feature", "properties": { "50": 0.373, "retreat_50": 21.31 }, "geometry": { "type": "Point", "coordinates": [ 174.039369030269313, -36.383353677372675 ] } },
{ "type": "Feature", "properties": { "50": 0.373, "retreat_50": 21.31 }, "geometry": { "type": "Point", "coordinates": [ 174.038814068358846, -36.382738791634047 ] } },
{ "type": "Feature", "properties": { "50": 0.373, "retreat_50": 21.31 }, "geometry": { "type": "Point", "coordinates": [ 174.038136092882439, -36.382009660200644 ] } },
{ "type": "Feature", "properties": { "50": 0.373, "retreat_50": 21.31 }, "geometry": { "type": "Point", "coordinates": [ 174.037544519054848, -36.381263284479623 ] } },
{ "type": "Feature", "properties": { "50": 0.373, "retreat_50": 21.31 }, "geometry": { "type": "Point", "coordinates": [ 174.037082965921797, -36.380641347690357 ] } },
{ "type": "Feature", "properties": { "50": 0.373, "retreat_50": 21.31 }, "geometry": { "type": "Point", "coordinates": [ 174.036643370000547, -36.38001023036626 ] } },
{ "type": "Feature", "properties": { "50": 0.373, "retreat_50": 21.31 }, "geometry": { "type": "Point", "coordinates": [ 174.036263924328523, -36.379353973057285 ] } },
{ "type": "Feature", "properties": { "50": 0.373, "retreat_50": 21.31 }, "geometry": { "type": "Point", "coordinates": [ 174.035859877811873, -36.3787079902039 ] } },
{ "type": "Feature", "properties": { "50": 0.373, "retreat_50": 21.31 }, "geometry": { "type": "Point", "coordinates": [ 174.03543818319406, -36.378069376497862 ] } },
{ "type": "Feature", "properties": { "50": 0.373, "retreat_50": 21.31 }, "geometry": { "type": "Point", "coordinates": [ 174.035047248930766, -36.377417903803057 ] } },
{ "type": "Feature", "properties": { "50": 0.373, "retreat_50": 21.31 }, "geometry": { "type": "Point", "coordinates": [ 174.034629654530988, -36.376777566053612 ] } },
{ "type": "Feature", "properties": { "50": 0.373, "retreat_50": 21.31 }, "geometry": { "type": "Point", "coordinates": [ 174.03416396965909, -36.376157318158249 ] } },
{ "type": "Feature", "properties": { "50": 0.373, "retreat_50": 21.31 }, "geometry": { "type": "Point", "coordinates": [ 174.033782463407277, -36.375501889799118 ] } },
{ "type": "Feature", "properties": { "50": 0.373, "retreat_50": 21.31 }, "geometry": { "type": "Point", "coordinates": [ 174.033406958189204, -36.374843948478492 ] } },
{ "type": "Feature", "properties": { "50": 0.373, "retreat_50": 21.31 }, "geometry": { "type": "Point", "coordinates": [ 174.033030422651535, -36.374186432334604 ] } },
{ "type": "Feature", "properties": { "50": 0.373, "retreat_50": 21.31 }, "geometry": { "type": "Point", "coordinates": [ 174.032661868617538, -36.373525575658931 ] } },
{ "type": "Feature", "properties": { "50": 0.373, "retreat_50": 21.31 }, "geometry": { "type": "Point", "coordinates": [ 174.032279682600347, -36.37287040993224 ] } },
{ "type": "Feature", "properties": { "50": 0.374, "retreat_50": 21.37 }, "geometry": { "type": "Point", "coordinates": [ 174.031882082338541, -36.372221679901962 ] } },
{ "type": "Feature", "properties": { "50": 0.374, "retreat_50": 21.37 }, "geometry": { "type": "Point", "coordinates": [ 174.03154285947204, -36.371548550727191 ] } },
{ "type": "Feature", "properties": { "50": 0.374, "retreat_50": 21.37 }, "geometry": { "type": "Point", "coordinates": [ 174.031143203794386, -36.370900668881212 ] } },
{ "type": "Feature", "properties": { "50": 0.374, "retreat_50": 21.37 }, "geometry": { "type": "Point", "coordinates": [ 174.030636796293606, -36.370297389341822 ] } },
{ "type": "Feature", "properties": { "50": 0.374, "retreat_50": 21.37 }, "geometry": { "type": "Point", "coordinates": [ 174.030328320226573, -36.369611396195978 ] } },
{ "type": "Feature", "properties": { "50": 0.374, "retreat_50": 21.37 }, "geometry": { "type": "Point", "coordinates": [ 174.02999149657478, -36.368937243056585 ] } },
{ "type": "Feature", "properties": { "50": 0.374, "retreat_50": 21.37 }, "geometry": { "type": "Point", "coordinates": [ 174.029607362546074, -36.368282853863512 ] } },
{ "type": "Feature", "properties": { "50": 0.374, "retreat_50": 21.37 }, "geometry": { "type": "Point", "coordinates": [ 174.029325867509101, -36.367585570054544 ] } },
{ "type": "Feature", "properties": { "50": 0.374, "retreat_50": 21.37 }, "geometry": { "type": "Point", "coordinates": [ 174.029087718497351, -36.366870167837128 ] } },
{ "type": "Feature", "properties": { "50": 0.374, "retreat_50": 21.37 }, "geometry": { "type": "Point", "coordinates": [ 174.028641593363602, -36.3662416666306 ] } },
{ "type": "Feature", "properties": { "50": 0.374, "retreat_50": 21.37 }, "geometry": { "type": "Point", "coordinates": [ 174.028332664756419, -36.365555830085746 ] } },
{ "type": "Feature", "properties": { "50": 0.374, "retreat_50": 21.37 }, "geometry": { "type": "Point", "coordinates": [ 174.028039751621407, -36.364863295723062 ] } },
{ "type": "Feature", "properties": { "50": 0.374, "retreat_50": 21.37 }, "geometry": { "type": "Point", "coordinates": [ 174.027537273189864, -36.364258326819652 ] } },
{ "type": "Feature", "properties": { "50": 0.374, "retreat_50": 21.37 }, "geometry": { "type": "Point", "coordinates": [ 174.02720713167875, -36.363581338356987 ] } },
{ "type": "Feature", "properties": { "50": 0.374, "retreat_50": 21.37 }, "geometry": { "type": "Point", "coordinates": [ 174.026763373534578, -36.36295182136319 ] } },
{ "type": "Feature", "properties": { "50": 0.374, "retreat_50": 21.37 }, "geometry": { "type": "Point", "coordinates": [ 174.026297059204779, -36.362331724482893 ] } },
{ "type": "Feature", "properties": { "50": 0.374, "retreat_50": 21.37 }, "geometry": { "type": "Point", "coordinates": [ 174.025980244359459, -36.361649151225691 ] } },
{ "type": "Feature", "properties": { "50": 0.374, "retreat_50": 21.37 }, "geometry": { "type": "Point", "coordinates": [ 174.025671389358337, -36.36096324636803 ] } },
{ "type": "Feature", "properties": { "50": 0.374, "retreat_50": 21.37 }, "geometry": { "type": "Point", "coordinates": [ 174.025296844881126, -36.360304785734492 ] } },
{ "type": "Feature", "properties": { "50": 0.374, "retreat_50": 21.37 }, "geometry": { "type": "Point", "coordinates": [ 174.025107857260451, -36.359568780903011 ] } },
{ "type": "Feature", "properties": { "50": 0.374, "retreat_50": 21.37 }, "geometry": { "type": "Point", "coordinates": [ 174.024857060750747, -36.358858598544899 ] } },
{ "type": "Feature", "properties": { "50": 0.374, "retreat_50": 21.37 }, "geometry": { "type": "Point", "coordinates": [ 174.024531961136489, -36.358179460018057 ] } },
{ "type": "Feature", "properties": { "50": 0.374, "retreat_50": 21.37 }, "geometry": { "type": "Point", "coordinates": [ 174.024239713389989, -36.357486588073272 ] } },
{ "type": "Feature", "properties": { "50": 0.374, "retreat_50": 21.37 }, "geometry": { "type": "Point", "coordinates": [ 174.023990970622378, -36.356775530882636 ] } },
{ "type": "Feature", "properties": { "50": 0.374, "retreat_50": 21.37 }, "geometry": { "type": "Point", "coordinates": [ 174.023868664775335, -36.356011632522318 ] } },
{ "type": "Feature", "properties": { "50": 0.374, "retreat_50": 21.37 }, "geometry": { "type": "Point", "coordinates": [ 174.023700272805513, -36.355287615128923 ] } },
{ "type": "Feature", "properties": { "50": 0.374, "retreat_50": 21.37 }, "geometry": { "type": "Point", "coordinates": [ 174.02345782233968, -36.354685337371322 ] } },
{ "type": "Feature", "properties": { "50": 0.374, "retreat_50": 21.37 }, "geometry": { "type": "Point", "coordinates": [ 174.02319649012847, -36.354054588397609 ] } },
{ "type": "Feature", "properties": { "50": 0.374, "retreat_50": 21.37 }, "geometry": { "type": "Point", "coordinates": [ 174.022914008966552, -36.353358358706146 ] } },
{ "type": "Feature", "properties": { "50": 0.374, "retreat_50": 21.37 }, "geometry": { "type": "Point", "coordinates": [ 174.022549235073342, -36.35267273822403 ] } },
{ "type": "Feature", "properties": { "50": 0.374, "retreat_50": 21.37 }, "geometry": { "type": "Point", "coordinates": [ 174.022115222266933, -36.351996042549942 ] } },
{ "type": "Feature", "properties": { "50": 0.374, "retreat_50": 21.37 }, "geometry": { "type": "Point", "coordinates": [ 174.021615317646933, -36.351327839400184 ] } },
{ "type": "Feature", "properties": { "50": 0.374, "retreat_50": 21.37 }, "geometry": { "type": "Point", "coordinates": [ 174.020959349886994, -36.350679759558119 ] } },
{ "type": "Feature", "properties": { "50": 0.374, "retreat_50": 21.37 }, "geometry": { "type": "Point", "coordinates": [ 174.020512633075612, -36.350004679976117 ] } },
{ "type": "Feature", "properties": { "50": 0.374, "retreat_50": 21.37 }, "geometry": { "type": "Point", "coordinates": [ 174.020098803151257, -36.349325351070888 ] } },
{ "type": "Feature", "properties": { "50": 0.374, "retreat_50": 21.37 }, "geometry": { "type": "Point", "coordinates": [ 174.019652030528249, -36.348650264066862 ] } },
{ "type": "Feature", "properties": { "50": 0.374, "retreat_50": 21.37 }, "geometry": { "type": "Point", "coordinates": [ 174.019228856565633, -36.347972125914559 ] } },
{ "type": "Feature", "properties": { "50": 0.374, "retreat_50": 21.37 }, "geometry": { "type": "Point", "coordinates": [ 174.018717807053719, -36.34730531462597 ] } },
{ "type": "Feature", "properties": { "50": 0.374, "retreat_50": 21.37 }, "geometry": { "type": "Point", "coordinates": [ 174.01849810054452, -36.346600919155044 ] } },
{ "type": "Feature", "properties": { "50": 0.374, "retreat_50": 21.37 }, "geometry": { "type": "Point", "coordinates": [ 174.017964777905519, -36.345936966010605 ] } },
{ "type": "Feature", "properties": { "50": 0.374, "retreat_50": 21.37 }, "geometry": { "type": "Point", "coordinates": [ 174.017500402201136, -36.345264112803129 ] } },
{ "type": "Feature", "properties": { "50": 0.374, "retreat_50": 21.37 }, "geometry": { "type": "Point", "coordinates": [ 174.017049368810348, -36.344589531401418 ] } },
{ "type": "Feature", "properties": { "50": 0.374, "retreat_50": 21.37 }, "geometry": { "type": "Point", "coordinates": [ 174.016472417837377, -36.343931181705265 ] } },
{ "type": "Feature", "properties": { "50": 0.374, "retreat_50": 21.37 }, "geometry": { "type": "Point", "coordinates": [ 174.015972731748093, -36.343262859593359 ] } },
{ "type": "Feature", "properties": { "50": 0.374, "retreat_50": 21.37 }, "geometry": { "type": "Point", "coordinates": [ 174.015842473628453, -36.342546888078417 ] } },
{ "type": "Feature", "properties": { "50": 0.374, "retreat_50": 21.37 }, "geometry": { "type": "Point", "coordinates": [ 174.015422270422675, -36.341868301703336 ] } },
{ "type": "Feature", "properties": { "50": 0.374, "retreat_50": 21.37 }, "geometry": { "type": "Point", "coordinates": [ 174.014313048081789, -36.333217518845153 ] } },
{ "type": "Feature", "properties": { "50": 0.374, "retreat_50": 21.37 }, "geometry": { "type": "Point", "coordinates": [ 174.014086214717366, -36.332513910160714 ] } },
{ "type": "Feature", "properties": { "50": 0.374, "retreat_50": 21.37 }, "geometry": { "type": "Point", "coordinates": [ 174.014060191874108, -36.331784397226166 ] } },
{ "type": "Feature", "properties": { "50": 0.374, "retreat_50": 21.37 }, "geometry": { "type": "Point", "coordinates": [ 174.014149973484649, -36.331039942527681 ] } },
{ "type": "Feature", "properties": { "50": 0.374, "retreat_50": 21.37 }, "geometry": { "type": "Point", "coordinates": [ 174.014334976937334, -36.330283199909609 ] } },
{ "type": "Feature", "properties": { "50": 0.374, "retreat_50": 21.37 }, "geometry": { "type": "Point", "coordinates": [ 174.014518529432905, -36.329526636882562 ] } },
{ "type": "Feature", "properties": { "50": 0.374, "retreat_50": 21.37 }, "geometry": { "type": "Point", "coordinates": [ 174.014775347767284, -36.328760616673215 ] } },
{ "type": "Feature", "properties": { "50": 0.374, "retreat_50": 21.37 }, "geometry": { "type": "Point", "coordinates": [ 174.015013807823664, -36.327996956328477 ] } },
{ "type": "Feature", "properties": { "50": 0.374, "retreat_50": 21.37 }, "geometry": { "type": "Point", "coordinates": [ 174.015037642372249, -36.327260971288446 ] } },
{ "type": "Feature", "properties": { "50": 0.374, "retreat_50": 21.37 }, "geometry": { "type": "Point", "coordinates": [ 174.015245258810182, -36.326501274301698 ] } },
{ "type": "Feature", "properties": { "50": 0.374, "retreat_50": 21.37 }, "geometry": { "type": "Point", "coordinates": [ 174.015177076044495, -36.325777144357062 ] } },
{ "type": "Feature", "properties": { "50": 0.374, "retreat_50": 21.37 }, "geometry": { "type": "Point", "coordinates": [ 174.015208359869291, -36.32504017781924 ] } },
{ "type": "Feature", "properties": { "50": 0.374, "retreat_50": 21.37 }, "geometry": { "type": "Point", "coordinates": [ 174.015175988043808, -36.324311415334151 ] } },
{ "type": "Feature", "properties": { "50": 0.374, "retreat_50": 21.37 }, "geometry": { "type": "Point", "coordinates": [ 174.015147112702607, -36.323582195148653 ] } },
{ "type": "Feature", "properties": { "50": 0.374, "retreat_50": 21.37 }, "geometry": { "type": "Point", "coordinates": [ 174.01520355872222, -36.322841962527292 ] } },
{ "type": "Feature", "properties": { "50": 0.373, "retreat_50": 21.31 }, "geometry": { "type": "Point", "coordinates": [ 174.015142908355671, -36.322116827614366 ] } },
{ "type": "Feature", "properties": { "50": 0.373, "retreat_50": 21.31 }, "geometry": { "type": "Point", "coordinates": [ 174.015132067984155, -36.321385260885833 ] } },
{ "type": "Feature", "properties": { "50": 0.373, "retreat_50": 21.31 }, "geometry": { "type": "Point", "coordinates": [ 174.015272351975312, -36.320634193008061 ] } },
{ "type": "Feature", "properties": { "50": 0.373, "retreat_50": 21.31 }, "geometry": { "type": "Point", "coordinates": [ 174.015269426072308, -36.31990159167718 ] } },
{ "type": "Feature", "properties": { "50": 0.373, "retreat_50": 21.31 }, "geometry": { "type": "Point", "coordinates": [ 174.015181398530018, -36.319179961589484 ] } },
{ "type": "Feature", "properties": { "50": 0.373, "retreat_50": 21.31 }, "geometry": { "type": "Point", "coordinates": [ 174.015160054100704, -36.31844972283686 ] } },
{ "type": "Feature", "properties": { "50": 0.373, "retreat_50": 21.31 }, "geometry": { "type": "Point", "coordinates": [ 174.015208052974828, -36.317710532029103 ] } },
{ "type": "Feature", "properties": { "50": 0.373, "retreat_50": 21.31 }, "geometry": { "type": "Point", "coordinates": [ 174.015166111588741, -36.316982936828595 ] } },
{ "type": "Feature", "properties": { "50": 0.373, "retreat_50": 21.31 }, "geometry": { "type": "Point", "coordinates": [ 174.015122012531037, -36.316255613305067 ] } },
{ "type": "Feature", "properties": { "50": 0.373, "retreat_50": 21.31 }, "geometry": { "type": "Point", "coordinates": [ 174.015073181882855, -36.315528893510042 ] } },
{ "type": "Feature", "properties": { "50": 0.373, "retreat_50": 21.31 }, "geometry": { "type": "Point", "coordinates": [ 174.015008091975687, -36.314804264578541 ] } },
{ "type": "Feature", "properties": { "50": 0.373, "retreat_50": 21.31 }, "geometry": { "type": "Point", "coordinates": [ 174.014840988780065, -36.314114290564596 ] } },
{ "type": "Feature", "properties": { "50": 0.373, "retreat_50": 21.31 }, "geometry": { "type": "Point", "coordinates": [ 174.014708230491806, -36.313412141761027 ] } },
{ "type": "Feature", "properties": { "50": 0.354, "retreat_50": 4.55 }, "geometry": { "type": "Point", "coordinates": [ 171.509383469170132, -44.1882245123888 ] } },
{ "type": "Feature", "properties": { "50": 0.354, "retreat_50": 3.96 }, "geometry": { "type": "Point", "coordinates": [ 171.508665096040943, -44.188620159266392 ] } },
{ "type": "Feature", "properties": { "50": 0.354, "retreat_50": 7.26 }, "geometry": { "type": "Point", "coordinates": [ 171.507850949176344, -44.188897372557456 ] } },
{ "type": "Feature", "properties": { "50": 0.354, "retreat_50": 7.29 }, "geometry": { "type": "Point", "coordinates": [ 171.507095090397144, -44.189246662198983 ] } },
{ "type": "Feature", "properties": { "50": 0.354, "retreat_50": 7.19 }, "geometry": { "type": "Point", "coordinates": [ 171.506341496946789, -44.189598751654302 ] } },
{ "type": "Feature", "properties": { "50": 0.354, "retreat_50": 4.07 }, "geometry": { "type": "Point", "coordinates": [ 171.505607740642574, -44.189975370698825 ] } },
{ "type": "Feature", "properties": { "50": 0.354, "retreat_50": 7.07 }, "geometry": { "type": "Point", "coordinates": [ 171.504857156441375, -44.190331178745851 ] } },
{ "type": "Feature", "properties": { "50": 0.354, "retreat_50": 7.44 }, "geometry": { "type": "Point", "coordinates": [ 171.504089463957087, -44.190665828545008 ] } },
{ "type": "Feature", "properties": { "50": 0.354, "retreat_50": 6.44 }, "geometry": { "type": "Point", "coordinates": [ 171.503324368248457, -44.191003687881114 ] } },
{ "type": "Feature", "properties": { "50": 0.354, "retreat_50": 6.75 }, "geometry": { "type": "Point", "coordinates": [ 171.50259737085625, -44.191388660323618 ] } },
{ "type": "Feature", "properties": { "50": 0.354, "retreat_50": 7.08 }, "geometry": { "type": "Point", "coordinates": [ 171.501849800643242, -44.191748189958609 ] } },
{ "type": "Feature", "properties": { "50": 0.354, "retreat_50": 7.09 }, "geometry": { "type": "Point", "coordinates": [ 171.501119461845406, -44.192129512323447 ] } },
{ "type": "Feature", "properties": { "50": 0.354, "retreat_50": 7.45 }, "geometry": { "type": "Point", "coordinates": [ 171.500366305368658, -44.19248344310752 ] } },
{ "type": "Feature", "properties": { "50": 0.354, "retreat_50": 7.45 }, "geometry": { "type": "Point", "coordinates": [ 171.499632076105371, -44.192858820429201 ] } },
{ "type": "Feature", "properties": { "50": 0.354, "retreat_50": 7.45 }, "geometry": { "type": "Point", "coordinates": [ 171.498884361517668, -44.193217015244727 ] } },
{ "type": "Feature", "properties": { "50": 0.354, "retreat_50": 7.08 }, "geometry": { "type": "Point", "coordinates": [ 171.49814434564567, -44.193584385448425 ] } },
{ "type": "Feature", "properties": { "50": 0.354, "retreat_50": 7.08 }, "geometry": { "type": "Point", "coordinates": [ 171.497369182548738, -44.193909857582923 ] } },
{ "type": "Feature", "properties": { "50": 0.354, "retreat_50": 7.09 }, "geometry": { "type": "Point", "coordinates": [ 171.496624434373558, -44.194271583372299 ] } },
{ "type": "Feature", "properties": { "50": 0.354, "retreat_50": 7.44 }, "geometry": { "type": "Point", "coordinates": [ 171.495858166334983, -44.194607654805672 ] } },
{ "type": "Feature", "properties": { "50": 0.354, "retreat_50": 6.74 }, "geometry": { "type": "Point", "coordinates": [ 171.495109927956094, -44.194965216688388 ] } },
{ "type": "Feature", "properties": { "50": 0.354, "retreat_50": 6.74 }, "geometry": { "type": "Point", "coordinates": [ 171.49434760165812, -44.195305983123923 ] } },
{ "type": "Feature", "properties": { "50": 0.354, "retreat_50": 6.74 }, "geometry": { "type": "Point", "coordinates": [ 171.49359296151323, -44.195655910148268 ] } },
{ "type": "Feature", "properties": { "50": 0.354, "retreat_50": 6.44 }, "geometry": { "type": "Point", "coordinates": [ 171.492827435506996, -44.195992858459711 ] } },
{ "type": "Feature", "properties": { "50": 0.354, "retreat_50": 6.44 }, "geometry": { "type": "Point", "coordinates": [ 171.492056952687847, -44.196322858974064 ] } },
{ "type": "Feature", "properties": { "50": 0.354, "retreat_50": 6.75 }, "geometry": { "type": "Point", "coordinates": [ 171.491304944024279, -44.19667395333812 ] } },
{ "type": "Feature", "properties": { "50": 0.354, "retreat_50": 7.46 }, "geometry": { "type": "Point", "coordinates": [ 171.490518816134852, -44.196988807446644 ] } },
{ "type": "Feature", "properties": { "50": 0.354, "retreat_50": 7.86 }, "geometry": { "type": "Point", "coordinates": [ 171.489783239412731, -44.197358954039586 ] } },
{ "type": "Feature", "properties": { "50": 0.354, "retreat_50": 7.44 }, "geometry": { "type": "Point", "coordinates": [ 171.488982854899234, -44.197658281855375 ] } },
{ "type": "Feature", "properties": { "50": 0.354, "retreat_50": 6.45 }, "geometry": { "type": "Point", "coordinates": [ 171.488262214029362, -44.198044744639034 ] } },
{ "type": "Feature", "properties": { "50": 0.354, "retreat_50": 7.86 }, "geometry": { "type": "Point", "coordinates": [ 171.487524905125497, -44.19841299183058 ] } },
{ "type": "Feature", "properties": { "50": 0.354, "retreat_50": 7.44 }, "geometry": { "type": "Point", "coordinates": [ 171.48676614787945, -44.198757799387074 ] } },
{ "type": "Feature", "properties": { "50": 0.354, "retreat_50": 6.74 }, "geometry": { "type": "Point", "coordinates": [ 171.486024371314187, -44.199121160177377 ] } },
{ "type": "Feature", "properties": { "50": 0.354, "retreat_50": 6.75 }, "geometry": { "type": "Point", "coordinates": [ 171.485295625239132, -44.199498758000651 ] } },
{ "type": "Feature", "properties": { "50": 0.354, "retreat_50": 7.08 }, "geometry": { "type": "Point", "coordinates": [ 171.484560251298916, -44.19986911114664 ] } },
{ "type": "Feature", "properties": { "50": 0.354, "retreat_50": 7.07 }, "geometry": { "type": "Point", "coordinates": [ 171.48380841784504, -44.200221475677196 ] } },
{ "type": "Feature", "properties": { "50": 0.354, "retreat_50": 6.16 }, "geometry": { "type": "Point", "coordinates": [ 171.483051372151152, -44.200568142022924 ] } },
{ "type": "Feature", "properties": { "50": 0.354, "retreat_50": 5.9 }, "geometry": { "type": "Point", "coordinates": [ 171.482324628296709, -44.20094791957257 ] } },
{ "type": "Feature", "properties": { "50": 0.354, "retreat_50": 5.66 }, "geometry": { "type": "Point", "coordinates": [ 171.481580396612372, -44.201308584495678 ] } },
{ "type": "Feature", "properties": { "50": 0.354, "retreat_50": 5.46 }, "geometry": { "type": "Point", "coordinates": [ 171.480836398971121, -44.201669502978895 ] } },
{ "type": "Feature", "properties": { "50": 0.354, "retreat_50": 6.15 }, "geometry": { "type": "Point", "coordinates": [ 171.480117657568968, -44.202058019672364 ] } },
{ "type": "Feature", "properties": { "50": 0.354, "retreat_50": 5.91 }, "geometry": { "type": "Point", "coordinates": [ 171.479388780393379, -44.202435457947665 ] } },
{ "type": "Feature", "properties": { "50": 0.354, "retreat_50": 7.08 }, "geometry": { "type": "Point", "coordinates": [ 171.478618124516714, -44.202767237210267 ] } },
{ "type": "Feature", "properties": { "50": 0.354, "retreat_50": 7.47 }, "geometry": { "type": "Point", "coordinates": [ 171.477875736721273, -44.203129906307566 ] } },
{ "type": "Feature", "properties": { "50": 0.354, "retreat_50": 8.3 }, "geometry": { "type": "Point", "coordinates": [ 171.47713722461495, -44.203496808768463 ] } },
{ "type": "Feature", "properties": { "50": 0.354, "retreat_50": 6.75 }, "geometry": { "type": "Point", "coordinates": [ 171.476392394108387, -44.203856804017732 ] } },
{ "type": "Feature", "properties": { "50": 0.354, "retreat_50": 7.08 }, "geometry": { "type": "Point", "coordinates": [ 171.475655194570464, -44.204225136661975 ] } },
{ "type": "Feature", "properties": { "50": 0.354, "retreat_50": 7.06 }, "geometry": { "type": "Point", "coordinates": [ 171.474914778882464, -44.204589952375663 ] } },
{ "type": "Feature", "properties": { "50": 0.354, "retreat_50": 6.17 }, "geometry": { "type": "Point", "coordinates": [ 171.474173779797781, -44.204954128364463 ] } },
{ "type": "Feature", "properties": { "50": 0.354, "retreat_50": 7.06 }, "geometry": { "type": "Point", "coordinates": [ 171.473417498220783, -44.205301600152353 ] } },
{ "type": "Feature", "properties": { "50": 0.354, "retreat_50": 5.91 }, "geometry": { "type": "Point", "coordinates": [ 171.472695547472313, -44.205686589559114 ] } },
{ "type": "Feature", "properties": { "50": 0.354, "retreat_50": 6.46 }, "geometry": { "type": "Point", "coordinates": [ 171.47195533580026, -44.206051602886397 ] } },
{ "type": "Feature", "properties": { "50": 0.354, "retreat_50": 8.82 }, "geometry": { "type": "Point", "coordinates": [ 171.471224921785961, -44.206426757742285 ] } },
{ "type": "Feature", "properties": { "50": 0.354, "retreat_50": 7.44 }, "geometry": { "type": "Point", "coordinates": [ 171.470478275647537, -44.206784207294007 ] } },
{ "type": "Feature", "properties": { "50": 0.354, "retreat_50": 6.17 }, "geometry": { "type": "Point", "coordinates": [ 171.469754059740495, -44.207165938108027 ] } },
{ "type": "Feature", "properties": { "50": 0.354, "retreat_50": 7.07 }, "geometry": { "type": "Point", "coordinates": [ 171.469015154564516, -44.20753209913115 ] } },
{ "type": "Feature", "properties": { "50": 0.354, "retreat_50": 6.75 }, "geometry": { "type": "Point", "coordinates": [ 171.468298424255607, -44.207921758899069 ] } },
{ "type": "Feature", "properties": { "50": 0.354, "retreat_50": 7.45 }, "geometry": { "type": "Point", "coordinates": [ 171.467537043585622, -44.208264095590692 ] } },
{ "type": "Feature", "properties": { "50": 0.354, "retreat_50": 7.44 }, "geometry": { "type": "Point", "coordinates": [ 171.466793959614591, -44.208625820853477 ] } },
{ "type": "Feature", "properties": { "50": 0.354, "retreat_50": 6.75 }, "geometry": { "type": "Point", "coordinates": [ 171.466056556493584, -44.208993564461764 ] } },
{ "type": "Feature", "properties": { "50": 0.354, "retreat_50": 7.07 }, "geometry": { "type": "Point", "coordinates": [ 171.46531428213126, -44.209356143042655 ] } },
{ "type": "Feature", "properties": { "50": 0.354, "retreat_50": 6.74 }, "geometry": { "type": "Point", "coordinates": [ 171.464609443323326, -44.209758395108381 ] } },
{ "type": "Feature", "properties": { "50": 0.354, "retreat_50": 6.75 }, "geometry": { "type": "Point", "coordinates": [ 171.463886950352816, -44.21014193454571 ] } },
{ "type": "Feature", "properties": { "50": 0.354, "retreat_50": 7.46 }, "geometry": { "type": "Point", "coordinates": [ 171.463143720245569, -44.210503493480971 ] } },
{ "type": "Feature", "properties": { "50": 0.354, "retreat_50": 8.32 }, "geometry": { "type": "Point", "coordinates": [ 171.462409502162615, -44.210874601558366 ] } },
{ "type": "Feature", "properties": { "50": 0.354, "retreat_50": 7.44 }, "geometry": { "type": "Point", "coordinates": [ 171.461679794524969, -44.211249762821595 ] } },
{ "type": "Feature", "properties": { "50": 0.354, "retreat_50": 6.75 }, "geometry": { "type": "Point", "coordinates": [ 171.460954196624044, -44.211626576271534 ] } },
{ "type": "Feature", "properties": { "50": 0.354, "retreat_50": 7.47 }, "geometry": { "type": "Point", "coordinates": [ 171.460230656698116, -44.212005940865438 ] } },
{ "type": "Feature", "properties": { "50": 0.354, "retreat_50": 9.41 }, "geometry": { "type": "Point", "coordinates": [ 171.459484744653309, -44.212365482011805 ] } },
{ "type": "Feature", "properties": { "50": 0.354, "retreat_50": 7.88 }, "geometry": { "type": "Point", "coordinates": [ 171.458758731205847, -44.212744570773495 ] } },
{ "type": "Feature", "properties": { "50": 0.354, "retreat_50": 8.85 }, "geometry": { "type": "Point", "coordinates": [ 171.458064929926849, -44.213155305755294 ] } },
{ "type": "Feature", "properties": { "50": 0.354, "retreat_50": 8.85 }, "geometry": { "type": "Point", "coordinates": [ 171.457336665831605, -44.213532178153628 ] } },
{ "type": "Feature", "properties": { "50": 0.354, "retreat_50": 8.84 }, "geometry": { "type": "Point", "coordinates": [ 171.456605600803897, -44.213906295907051 ] } },
{ "type": "Feature", "properties": { "50": 0.354, "retreat_50": 7.87 }, "geometry": { "type": "Point", "coordinates": [ 171.455907282238286, -44.214312585355941 ] } },
{ "type": "Feature", "properties": { "50": 0.354, "retreat_50": 7.87 }, "geometry": { "type": "Point", "coordinates": [ 171.455177449336588, -44.214687908537407 ] } },
{ "type": "Feature", "properties": { "50": 0.354, "retreat_50": 7.86 }, "geometry": { "type": "Point", "coordinates": [ 171.454442938091006, -44.215058632366336 ] } },
{ "type": "Feature", "properties": { "50": 0.354, "retreat_50": 7.42 }, "geometry": { "type": "Point", "coordinates": [ 171.453762602950491, -44.215482584089408 ] } },
{ "type": "Feature", "properties": { "50": 0.354, "retreat_50": 5.92 }, "geometry": { "type": "Point", "coordinates": [ 171.453034556964383, -44.215859655258285 ] } },
{ "type": "Feature", "properties": { "50": 0.354, "retreat_50": 7.43 }, "geometry": { "type": "Point", "coordinates": [ 171.45229416223296, -44.216224590385394 ] } },
{ "type": "Feature", "properties": { "50": 0.354, "retreat_50": 6.75 }, "geometry": { "type": "Point", "coordinates": [ 171.451605716275338, -44.21664056579808 ] } },
{ "type": "Feature", "properties": { "50": 0.354, "retreat_50": 6.75 }, "geometry": { "type": "Point", "coordinates": [ 171.450893362619695, -44.217033047998505 ] } },
{ "type": "Feature", "properties": { "50": 0.354, "retreat_50": 7.44 }, "geometry": { "type": "Point", "coordinates": [ 171.450121243622021, -44.217366803635876 ] } },
{ "type": "Feature", "properties": { "50": 0.354, "retreat_50": 7.09 }, "geometry": { "type": "Point", "coordinates": [ 171.449425008691463, -44.217775118565761 ] } },
{ "type": "Feature", "properties": { "50": 0.354, "retreat_50": 7.44 }, "geometry": { "type": "Point", "coordinates": [ 171.448726158020122, -44.218180861002907 ] } },
{ "type": "Feature", "properties": { "50": 0.354, "retreat_50": 7.09 }, "geometry": { "type": "Point", "coordinates": [ 171.447993389452392, -44.21855327356171 ] } },
{ "type": "Feature", "properties": { "50": 0.354, "retreat_50": 7.84 }, "geometry": { "type": "Point", "coordinates": [ 171.447266990226098, -44.218931910481238 ] } },
{ "type": "Feature", "properties": { "50": 0.354, "retreat_50": 6.76 }, "geometry": { "type": "Point", "coordinates": [ 171.446555034845375, -44.219324672646934 ] } },
{ "type": "Feature", "properties": { "50": 0.354, "retreat_50": 7.86 }, "geometry": { "type": "Point", "coordinates": [ 171.44583893950238, -44.21971338594971 ] } },
{ "type": "Feature", "properties": { "50": 0.354, "retreat_50": 7.87 }, "geometry": { "type": "Point", "coordinates": [ 171.445128287888707, -44.220107468939041 ] } },
{ "type": "Feature", "properties": { "50": 0.354, "retreat_50": 8.32 }, "geometry": { "type": "Point", "coordinates": [ 171.444413635956039, -44.220497632740248 ] } },
{ "type": "Feature", "properties": { "50": 0.354, "retreat_50": 7.88 }, "geometry": { "type": "Point", "coordinates": [ 171.44370805899004, -44.22089667938522 ] } },
{ "type": "Feature", "properties": { "50": 0.354, "retreat_50": 8.83 }, "geometry": { "type": "Point", "coordinates": [ 171.442989367027337, -44.22128288256107 ] } },
{ "type": "Feature", "properties": { "50": 0.354, "retreat_50": 7.86 }, "geometry": { "type": "Point", "coordinates": [ 171.442274944382717, -44.221673263340037 ] } },
{ "type": "Feature", "properties": { "50": 0.354, "retreat_50": 7.45 }, "geometry": { "type": "Point", "coordinates": [ 171.441567706682747, -44.222070676555632 ] } },
{ "type": "Feature", "properties": { "50": 0.354, "retreat_50": 7.09 }, "geometry": { "type": "Point", "coordinates": [ 171.440869608068766, -44.22247703568263 ] } },
{ "type": "Feature", "properties": { "50": 0.354, "retreat_50": 7.43 }, "geometry": { "type": "Point", "coordinates": [ 171.44014561775785, -44.222858041018299 ] } },
{ "type": "Feature", "properties": { "50": 0.354, "retreat_50": 6.44 }, "geometry": { "type": "Point", "coordinates": [ 171.439431729926952, -44.223248935477812 ] } },
{ "type": "Feature", "properties": { "50": 0.354, "retreat_50": 6.73 }, "geometry": { "type": "Point", "coordinates": [ 171.438734811776726, -44.223656443227988 ] } },
{ "type": "Feature", "properties": { "50": 0.354, "retreat_50": 5.91 }, "geometry": { "type": "Point", "coordinates": [ 171.438027279257852, -44.224053555582053 ] } },
{ "type": "Feature", "properties": { "50": 0.354, "retreat_50": 6.44 }, "geometry": { "type": "Point", "coordinates": [ 171.437322714371817, -44.224453571277365 ] } },
{ "type": "Feature", "properties": { "50": 0.354, "retreat_50": 7.09 }, "geometry": { "type": "Point", "coordinates": [ 171.436622012785307, -44.22485736736467 ] } },
{ "type": "Feature", "properties": { "50": 0.354, "retreat_50": 8.3 }, "geometry": { "type": "Point", "coordinates": [ 171.435883978958572, -44.225224606553802 ] } },
{ "type": "Feature", "properties": { "50": 0.354, "retreat_50": 7.1 }, "geometry": { "type": "Point", "coordinates": [ 171.435196126073038, -44.225640978829517 ] } },
{ "type": "Feature", "properties": { "50": 0.354, "retreat_50": 8.34 }, "geometry": { "type": "Point", "coordinates": [ 171.434490619975008, -44.226040063222833 ] } },
{ "type": "Feature", "properties": { "50": 0.354, "retreat_50": 9.43 }, "geometry": { "type": "Point", "coordinates": [ 171.433788556161858, -44.226442515832659 ] } },
{ "type": "Feature", "properties": { "50": 0.354, "retreat_50": 8.86 }, "geometry": { "type": "Point", "coordinates": [ 171.433089881340408, -44.226837011269609 ] } },
{ "type": "Feature", "properties": { "50": 0.354, "retreat_50": 9.44 }, "geometry": { "type": "Point", "coordinates": [ 171.432402342965531, -44.227236169204161 ] } },
{ "type": "Feature", "properties": { "50": 0.354, "retreat_50": 9.44 }, "geometry": { "type": "Point", "coordinates": [ 171.431716513471258, -44.227647921572121 ] } },
{ "type": "Feature", "properties": { "50": 0.354, "retreat_50": 9.44 }, "geometry": { "type": "Point", "coordinates": [ 171.431033846006471, -44.228066232877453 ] } },
{ "type": "Feature", "properties": { "50": 0.354, "retreat_50": 9.42 }, "geometry": { "type": "Point", "coordinates": [ 171.430348783551977, -44.228482534561451 ] } },
{ "type": "Feature", "properties": { "50": 0.354, "retreat_50": 8.33 }, "geometry": { "type": "Point", "coordinates": [ 171.429671174422168, -44.228905077410019 ] } },
{ "type": "Feature", "properties": { "50": 0.354, "retreat_50": 8.32 }, "geometry": { "type": "Point", "coordinates": [ 171.428996639705048, -44.229330192884305 ] } },
{ "type": "Feature", "properties": { "50": 0.354, "retreat_50": 7.88 }, "geometry": { "type": "Point", "coordinates": [ 171.428319664705072, -44.229753260824886 ] } },
{ "type": "Feature", "properties": { "50": 0.354, "retreat_50": 8.31 }, "geometry": { "type": "Point", "coordinates": [ 171.427643610596164, -44.230177097197206 ] } },
{ "type": "Feature", "properties": { "50": 0.354, "retreat_50": 7.46 }, "geometry": { "type": "Point", "coordinates": [ 171.426964915356393, -44.230598717735752 ] } },
{ "type": "Feature", "properties": { "50": 0.354, "retreat_50": 7.87 }, "geometry": { "type": "Point", "coordinates": [ 171.426295656665275, -44.231028241181122 ] } },
{ "type": "Feature", "properties": { "50": 0.354, "retreat_50": 8.34 }, "geometry": { "type": "Point", "coordinates": [ 171.425591934397261, -44.231428887618904 ] } },
{ "type": "Feature", "properties": { "50": 0.354, "retreat_50": 8.84 }, "geometry": { "type": "Point", "coordinates": [ 171.424904267989632, -44.231842982604491 ] } },
{ "type": "Feature", "properties": { "50": 0.354, "retreat_50": 8.35 }, "geometry": { "type": "Point", "coordinates": [ 171.42424456690685, -44.232280504306367 ] } },
{ "type": "Feature", "properties": { "50": 0.354, "retreat_50": 9.43 }, "geometry": { "type": "Point", "coordinates": [ 171.423548494240805, -44.232687550101872 ] } },
{ "type": "Feature", "properties": { "50": 0.354, "retreat_50": 8.85 }, "geometry": { "type": "Point", "coordinates": [ 171.422868038120384, -44.233106778351726 ] } },
{ "type": "Feature", "properties": { "50": 0.354, "retreat_50": 8.87 }, "geometry": { "type": "Point", "coordinates": [ 171.422197958994502, -44.2335341764201 ] } },
{ "type": "Feature", "properties": { "50": 0.354, "retreat_50": 10.85 }, "geometry": { "type": "Point", "coordinates": [ 171.421508008291028, -44.23394622091314 ] } },
{ "type": "Feature", "properties": { "50": 0.354, "retreat_50": 8.87 }, "geometry": { "type": "Point", "coordinates": [ 171.420851759890184, -44.234386130883507 ] } },
{ "type": "Feature", "properties": { "50": 0.354, "retreat_50": 10.07 }, "geometry": { "type": "Point", "coordinates": [ 171.420159019475278, -44.234796252030932 ] } },
{ "type": "Feature", "properties": { "50": 0.354, "retreat_50": 7.87 }, "geometry": { "type": "Point", "coordinates": [ 171.419490106988547, -44.235225818896701 ] } },
{ "type": "Feature", "properties": { "50": 0.354, "retreat_50": 7.88 }, "geometry": { "type": "Point", "coordinates": [ 171.418805439612953, -44.235642522920166 ] } },
{ "type": "Feature", "properties": { "50": 0.354, "retreat_50": 8.85 }, "geometry": { "type": "Point", "coordinates": [ 171.418132514169486, -44.23606880785487 ] } },
{ "type": "Feature", "properties": { "50": 0.354, "retreat_50": 8.84 }, "geometry": { "type": "Point", "coordinates": [ 171.417457565827362, -44.236493438413071 ] } },
{ "type": "Feature", "properties": { "50": 0.354, "retreat_50": 7.85 }, "geometry": { "type": "Point", "coordinates": [ 171.416789118312067, -44.236923372012569 ] } },
{ "type": "Feature", "properties": { "50": 0.354, "retreat_50": 6.75 }, "geometry": { "type": "Point", "coordinates": [ 171.416118865953251, -44.237351829239195 ] } },
{ "type": "Feature", "properties": { "50": 0.354, "retreat_50": 7.45 }, "geometry": { "type": "Point", "coordinates": [ 171.415461809761467, -44.23779105465465 ] } },
{ "type": "Feature", "properties": { "50": 0.354, "retreat_50": 7.87 }, "geometry": { "type": "Point", "coordinates": [ 171.414776226671648, -44.238206991786271 ] } },
{ "type": "Feature", "properties": { "50": 0.354, "retreat_50": 8.33 }, "geometry": { "type": "Point", "coordinates": [ 171.41411290723812, -44.238641098496053 ] } },
{ "type": "Feature", "properties": { "50": 0.354, "retreat_50": 8.3 }, "geometry": { "type": "Point", "coordinates": [ 171.413430317811361, -44.239059472729089 ] } },
{ "type": "Feature", "properties": { "50": 0.354, "retreat_50": 6.75 }, "geometry": { "type": "Point", "coordinates": [ 171.412799560652644, -44.239520152491565 ] } },
{ "type": "Feature", "properties": { "50": 0.354, "retreat_50": 7.08 }, "geometry": { "type": "Point", "coordinates": [ 171.412143850853568, -44.239960461304946 ] } },
{ "type": "Feature", "properties": { "50": 0.354, "retreat_50": 7.1 }, "geometry": { "type": "Point", "coordinates": [ 171.411487743060718, -44.240400442153117 ] } },
{ "type": "Feature", "properties": { "50": 0.354, "retreat_50": 8.84 }, "geometry": { "type": "Point", "coordinates": [ 171.410830173276167, -44.240839226521061 ] } },
{ "type": "Feature", "properties": { "50": 0.354, "retreat_50": 8.87 }, "geometry": { "type": "Point", "coordinates": [ 171.410167310894394, -44.241272655809766 ] } },
{ "type": "Feature", "properties": { "50": 0.354, "retreat_50": 10.08 }, "geometry": { "type": "Point", "coordinates": [ 171.409479169801017, -44.241685791834684 ] } },
{ "type": "Feature", "properties": { "50": 0.354, "retreat_50": 8.35 }, "geometry": { "type": "Point", "coordinates": [ 171.408772913728825, -44.242085734405165 ] } },
{ "type": "Feature", "properties": { "50": 0.354, "retreat_50": 10.11 }, "geometry": { "type": "Point", "coordinates": [ 171.40813765123093, -44.242541759299165 ] } },
{ "type": "Feature", "properties": { "50": 0.354, "retreat_50": 10.08 }, "geometry": { "type": "Point", "coordinates": [ 171.40747247494707, -44.242974183992871 ] } },
{ "type": "Feature", "properties": { "50": 0.354, "retreat_50": 7.88 }, "geometry": { "type": "Point", "coordinates": [ 171.406843315090981, -44.243435016461468 ] } },
{ "type": "Feature", "properties": { "50": 0.354, "retreat_50": 8.31 }, "geometry": { "type": "Point", "coordinates": [ 171.406235887639923, -44.243912989145592 ] } },
{ "type": "Feature", "properties": { "50": 0.354, "retreat_50": 7.46 }, "geometry": { "type": "Point", "coordinates": [ 171.405584627946951, -44.244356382109949 ] } },
{ "type": "Feature", "properties": { "50": 0.354, "retreat_50": 7.44 }, "geometry": { "type": "Point", "coordinates": [ 171.404921427160446, -44.244790352159889 ] } },
{ "type": "Feature", "properties": { "50": 0.354, "retreat_50": 6.44 }, "geometry": { "type": "Point", "coordinates": [ 171.404268703536019, -44.245232583766366 ] } },
{ "type": "Feature", "properties": { "50": 0.354, "retreat_50": 6.45 }, "geometry": { "type": "Point", "coordinates": [ 171.403619063043323, -44.245677244238642 ] } },
{ "type": "Feature", "properties": { "50": 0.354, "retreat_50": 7.44 }, "geometry": { "type": "Point", "coordinates": [ 171.402954765743743, -44.246110339406222 ] } },
{ "type": "Feature", "properties": { "50": 0.354, "retreat_50": 7.08 }, "geometry": { "type": "Point", "coordinates": [ 171.402299271622297, -44.246550375681835 ] } },
{ "type": "Feature", "properties": { "50": 0.354, "retreat_50": 7.07 }, "geometry": { "type": "Point", "coordinates": [ 171.40164711025534, -44.246993037751579 ] } },
{ "type": "Feature", "properties": { "50": 0.354, "retreat_50": 6.76 }, "geometry": { "type": "Point", "coordinates": [ 171.400991439095407, -44.247432927823219 ] } },
{ "type": "Feature", "properties": { "50": 0.354, "retreat_50": 7.84 }, "geometry": { "type": "Point", "coordinates": [ 171.400325946130579, -44.247865066545906 ] } },
{ "type": "Feature", "properties": { "50": 0.354, "retreat_50": 6.76 }, "geometry": { "type": "Point", "coordinates": [ 171.399670663642439, -44.248304397791728 ] } },
{ "type": "Feature", "properties": { "50": 0.364, "retreat_50": 8.05 }, "geometry": { "type": "Point", "coordinates": [ 171.399014218070192, -44.248741400447834 ] } },
{ "type": "Feature", "properties": { "50": 0.364, "retreat_50": 6.34 }, "geometry": { "type": "Point", "coordinates": [ 171.398386494388006, -44.249200792429278 ] } },
{ "type": "Feature", "properties": { "50": 0.364, "retreat_50": 6.93 }, "geometry": { "type": "Point", "coordinates": [ 171.397738221096319, -44.249646154187651 ] } },
{ "type": "Feature", "properties": { "50": 0.364, "retreat_50": 7.29 }, "geometry": { "type": "Point", "coordinates": [ 171.397093264052813, -44.250093967970919 ] } },
{ "type": "Feature", "properties": { "50": 0.364, "retreat_50": 7.66 }, "geometry": { "type": "Point", "coordinates": [ 171.396424487597159, -44.250524140563151 ] } },
{ "type": "Feature", "properties": { "50": 0.364, "retreat_50": 7.27 }, "geometry": { "type": "Point", "coordinates": [ 171.395791251206219, -44.250980626065612 ] } },
{ "type": "Feature", "properties": { "50": 0.364, "retreat_50": 6.63 }, "geometry": { "type": "Point", "coordinates": [ 171.395143006724453, -44.251425994910043 ] } },
{ "type": "Feature", "properties": { "50": 0.364, "retreat_50": 6.91 }, "geometry": { "type": "Point", "coordinates": [ 171.394467242678189, -44.25185098246201 ] } },
{ "type": "Feature", "properties": { "50": 0.364, "retreat_50": 5.83 }, "geometry": { "type": "Point", "coordinates": [ 171.393826940131163, -44.252302224994686 ] } },
{ "type": "Feature", "properties": { "50": 0.364, "retreat_50": 6.07 }, "geometry": { "type": "Point", "coordinates": [ 171.39318990855412, -44.252755886115729 ] } },
{ "type": "Feature", "properties": { "50": 0.364, "retreat_50": 6.33 }, "geometry": { "type": "Point", "coordinates": [ 171.392564434351556, -44.25321810183609 ] } },
{ "type": "Feature", "properties": { "50": 0.364, "retreat_50": 6.62 }, "geometry": { "type": "Point", "coordinates": [ 171.391930061746081, -44.25367372491484 ] } },
{ "type": "Feature", "properties": { "50": 0.364, "retreat_50": 6.94 }, "geometry": { "type": "Point", "coordinates": [ 171.391302716860594, -44.254134548475569 ] } },
{ "type": "Feature", "properties": { "50": 0.364, "retreat_50": 7.67 }, "geometry": { "type": "Point", "coordinates": [ 171.390656505372618, -44.254581397946488 ] } },
{ "type": "Feature", "properties": { "50": 0.364, "retreat_50": 8.08 }, "geometry": { "type": "Point", "coordinates": [ 171.390031172710906, -44.255043704585752 ] } },
{ "type": "Feature", "properties": { "50": 0.364, "retreat_50": 7.29 }, "geometry": { "type": "Point", "coordinates": [ 171.389405215171422, -44.255505545046489 ] } },
{ "type": "Feature", "properties": { "50": 0.364, "retreat_50": 7.65 }, "geometry": { "type": "Point", "coordinates": [ 171.388744311630234, -44.255941504477732 ] } },
{ "type": "Feature", "properties": { "50": 0.364, "retreat_50": 6.95 }, "geometry": { "type": "Point", "coordinates": [ 171.388099226449327, -44.256388968556891 ] } },
{ "type": "Feature", "properties": { "50": 0.364, "retreat_50": 8.55 }, "geometry": { "type": "Point", "coordinates": [ 171.387425485932226, -44.256812581959792 ] } },
{ "type": "Feature", "properties": { "50": 0.364, "retreat_50": 7.66 }, "geometry": { "type": "Point", "coordinates": [ 171.386790220016195, -44.257270152221977 ] } },
{ "type": "Feature", "properties": { "50": 0.364, "retreat_50": 7.28 }, "geometry": { "type": "Point", "coordinates": [ 171.386117205146832, -44.257696617677169 ] } },
{ "type": "Feature", "properties": { "50": 0.364, "retreat_50": 7.28 }, "geometry": { "type": "Point", "coordinates": [ 171.385450850318392, -44.258128802068136 ] } },
{ "type": "Feature", "properties": { "50": 0.364, "retreat_50": 7.67 }, "geometry": { "type": "Point", "coordinates": [ 171.384760364705386, -44.258540251952169 ] } },
{ "type": "Feature", "properties": { "50": 0.364, "retreat_50": 8.56 }, "geometry": { "type": "Point", "coordinates": [ 171.384081961467587, -44.258962079237115 ] } },
{ "type": "Feature", "properties": { "50": 0.364, "retreat_50": 8.06 }, "geometry": { "type": "Point", "coordinates": [ 171.38340392161669, -44.25938421576172 ] } },
{ "type": "Feature", "properties": { "50": 0.364, "retreat_50": 6.64 }, "geometry": { "type": "Point", "coordinates": [ 171.382736599084467, -44.259815557087762 ] } },
{ "type": "Feature", "properties": { "50": 0.364, "retreat_50": 8.56 }, "geometry": { "type": "Point", "coordinates": [ 171.38203455158623, -44.26021706152104 ] } },
{ "type": "Feature", "properties": { "50": 0.364, "retreat_50": 8.57 }, "geometry": { "type": "Point", "coordinates": [ 171.381367159939998, -44.260648337584293 ] } },
{ "type": "Feature", "properties": { "50": 0.364, "retreat_50": 8.56 }, "geometry": { "type": "Point", "coordinates": [ 171.380675440455747, -44.261058709273158 ] } },
{ "type": "Feature", "properties": { "50": 0.354, "retreat_50": 7.87 }, "geometry": { "type": "Point", "coordinates": [ 171.380017822199022, -44.261498376423489 ] } },
{ "type": "Feature", "properties": { "50": 0.354, "retreat_50": 7.85 }, "geometry": { "type": "Point", "coordinates": [ 171.379336219370032, -44.261917434015416 ] } },
{ "type": "Feature", "properties": { "50": 0.354, "retreat_50": 6.77 }, "geometry": { "type": "Point", "coordinates": [ 171.37866928656473, -44.262349092672068 ] } },
{ "type": "Feature", "properties": { "50": 0.354, "retreat_50": 8.83 }, "geometry": { "type": "Point", "coordinates": [ 171.377986818490768, -44.262767400951745 ] } },
{ "type": "Feature", "properties": { "50": 0.354, "retreat_50": 8.34 }, "geometry": { "type": "Point", "coordinates": [ 171.377326959394992, -44.263205019013803 ] } },
{ "type": "Feature", "properties": { "50": 0.354, "retreat_50": 8.83 }, "geometry": { "type": "Point", "coordinates": [ 171.376643073839517, -44.263620820775785 ] } },
{ "type": "Feature", "properties": { "50": 0.354, "retreat_50": 7.88 }, "geometry": { "type": "Point", "coordinates": [ 171.3759735732622, -44.264048697726459 ] } },
{ "type": "Feature", "properties": { "50": 0.354, "retreat_50": 8.81 }, "geometry": { "type": "Point", "coordinates": [ 171.375295482464225, -44.264470554498828 ] } },
{ "type": "Feature", "properties": { "50": 0.354, "retreat_50": 6.75 }, "geometry": { "type": "Point", "coordinates": [ 171.374635201221281, -44.264907218924499 ] } },
{ "type": "Feature", "properties": { "50": 0.354, "retreat_50": 6.75 }, "geometry": { "type": "Point", "coordinates": [ 171.373955564025323, -44.265327783456819 ] } },
{ "type": "Feature", "properties": { "50": 0.354, "retreat_50": 7.08 }, "geometry": { "type": "Point", "coordinates": [ 171.373281442267, -44.265752931627226 ] } },
{ "type": "Feature", "properties": { "50": 0.354, "retreat_50": 7.07 }, "geometry": { "type": "Point", "coordinates": [ 171.372594362574034, -44.266167300458285 ] } },
{ "type": "Feature", "properties": { "50": 0.354, "retreat_50": 6.43 }, "geometry": { "type": "Point", "coordinates": [ 171.371921889581586, -44.266593813528246 ] } },
{ "type": "Feature", "properties": { "50": 0.354, "retreat_50": 6.17 }, "geometry": { "type": "Point", "coordinates": [ 171.371258004928478, -44.267027465890543 ] } },
{ "type": "Feature", "properties": { "50": 0.354, "retreat_50": 7.42 }, "geometry": { "type": "Point", "coordinates": [ 171.370576440548604, -44.267446412007551 ] } },
{ "type": "Feature", "properties": { "50": 0.354, "retreat_50": 6.17 }, "geometry": { "type": "Point", "coordinates": [ 171.369907452643616, -44.267875814128871 ] } },
{ "type": "Feature", "properties": { "50": 0.354, "retreat_50": 7.45 }, "geometry": { "type": "Point", "coordinates": [ 171.369212496295489, -44.268283578763672 ] } },
{ "type": "Feature", "properties": { "50": 0.354, "retreat_50": 7.86 }, "geometry": { "type": "Point", "coordinates": [ 171.368542150256133, -44.268711496066395 ] } },
{ "type": "Feature", "properties": { "50": 0.354, "retreat_50": 7.47 }, "geometry": { "type": "Point", "coordinates": [ 171.367881318785294, -44.269147163470691 ] } },
{ "type": "Feature", "properties": { "50": 0.354, "retreat_50": 8.3 }, "geometry": { "type": "Point", "coordinates": [ 171.367203983972217, -44.26956959669085 ] } },
{ "type": "Feature", "properties": { "50": 0.354, "retreat_50": 7.1 }, "geometry": { "type": "Point", "coordinates": [ 171.366551167817335, -44.270012117709392 ] } },
{ "type": "Feature", "properties": { "50": 0.354, "retreat_50": 8.32 }, "geometry": { "type": "Point", "coordinates": [ 171.365891624638977, -44.270449123411801 ] } },
{ "type": "Feature", "properties": { "50": 0.354, "retreat_50": 7.86 }, "geometry": { "type": "Point", "coordinates": [ 171.365239535804164, -44.270892234276438 ] } },
{ "type": "Feature", "properties": { "50": 0.354, "retreat_50": 7.47 }, "geometry": { "type": "Point", "coordinates": [ 171.364599754701004, -44.271345427355975 ] } },
{ "type": "Feature", "properties": { "50": 0.354, "retreat_50": 8.31 }, "geometry": { "type": "Point", "coordinates": [ 171.363939052024563, -44.271781473720615 ] } },
{ "type": "Feature", "properties": { "50": 0.354, "retreat_50": 7.09 }, "geometry": { "type": "Point", "coordinates": [ 171.363300669132315, -44.272235806506458 ] } },
{ "type": "Feature", "properties": { "50": 0.354, "retreat_50": 7.43 }, "geometry": { "type": "Point", "coordinates": [ 171.362651632009801, -44.272681405877336 ] } },
{ "type": "Feature", "properties": { "50": 0.364, "retreat_50": 6.33 }, "geometry": { "type": "Point", "coordinates": [ 171.362039234684147, -44.273157026168008 ] } },
{ "type": "Feature", "properties": { "50": 0.364, "retreat_50": 6.33 }, "geometry": { "type": "Point", "coordinates": [ 171.361406341433735, -44.273615848459251 ] } },
{ "type": "Feature", "properties": { "50": 0.364, "retreat_50": 6.63 }, "geometry": { "type": "Point", "coordinates": [ 171.360744636044672, -44.274051057973288 ] } },
{ "type": "Feature", "properties": { "50": 0.364, "retreat_50": 7.63 }, "geometry": { "type": "Point", "coordinates": [ 171.360096365219277, -44.27449727323993 ] } },
{ "type": "Feature", "properties": { "50": 0.364, "retreat_50": 6.07 }, "geometry": { "type": "Point", "coordinates": [ 171.35946426627811, -44.274956737452833 ] } },
{ "type": "Feature", "properties": { "50": 0.364, "retreat_50": 5.84 }, "geometry": { "type": "Point", "coordinates": [ 171.358840578260754, -44.275404709863189 ] } },
{ "type": "Feature", "properties": { "50": 0.364, "retreat_50": 6.94 }, "geometry": { "type": "Point", "coordinates": [ 171.358202766268221, -44.27583960588025 ] } },
{ "type": "Feature", "properties": { "50": 0.364, "retreat_50": 7.66 }, "geometry": { "type": "Point", "coordinates": [ 171.357565808169397, -44.27629237467773 ] } },
{ "type": "Feature", "properties": { "50": 0.364, "retreat_50": 7.28 }, "geometry": { "type": "Point", "coordinates": [ 171.356935710836495, -44.276750749936078 ] } },
{ "type": "Feature", "properties": { "50": 0.364, "retreat_50": 7.27 }, "geometry": { "type": "Point", "coordinates": [ 171.356285249595544, -44.277194478061965 ] } },
{ "type": "Feature", "properties": { "50": 0.364, "retreat_50": 6.62 }, "geometry": { "type": "Point", "coordinates": [ 171.355644104709341, -44.277644901809374 ] } },
{ "type": "Feature", "properties": { "50": 0.364, "retreat_50": 6.94 }, "geometry": { "type": "Point", "coordinates": [ 171.354968685874809, -44.278070675598215 ] } },
{ "type": "Feature", "properties": { "50": 0.364, "retreat_50": 7.67 }, "geometry": { "type": "Point", "coordinates": [ 171.35426559069154, -44.278476543437293 ] } },
{ "type": "Feature", "properties": { "50": 0.364, "retreat_50": 8.56 }, "geometry": { "type": "Point", "coordinates": [ 171.353549348834207, -44.278872953370303 ] } },
{ "type": "Feature", "properties": { "50": 0.364, "retreat_50": 8.57 }, "geometry": { "type": "Point", "coordinates": [ 171.352908799758865, -44.279323790489862 ] } },
{ "type": "Feature", "properties": { "50": 0.356, "retreat_50": 8.37 }, "geometry": { "type": "Point", "coordinates": [ 168.141317165949715, -44.218904446527787 ] } },
{ "type": "Feature", "properties": { "50": 0.356, "retreat_50": 8.39 }, "geometry": { "type": "Point", "coordinates": [ 168.142107500964727, -44.218564316717497 ] } },
{ "type": "Feature", "properties": { "50": 0.356, "retreat_50": 9.48 }, "geometry": { "type": "Point", "coordinates": [ 168.142830650372247, -44.218174628491454 ] } },
{ "type": "Feature", "properties": { "50": 0.356, "retreat_50": 8.9 }, "geometry": { "type": "Point", "coordinates": [ 168.14348770996844, -44.217736191075957 ] } },
{ "type": "Feature", "properties": { "50": 0.356, "retreat_50": 8.89 }, "geometry": { "type": "Point", "coordinates": [ 168.144151813464532, -44.217302944960174 ] } },
{ "type": "Feature", "properties": { "50": 0.356, "retreat_50": 8.37 }, "geometry": { "type": "Point", "coordinates": [ 168.14476936404003, -44.216835359900934 ] } },
{ "type": "Feature", "properties": { "50": 0.356, "retreat_50": 7.92 }, "geometry": { "type": "Point", "coordinates": [ 168.145342773151583, -44.216335214778908 ] } },
{ "type": "Feature", "properties": { "50": 0.356, "retreat_50": 8.4 }, "geometry": { "type": "Point", "coordinates": [ 168.145885912045912, -44.215812740430806 ] } },
{ "type": "Feature", "properties": { "50": 0.356, "retreat_50": 10.16 }, "geometry": { "type": "Point", "coordinates": [ 168.146390156583891, -44.21525783735418 ] } },
{ "type": "Feature", "properties": { "50": 0.356, "retreat_50": 9.5 }, "geometry": { "type": "Point", "coordinates": [ 168.146897809935155, -44.21470133723092 ] } },
{ "type": "Feature", "properties": { "50": 0.356, "retreat_50": 9.48 }, "geometry": { "type": "Point", "coordinates": [ 168.147429156480143, -44.21416384701223 ] } },
{ "type": "Feature", "properties": { "50": 0.356, "retreat_50": 8.9 }, "geometry": { "type": "Point", "coordinates": [ 168.147909340743581, -44.213618295233552 ] } },
{ "type": "Feature", "properties": { "50": 0.356, "retreat_50": 8.35 }, "geometry": { "type": "Point", "coordinates": [ 168.148359367701744, -44.213061216826155 ] } },
{ "type": "Feature", "properties": { "50": 0.346, "retreat_50": 6.61 }, "geometry": { "type": "Point", "coordinates": [ 168.148801804879895, -44.212501233205089 ] } },
{ "type": "Feature", "properties": { "50": 0.346, "retreat_50": 8.15 }, "geometry": { "type": "Point", "coordinates": [ 168.149153487574381, -44.211906573331554 ] } },
{ "type": "Feature", "properties": { "50": 0.346, "retreat_50": 9.9 }, "geometry": { "type": "Point", "coordinates": [ 168.149521658952921, -44.211318206820899 ] } },
{ "type": "Feature", "properties": { "50": 0.346, "retreat_50": 11.49 }, "geometry": { "type": "Point", "coordinates": [ 168.149851455232323, -44.210711137670906 ] } },
{ "type": "Feature", "properties": { "50": 0.346, "retreat_50": 9.25 }, "geometry": { "type": "Point", "coordinates": [ 168.150192613543794, -44.210098953999832 ] } },
{ "type": "Feature", "properties": { "50": 0.346, "retreat_50": 9.84 }, "geometry": { "type": "Point", "coordinates": [ 168.150466011421713, -44.209473372308466 ] } },
{ "type": "Feature", "properties": { "50": 0.346, "retreat_50": 7.71 }, "geometry": { "type": "Point", "coordinates": [ 168.150810952502496, -44.208879052685248 ] } },
{ "type": "Feature", "properties": { "50": 0.346, "retreat_50": 9.21 }, "geometry": { "type": "Point", "coordinates": [ 168.151127121718332, -44.208276904821034 ] } },
{ "type": "Feature", "properties": { "50": 0.346, "retreat_50": 8.64 }, "geometry": { "type": "Point", "coordinates": [ 168.151418636359296, -44.207668048037334 ] } },
{ "type": "Feature", "properties": { "50": 0.346, "retreat_50": 8.2 }, "geometry": { "type": "Point", "coordinates": [ 168.151684642748478, -44.207052250226532 ] } },
{ "type": "Feature", "properties": { "50": 0.346, "retreat_50": 15.22 }, "geometry": { "type": "Point", "coordinates": [ 168.151927028400138, -44.206430024483382 ] } },
{ "type": "Feature", "properties": { "50": 0.346, "retreat_50": 9.91 }, "geometry": { "type": "Point", "coordinates": [ 168.152219201703872, -44.205818079463455 ] } },
{ "type": "Feature", "properties": { "50": 0.346, "retreat_50": 10.64 }, "geometry": { "type": "Point", "coordinates": [ 168.152524534879774, -44.205210103604074 ] } },
{ "type": "Feature", "properties": { "50": 0.356, "retreat_50": 14.18 }, "geometry": { "type": "Point", "coordinates": [ 168.243986654394661, -44.157928831839058 ] } },
{ "type": "Feature", "properties": { "50": 0.356, "retreat_50": 11.0 }, "geometry": { "type": "Point", "coordinates": [ 168.244920791115703, -44.157837229148164 ] } },
{ "type": "Feature", "properties": { "50": 0.356, "retreat_50": 14.22 }, "geometry": { "type": "Point", "coordinates": [ 168.245759378377954, -44.157602566371793 ] } },
{ "type": "Feature", "properties": { "50": 0.356, "retreat_50": 14.28 }, "geometry": { "type": "Point", "coordinates": [ 168.246518538180084, -44.15723823255756 ] } },
{ "type": "Feature", "properties": { "50": 0.356, "retreat_50": 17.83 }, "geometry": { "type": "Point", "coordinates": [ 168.24725900419017, -44.15685941211521 ] } },
{ "type": "Feature", "properties": { "50": 0.356, "retreat_50": 20.22 }, "geometry": { "type": "Point", "coordinates": [ 168.247882876154534, -44.156379223853818 ] } },
{ "type": "Feature", "properties": { "50": 0.356, "retreat_50": 14.25 }, "geometry": { "type": "Point", "coordinates": [ 168.248551996638241, -44.155948429452572 ] } },
{ "type": "Feature", "properties": { "50": 0.356, "retreat_50": 14.24 }, "geometry": { "type": "Point", "coordinates": [ 168.249282583728814, -44.155572786075318 ] } },
{ "type": "Feature", "properties": { "50": 0.356, "retreat_50": 14.24 }, "geometry": { "type": "Point", "coordinates": [ 168.249968849898607, -44.155157370253818 ] } },
{ "type": "Feature", "properties": { "50": 0.356, "retreat_50": 14.22 }, "geometry": { "type": "Point", "coordinates": [ 168.250620260052585, -44.154708181048115 ] } },
{ "type": "Feature", "properties": { "50": 0.356, "retreat_50": 12.97 }, "geometry": { "type": "Point", "coordinates": [ 168.251285103757709, -44.154270776957731 ] } },
{ "type": "Feature", "properties": { "50": 0.356, "retreat_50": 14.22 }, "geometry": { "type": "Point", "coordinates": [ 168.251815349255679, -44.153743588097839 ] } },
{ "type": "Feature", "properties": { "50": 0.356, "retreat_50": 12.93 }, "geometry": { "type": "Point", "coordinates": [ 168.252396564618493, -44.153251967741518 ] } },
{ "type": "Feature", "properties": { "50": 0.356, "retreat_50": 11.88 }, "geometry": { "type": "Point", "coordinates": [ 168.252928877349348, -44.152733217549155 ] } },
{ "type": "Feature", "properties": { "50": 0.356, "retreat_50": 12.94 }, "geometry": { "type": "Point", "coordinates": [ 168.253441245942668, -44.152203400168652 ] } },
{ "type": "Feature", "properties": { "50": 0.356, "retreat_50": 12.93 }, "geometry": { "type": "Point", "coordinates": [ 168.253941309823318, -44.151653786353627 ] } },
{ "type": "Feature", "properties": { "50": 0.356, "retreat_50": 11.88 }, "geometry": { "type": "Point", "coordinates": [ 168.25438618829682, -44.151080939177909 ] } },
{ "type": "Feature", "properties": { "50": 0.356, "retreat_50": 12.96 }, "geometry": { "type": "Point", "coordinates": [ 168.254857491749846, -44.150523952054883 ] } },
{ "type": "Feature", "properties": { "50": 0.356, "retreat_50": 14.22 }, "geometry": { "type": "Point", "coordinates": [ 168.25519973381958, -44.149927869102463 ] } },
{ "type": "Feature", "properties": { "50": 0.356, "retreat_50": 12.95 }, "geometry": { "type": "Point", "coordinates": [ 168.255365313306868, -44.149262947063193 ] } },
{ "type": "Feature", "properties": { "50": 0.356, "retreat_50": 12.94 }, "geometry": { "type": "Point", "coordinates": [ 168.255540900671207, -44.148625609334871 ] } }
]
}
