{
"type": "FeatureCollection",
"name": "points_shoreline_50qtl_2100_2.6",
"crs": { "type": "name", "properties": { "name": "urn:ogc:def:crs:OGC:1.3:CRS84" } },
"features": [
{ "type": "Feature", "properties": { "50": 0.438, "retreat_50": 41.56 }, "geometry": { "type": "Point", "coordinates": [ 174.103075907124492, -36.392395233508964 ] } },
{ "type": "Feature", "properties": { "50": 0.438, "retreat_50": 24.99 }, "geometry": { "type": "Point", "coordinates": [ 174.102170550573078, -36.39240099638409 ] } },
{ "type": "Feature", "properties": { "50": 0.438, "retreat_50": 30.21 }, "geometry": { "type": "Point", "coordinates": [ 174.101249925456017, -36.392314994143966 ] } },
{ "type": "Feature", "properties": { "50": 0.438, "retreat_50": 39.1 }, "geometry": { "type": "Point", "coordinates": [ 174.100339933630892, -36.392292875420679 ] } },
{ "type": "Feature", "properties": { "50": 0.438, "retreat_50": 16.43 }, "geometry": { "type": "Point", "coordinates": [ 174.099438844587496, -36.392324250846393 ] } },
{ "type": "Feature", "properties": { "50": 0.438, "retreat_50": 44.34 }, "geometry": { "type": "Point", "coordinates": [ 174.098532339401032, -36.392323065935045 ] } },
{ "type": "Feature", "properties": { "50": 0.438, "retreat_50": 27.28 }, "geometry": { "type": "Point", "coordinates": [ 174.097638935850171, -36.392400622340297 ] } },
{ "type": "Feature", "properties": { "50": 0.438, "retreat_50": 16.18 }, "geometry": { "type": "Point", "coordinates": [ 174.096740473493753, -36.392447767976314 ] } },
{ "type": "Feature", "properties": { "50": 0.438, "retreat_50": 25.09 }, "geometry": { "type": "Point", "coordinates": [ 174.095823898238535, -36.39238602272642 ] } },
{ "type": "Feature", "properties": { "50": 0.438, "retreat_50": 22.22 }, "geometry": { "type": "Point", "coordinates": [ 174.094928021439529, -36.392448696451254 ] } },
{ "type": "Feature", "properties": { "50": 0.438, "retreat_50": 29.52 }, "geometry": { "type": "Point", "coordinates": [ 174.094015819664861, -36.392413217840414 ] } },
{ "type": "Feature", "properties": { "50": 0.438, "retreat_50": 27.82 }, "geometry": { "type": "Point", "coordinates": [ 174.093111678079822, -36.392426187244723 ] } },
{ "type": "Feature", "properties": { "50": 0.438, "retreat_50": 17.73 }, "geometry": { "type": "Point", "coordinates": [ 174.092225159329388, -36.392545112284942 ] } },
{ "type": "Feature", "properties": { "50": 0.438, "retreat_50": 25.29 }, "geometry": { "type": "Point", "coordinates": [ 174.091321013634683, -36.392558045506497 ] } },
{ "type": "Feature", "properties": { "50": 0.438, "retreat_50": 25.0 }, "geometry": { "type": "Point", "coordinates": [ 174.090434447238863, -36.392676684468015 ] } },
{ "type": "Feature", "properties": { "50": 0.438, "retreat_50": 25.34 }, "geometry": { "type": "Point", "coordinates": [ 174.08954255613267, -36.392763304222186 ] } },
{ "type": "Feature", "properties": { "50": 0.438, "retreat_50": 28.27 }, "geometry": { "type": "Point", "coordinates": [ 174.08865099485476, -36.392851907198185 ] } },
{ "type": "Feature", "properties": { "50": 0.438, "retreat_50": 19.61 }, "geometry": { "type": "Point", "coordinates": [ 174.08775119270274, -36.392890944557351 ] } },
{ "type": "Feature", "properties": { "50": 0.438, "retreat_50": 25.48 }, "geometry": { "type": "Point", "coordinates": [ 174.08684716729482, -36.3929045735294 ] } },
{ "type": "Feature", "properties": { "50": 0.438, "retreat_50": 28.9 }, "geometry": { "type": "Point", "coordinates": [ 174.085947637542631, -36.39294523638987 ] } },
{ "type": "Feature", "properties": { "50": 0.438, "retreat_50": 25.75 }, "geometry": { "type": "Point", "coordinates": [ 174.085059591728168, -36.393054976520382 ] } },
{ "type": "Feature", "properties": { "50": 0.438, "retreat_50": 43.07 }, "geometry": { "type": "Point", "coordinates": [ 174.084150312296742, -36.393036978475465 ] } },
{ "type": "Feature", "properties": { "50": 0.438, "retreat_50": 28.72 }, "geometry": { "type": "Point", "coordinates": [ 174.083260137460002, -36.393133906993278 ] } },
{ "type": "Feature", "properties": { "50": 0.438, "retreat_50": 23.91 }, "geometry": { "type": "Point", "coordinates": [ 174.082365510103585, -36.393204047068892 ] } },
{ "type": "Feature", "properties": { "50": 0.438, "retreat_50": 16.32 }, "geometry": { "type": "Point", "coordinates": [ 174.081484578192999, -36.393356589781369 ] } },
{ "type": "Feature", "properties": { "50": 0.438, "retreat_50": 29.43 }, "geometry": { "type": "Point", "coordinates": [ 174.080594378139097, -36.393453370256232 ] } },
{ "type": "Feature", "properties": { "50": 0.438, "retreat_50": 24.94 }, "geometry": { "type": "Point", "coordinates": [ 174.079716148002603, -36.39362218173018 ] } },
{ "type": "Feature", "properties": { "50": 0.438, "retreat_50": 25.03 }, "geometry": { "type": "Point", "coordinates": [ 174.078841547319598, -36.393812843501124 ] } },
{ "type": "Feature", "properties": { "50": 0.438, "retreat_50": 25.03 }, "geometry": { "type": "Point", "coordinates": [ 174.077964202327195, -36.393987000192482 ] } },
{ "type": "Feature", "properties": { "50": 0.438, "retreat_50": 25.03 }, "geometry": { "type": "Point", "coordinates": [ 174.077091095410339, -36.394186673092527 ] } },
{ "type": "Feature", "properties": { "50": 0.438, "retreat_50": 25.03 }, "geometry": { "type": "Point", "coordinates": [ 174.076222427872352, -36.394413077841662 ] } },
{ "type": "Feature", "properties": { "50": 0.438, "retreat_50": 25.03 }, "geometry": { "type": "Point", "coordinates": [ 174.075348154300428, -36.394605753409252 ] } },
{ "type": "Feature", "properties": { "50": 0.438, "retreat_50": 25.05 }, "geometry": { "type": "Point", "coordinates": [ 174.074471482813181, -36.394784005762268 ] } },
{ "type": "Feature", "properties": { "50": 0.438, "retreat_50": 24.76 }, "geometry": { "type": "Point", "coordinates": [ 174.073595425484683, -36.394965964773235 ] } },
{ "type": "Feature", "properties": { "50": 0.438, "retreat_50": 22.03 }, "geometry": { "type": "Point", "coordinates": [ 174.072724202218126, -36.395177035457344 ] } },
{ "type": "Feature", "properties": { "50": 0.438, "retreat_50": 25.13 }, "geometry": { "type": "Point", "coordinates": [ 174.071840704470162, -36.395314221072262 ] } },
{ "type": "Feature", "properties": { "50": 0.438, "retreat_50": 24.76 }, "geometry": { "type": "Point", "coordinates": [ 174.070967922465513, -36.395515929047541 ] } },
{ "type": "Feature", "properties": { "50": 0.438, "retreat_50": 22.03 }, "geometry": { "type": "Point", "coordinates": [ 174.070093942544105, -36.395710436253466 ] } },
{ "type": "Feature", "properties": { "50": 0.438, "retreat_50": 25.11 }, "geometry": { "type": "Point", "coordinates": [ 174.069208764562518, -36.395837526431144 ] } },
{ "type": "Feature", "properties": { "50": 0.438, "retreat_50": 25.03 }, "geometry": { "type": "Point", "coordinates": [ 174.068326858838645, -36.395984325371302 ] } },
{ "type": "Feature", "properties": { "50": 0.438, "retreat_50": 25.03 }, "geometry": { "type": "Point", "coordinates": [ 174.067438320541896, -36.396091188555367 ] } },
{ "type": "Feature", "properties": { "50": 0.438, "retreat_50": 25.03 }, "geometry": { "type": "Point", "coordinates": [ 174.066552502654105, -36.396214436981708 ] } },
{ "type": "Feature", "properties": { "50": 0.438, "retreat_50": 25.03 }, "geometry": { "type": "Point", "coordinates": [ 174.065668606663479, -36.396349264107492 ] } },
{ "type": "Feature", "properties": { "50": 0.438, "retreat_50": 25.03 }, "geometry": { "type": "Point", "coordinates": [ 174.064775803952074, -36.396430450229047 ] } },
{ "type": "Feature", "properties": { "50": 0.438, "retreat_50": 25.03 }, "geometry": { "type": "Point", "coordinates": [ 174.063880821020746, -36.396498502920011 ] } },
{ "type": "Feature", "properties": { "50": 0.438, "retreat_50": 25.03 }, "geometry": { "type": "Point", "coordinates": [ 174.062990881247998, -36.396596931847405 ] } },
{ "type": "Feature", "properties": { "50": 0.438, "retreat_50": 25.03 }, "geometry": { "type": "Point", "coordinates": [ 174.062094848801564, -36.396658658820151 ] } },
{ "type": "Feature", "properties": { "50": 0.438, "retreat_50": 25.03 }, "geometry": { "type": "Point", "coordinates": [ 174.061204653966655, -36.396755550846201 ] } },
{ "type": "Feature", "properties": { "50": 0.438, "retreat_50": 25.03 }, "geometry": { "type": "Point", "coordinates": [ 174.060318658643411, -36.39687774462184 ] } },
{ "type": "Feature", "properties": { "50": 0.438, "retreat_50": 25.03 }, "geometry": { "type": "Point", "coordinates": [ 174.059433413056752, -36.397004459112672 ] } },
{ "type": "Feature", "properties": { "50": 0.438, "retreat_50": 25.03 }, "geometry": { "type": "Point", "coordinates": [ 174.058488896887866, -36.397118311362739 ] } },
{ "type": "Feature", "properties": { "50": 0.438, "retreat_50": 25.03 }, "geometry": { "type": "Point", "coordinates": [ 174.056991973557302, -36.397416354740429 ] } },
{ "type": "Feature", "properties": { "50": 0.438, "retreat_50": 25.03 }, "geometry": { "type": "Point", "coordinates": [ 174.054590132274711, -36.397688418913894 ] } },
{ "type": "Feature", "properties": { "50": 0.438, "retreat_50": 25.03 }, "geometry": { "type": "Point", "coordinates": [ 174.053459993582493, -36.397575268827119 ] } },
{ "type": "Feature", "properties": { "50": 0.438, "retreat_50": 25.03 }, "geometry": { "type": "Point", "coordinates": [ 174.052581849484483, -36.397259415386053 ] } },
{ "type": "Feature", "properties": { "50": 0.438, "retreat_50": 25.03 }, "geometry": { "type": "Point", "coordinates": [ 174.051806180966707, -36.396861130204513 ] } },
{ "type": "Feature", "properties": { "50": 0.438, "retreat_50": 25.03 }, "geometry": { "type": "Point", "coordinates": [ 174.051110446387554, -36.396398546466862 ] } },
{ "type": "Feature", "properties": { "50": 0.438, "retreat_50": 25.03 }, "geometry": { "type": "Point", "coordinates": [ 174.050426199701633, -36.395926718669784 ] } },
{ "type": "Feature", "properties": { "50": 0.438, "retreat_50": 25.03 }, "geometry": { "type": "Point", "coordinates": [ 174.049831589739682, -36.395382789757377 ] } },
{ "type": "Feature", "properties": { "50": 0.438, "retreat_50": 25.03 }, "geometry": { "type": "Point", "coordinates": [ 174.049197852656306, -36.394870328526942 ] } },
{ "type": "Feature", "properties": { "50": 0.438, "retreat_50": 25.03 }, "geometry": { "type": "Point", "coordinates": [ 174.048649957780356, -36.394288819032667 ] } },
{ "type": "Feature", "properties": { "50": 0.438, "retreat_50": 25.03 }, "geometry": { "type": "Point", "coordinates": [ 174.048002368133609, -36.393787493039 ] } },
{ "type": "Feature", "properties": { "50": 0.438, "retreat_50": 25.03 }, "geometry": { "type": "Point", "coordinates": [ 174.047446081071769, -36.393212727272122 ] } },
{ "type": "Feature", "properties": { "50": 0.438, "retreat_50": 25.03 }, "geometry": { "type": "Point", "coordinates": [ 174.046969600297388, -36.392573768838496 ] } },
{ "type": "Feature", "properties": { "50": 0.438, "retreat_50": 25.03 }, "geometry": { "type": "Point", "coordinates": [ 174.046475859589663, -36.391948689890697 ] } },
{ "type": "Feature", "properties": { "50": 0.438, "retreat_50": 25.03 }, "geometry": { "type": "Point", "coordinates": [ 174.045968522798063, -36.391334543529091 ] } },
{ "type": "Feature", "properties": { "50": 0.438, "retreat_50": 25.03 }, "geometry": { "type": "Point", "coordinates": [ 174.045439654164994, -36.390737712606473 ] } },
{ "type": "Feature", "properties": { "50": 0.438, "retreat_50": 25.03 }, "geometry": { "type": "Point", "coordinates": [ 174.0449556971096, -36.390104755525698 ] } },
{ "type": "Feature", "properties": { "50": 0.438, "retreat_50": 25.03 }, "geometry": { "type": "Point", "coordinates": [ 174.044451915512298, -36.389487740674959 ] } },
{ "type": "Feature", "properties": { "50": 0.438, "retreat_50": 25.03 }, "geometry": { "type": "Point", "coordinates": [ 174.043945852961002, -36.388872557440422 ] } },
{ "type": "Feature", "properties": { "50": 0.438, "retreat_50": 25.03 }, "geometry": { "type": "Point", "coordinates": [ 174.043438904566386, -36.388258083709488 ] } },
{ "type": "Feature", "properties": { "50": 0.438, "retreat_50": 25.03 }, "geometry": { "type": "Point", "coordinates": [ 174.042933220264331, -36.387642590253186 ] } },
{ "type": "Feature", "properties": { "50": 0.438, "retreat_50": 25.03 }, "geometry": { "type": "Point", "coordinates": [ 174.042423109080318, -36.387030654413913 ] } },
{ "type": "Feature", "properties": { "50": 0.438, "retreat_50": 25.03 }, "geometry": { "type": "Point", "coordinates": [ 174.041930129449014, -36.386404936401185 ] } },
{ "type": "Feature", "properties": { "50": 0.438, "retreat_50": 25.03 }, "geometry": { "type": "Point", "coordinates": [ 174.041435133609866, -36.385780837065106 ] } },
{ "type": "Feature", "properties": { "50": 0.438, "retreat_50": 25.03 }, "geometry": { "type": "Point", "coordinates": [ 174.040957446914376, -36.385142812716552 ] } },
{ "type": "Feature", "properties": { "50": 0.438, "retreat_50": 25.03 }, "geometry": { "type": "Point", "coordinates": [ 174.040469227359068, -36.384513257122933 ] } },
{ "type": "Feature", "properties": { "50": 0.438, "retreat_50": 25.03 }, "geometry": { "type": "Point", "coordinates": [ 174.039944174646394, -36.383913324036719 ] } },
{ "type": "Feature", "properties": { "50": 0.438, "retreat_50": 25.03 }, "geometry": { "type": "Point", "coordinates": [ 174.039398432931165, -36.383330028401502 ] } },
{ "type": "Feature", "properties": { "50": 0.438, "retreat_50": 25.03 }, "geometry": { "type": "Point", "coordinates": [ 174.038844091814354, -36.382715658430115 ] } },
{ "type": "Feature", "properties": { "50": 0.438, "retreat_50": 25.03 }, "geometry": { "type": "Point", "coordinates": [ 174.038170133416003, -36.381990506306629 ] } },
{ "type": "Feature", "properties": { "50": 0.438, "retreat_50": 25.03 }, "geometry": { "type": "Point", "coordinates": [ 174.037581361296759, -36.381247889373867 ] } },
{ "type": "Feature", "properties": { "50": 0.438, "retreat_50": 25.03 }, "geometry": { "type": "Point", "coordinates": [ 174.037119807952649, -36.380625952704946 ] } },
{ "type": "Feature", "properties": { "50": 0.438, "retreat_50": 25.03 }, "geometry": { "type": "Point", "coordinates": [ 174.036680211811557, -36.379994835494564 ] } },
{ "type": "Feature", "properties": { "50": 0.438, "retreat_50": 25.03 }, "geometry": { "type": "Point", "coordinates": [ 174.036300765895646, -36.379338578281022 ] } },
{ "type": "Feature", "properties": { "50": 0.438, "retreat_50": 25.03 }, "geometry": { "type": "Point", "coordinates": [ 174.035896719144944, -36.378692595530545 ] } },
{ "type": "Feature", "properties": { "50": 0.438, "retreat_50": 25.03 }, "geometry": { "type": "Point", "coordinates": [ 174.035475024300155, -36.378053981932773 ] } },
{ "type": "Feature", "properties": { "50": 0.438, "retreat_50": 25.03 }, "geometry": { "type": "Point", "coordinates": [ 174.035084089797579, -36.377402509336896 ] } },
{ "type": "Feature", "properties": { "50": 0.438, "retreat_50": 25.03 }, "geometry": { "type": "Point", "coordinates": [ 174.034666495169148, -36.376762171694459 ] } },
{ "type": "Feature", "properties": { "50": 0.438, "retreat_50": 25.03 }, "geometry": { "type": "Point", "coordinates": [ 174.034200810087867, -36.376141923920684 ] } },
{ "type": "Feature", "properties": { "50": 0.438, "retreat_50": 25.03 }, "geometry": { "type": "Point", "coordinates": [ 174.033819303592992, -36.375486495657611 ] } },
{ "type": "Feature", "properties": { "50": 0.438, "retreat_50": 25.03 }, "geometry": { "type": "Point", "coordinates": [ 174.033443798129468, -36.374828554431232 ] } },
{ "type": "Feature", "properties": { "50": 0.438, "retreat_50": 25.03 }, "geometry": { "type": "Point", "coordinates": [ 174.033067262346805, -36.374171038381903 ] } },
{ "type": "Feature", "properties": { "50": 0.438, "retreat_50": 25.03 }, "geometry": { "type": "Point", "coordinates": [ 174.032698708064601, -36.373510181798366 ] } },
{ "type": "Feature", "properties": { "50": 0.438, "retreat_50": 25.03 }, "geometry": { "type": "Point", "coordinates": [ 174.03231652180466, -36.372855016167925 ] } },
{ "type": "Feature", "properties": { "50": 0.438, "retreat_50": 25.03 }, "geometry": { "type": "Point", "coordinates": [ 174.031918327129461, -36.372206534523549 ] } },
{ "type": "Feature", "properties": { "50": 0.438, "retreat_50": 25.03 }, "geometry": { "type": "Point", "coordinates": [ 174.031579104007221, -36.371533405430675 ] } },
{ "type": "Feature", "properties": { "50": 0.438, "retreat_50": 25.03 }, "geometry": { "type": "Point", "coordinates": [ 174.031179448097589, -36.370885523684606 ] } },
{ "type": "Feature", "properties": { "50": 0.438, "retreat_50": 25.03 }, "geometry": { "type": "Point", "coordinates": [ 174.030673040406811, -36.370282244276972 ] } },
{ "type": "Feature", "properties": { "50": 0.438, "retreat_50": 25.03 }, "geometry": { "type": "Point", "coordinates": [ 174.030364564071988, -36.369596251203831 ] } },
{ "type": "Feature", "properties": { "50": 0.438, "retreat_50": 25.03 }, "geometry": { "type": "Point", "coordinates": [ 174.030027740163547, -36.368922098145596 ] } },
{ "type": "Feature", "properties": { "50": 0.438, "retreat_50": 25.03 }, "geometry": { "type": "Point", "coordinates": [ 174.029643605896752, -36.368267709047785 ] } },
{ "type": "Feature", "properties": { "50": 0.438, "retreat_50": 25.03 }, "geometry": { "type": "Point", "coordinates": [ 174.02936211058136, -36.367570425303484 ] } },
{ "type": "Feature", "properties": { "50": 0.438, "retreat_50": 25.03 }, "geometry": { "type": "Point", "coordinates": [ 174.029123961274195, -36.366855023137781 ] } },
{ "type": "Feature", "properties": { "50": 0.438, "retreat_50": 25.03 }, "geometry": { "type": "Point", "coordinates": [ 174.028677835926771, -36.366226522045004 ] } },
{ "type": "Feature", "properties": { "50": 0.438, "retreat_50": 25.03 }, "geometry": { "type": "Point", "coordinates": [ 174.02836890705197, -36.365540685572995 ] } },
{ "type": "Feature", "properties": { "50": 0.438, "retreat_50": 25.03 }, "geometry": { "type": "Point", "coordinates": [ 174.028075993643057, -36.364848151278345 ] } },
{ "type": "Feature", "properties": { "50": 0.438, "retreat_50": 25.03 }, "geometry": { "type": "Point", "coordinates": [ 174.027573515020009, -36.364243182505483 ] } },
{ "type": "Feature", "properties": { "50": 0.438, "retreat_50": 25.03 }, "geometry": { "type": "Point", "coordinates": [ 174.027243373249604, -36.363566194121972 ] } },
{ "type": "Feature", "properties": { "50": 0.438, "retreat_50": 25.03 }, "geometry": { "type": "Point", "coordinates": [ 174.026799614890848, -36.362936677241215 ] } },
{ "type": "Feature", "properties": { "50": 0.438, "retreat_50": 25.03 }, "geometry": { "type": "Point", "coordinates": [ 174.026333300355304, -36.36231658048068 ] } },
{ "type": "Feature", "properties": { "50": 0.438, "retreat_50": 25.03 }, "geometry": { "type": "Point", "coordinates": [ 174.02601648524552, -36.361634007298626 ] } },
{ "type": "Feature", "properties": { "50": 0.438, "retreat_50": 25.03 }, "geometry": { "type": "Point", "coordinates": [ 174.02570762997675, -36.36094810251376 ] } },
{ "type": "Feature", "properties": { "50": 0.438, "retreat_50": 25.03 }, "geometry": { "type": "Point", "coordinates": [ 174.025333085257785, -36.360289641972614 ] } },
{ "type": "Feature", "properties": { "50": 0.438, "retreat_50": 25.03 }, "geometry": { "type": "Point", "coordinates": [ 174.025144097322396, -36.359553637178159 ] } },
{ "type": "Feature", "properties": { "50": 0.438, "retreat_50": 25.03 }, "geometry": { "type": "Point", "coordinates": [ 174.02489330052228, -36.358843454875526 ] } },
{ "type": "Feature", "properties": { "50": 0.438, "retreat_50": 25.03 }, "geometry": { "type": "Point", "coordinates": [ 174.024568200646797, -36.358164316426297 ] } },
{ "type": "Feature", "properties": { "50": 0.438, "retreat_50": 25.03 }, "geometry": { "type": "Point", "coordinates": [ 174.024275952626198, -36.35747144454934 ] } },
{ "type": "Feature", "properties": { "50": 0.438, "retreat_50": 25.03 }, "geometry": { "type": "Point", "coordinates": [ 174.024027209567407, -36.356760387413566 ] } },
{ "type": "Feature", "properties": { "50": 0.438, "retreat_50": 25.03 }, "geometry": { "type": "Point", "coordinates": [ 174.023904903379503, -36.355996489070371 ] } },
{ "type": "Feature", "properties": { "50": 0.438, "retreat_50": 25.03 }, "geometry": { "type": "Point", "coordinates": [ 174.023737174828057, -36.35527355949899 ] } },
{ "type": "Feature", "properties": { "50": 0.438, "retreat_50": 25.03 }, "geometry": { "type": "Point", "coordinates": [ 174.02349702212237, -36.354676219519348 ] } },
{ "type": "Feature", "properties": { "50": 0.438, "retreat_50": 25.03 }, "geometry": { "type": "Point", "coordinates": [ 174.023236769054137, -36.354049392212779 ] } },
{ "type": "Feature", "properties": { "50": 0.438, "retreat_50": 25.03 }, "geometry": { "type": "Point", "coordinates": [ 174.022954287553915, -36.353353162612386 ] } },
{ "type": "Feature", "properties": { "50": 0.438, "retreat_50": 25.03 }, "geometry": { "type": "Point", "coordinates": [ 174.022589513333998, -36.352667542248909 ] } },
{ "type": "Feature", "properties": { "50": 0.438, "retreat_50": 25.03 }, "geometry": { "type": "Point", "coordinates": [ 174.022155500210658, -36.351990846716681 ] } },
{ "type": "Feature", "properties": { "50": 0.438, "retreat_50": 25.03 }, "geometry": { "type": "Point", "coordinates": [ 174.021655595282994, -36.351322643730832 ] } },
{ "type": "Feature", "properties": { "50": 0.438, "retreat_50": 25.03 }, "geometry": { "type": "Point", "coordinates": [ 174.020999627237359, -36.350674564104992 ] } },
{ "type": "Feature", "properties": { "50": 0.438, "retreat_50": 25.03 }, "geometry": { "type": "Point", "coordinates": [ 174.020552910110865, -36.349999484669091 ] } },
{ "type": "Feature", "properties": { "50": 0.438, "retreat_50": 25.03 }, "geometry": { "type": "Point", "coordinates": [ 174.020139079866709, -36.349320155898916 ] } },
{ "type": "Feature", "properties": { "50": 0.438, "retreat_50": 25.03 }, "geometry": { "type": "Point", "coordinates": [ 174.019692306928619, -36.348645069041005 ] } },
{ "type": "Feature", "properties": { "50": 0.438, "retreat_50": 25.03 }, "geometry": { "type": "Point", "coordinates": [ 174.019269132647537, -36.347966931026882 ] } },
{ "type": "Feature", "properties": { "50": 0.438, "retreat_50": 25.03 }, "geometry": { "type": "Point", "coordinates": [ 174.018758082829549, -36.347300119905924 ] } },
{ "type": "Feature", "properties": { "50": 0.438, "retreat_50": 25.03 }, "geometry": { "type": "Point", "coordinates": [ 174.018538375973264, -36.346595724505001 ] } },
{ "type": "Feature", "properties": { "50": 0.438, "retreat_50": 25.03 }, "geometry": { "type": "Point", "coordinates": [ 174.018005053031317, -36.345931771535639 ] } },
{ "type": "Feature", "properties": { "50": 0.438, "retreat_50": 25.03 }, "geometry": { "type": "Point", "coordinates": [ 174.017540677014324, -36.345258918480148 ] } },
{ "type": "Feature", "properties": { "50": 0.438, "retreat_50": 25.03 }, "geometry": { "type": "Point", "coordinates": [ 174.017089643309049, -36.344584337225918 ] } },
{ "type": "Feature", "properties": { "50": 0.438, "retreat_50": 25.03 }, "geometry": { "type": "Point", "coordinates": [ 174.016512692039271, -36.343925987719473 ] } },
{ "type": "Feature", "properties": { "50": 0.438, "retreat_50": 25.03 }, "geometry": { "type": "Point", "coordinates": [ 174.01601300564235, -36.343257665771375 ] } },
{ "type": "Feature", "properties": { "50": 0.438, "retreat_50": 25.03 }, "geometry": { "type": "Point", "coordinates": [ 174.015882747163062, -36.342541694296422 ] } },
{ "type": "Feature", "properties": { "50": 0.438, "retreat_50": 25.03 }, "geometry": { "type": "Point", "coordinates": [ 174.015462543638449, -36.341863108058497 ] } },
{ "type": "Feature", "properties": { "50": 0.438, "retreat_50": 25.03 }, "geometry": { "type": "Point", "coordinates": [ 174.014353316918857, -36.33321232552818 ] } },
{ "type": "Feature", "properties": { "50": 0.438, "retreat_50": 25.03 }, "geometry": { "type": "Point", "coordinates": [ 174.014126483208514, -36.332508716916095 ] } },
{ "type": "Feature", "properties": { "50": 0.438, "retreat_50": 25.03 }, "geometry": { "type": "Point", "coordinates": [ 174.014100459991084, -36.331779203986613 ] } },
{ "type": "Feature", "properties": { "50": 0.438, "retreat_50": 25.03 }, "geometry": { "type": "Point", "coordinates": [ 174.014190241211196, -36.331034749254385 ] } },
{ "type": "Feature", "properties": { "50": 0.438, "retreat_50": 25.03 }, "geometry": { "type": "Point", "coordinates": [ 174.014375244260037, -36.330278006570694 ] } },
{ "type": "Feature", "properties": { "50": 0.438, "retreat_50": 25.03 }, "geometry": { "type": "Point", "coordinates": [ 174.01455879635202, -36.329521443478519 ] } },
{ "type": "Feature", "properties": { "50": 0.438, "retreat_50": 25.03 }, "geometry": { "type": "Point", "coordinates": [ 174.014815614272493, -36.328755423179494 ] } },
{ "type": "Feature", "properties": { "50": 0.438, "retreat_50": 25.03 }, "geometry": { "type": "Point", "coordinates": [ 174.015054073917526, -36.327991762751232 ] } },
{ "type": "Feature", "properties": { "50": 0.438, "retreat_50": 25.03 }, "geometry": { "type": "Point", "coordinates": [ 174.015077908085004, -36.327255777699584 ] } },
{ "type": "Feature", "properties": { "50": 0.438, "retreat_50": 25.03 }, "geometry": { "type": "Point", "coordinates": [ 174.015285524115967, -36.32649608063965 ] } },
{ "type": "Feature", "properties": { "50": 0.438, "retreat_50": 25.03 }, "geometry": { "type": "Point", "coordinates": [ 174.015217340982133, -36.325771950714191 ] } },
{ "type": "Feature", "properties": { "50": 0.438, "retreat_50": 25.03 }, "geometry": { "type": "Point", "coordinates": [ 174.015248624424828, -36.325034984162258 ] } },
{ "type": "Feature", "properties": { "50": 0.438, "retreat_50": 25.03 }, "geometry": { "type": "Point", "coordinates": [ 174.015216252226168, -36.324306221684374 ] } },
{ "type": "Feature", "properties": { "50": 0.438, "retreat_50": 25.03 }, "geometry": { "type": "Point", "coordinates": [ 174.015187376511307, -36.323577001504901 ] } },
{ "type": "Feature", "properties": { "50": 0.438, "retreat_50": 25.03 }, "geometry": { "type": "Point", "coordinates": [ 174.015243822145294, -36.322836768861002 ] } },
{ "type": "Feature", "properties": { "50": 0.439, "retreat_50": 25.09 }, "geometry": { "type": "Point", "coordinates": [ 174.015184491509615, -36.322111463680926 ] } },
{ "type": "Feature", "properties": { "50": 0.439, "retreat_50": 25.09 }, "geometry": { "type": "Point", "coordinates": [ 174.015173650749631, -36.321379896952394 ] } },
{ "type": "Feature", "properties": { "50": 0.439, "retreat_50": 25.09 }, "geometry": { "type": "Point", "coordinates": [ 174.015313934330351, -36.320628829022318 ] } },
{ "type": "Feature", "properties": { "50": 0.439, "retreat_50": 25.09 }, "geometry": { "type": "Point", "coordinates": [ 174.015311008037742, -36.319896227688687 ] } },
{ "type": "Feature", "properties": { "50": 0.439, "retreat_50": 25.09 }, "geometry": { "type": "Point", "coordinates": [ 174.015222980118182, -36.319174597627686 ] } },
{ "type": "Feature", "properties": { "50": 0.439, "retreat_50": 25.09 }, "geometry": { "type": "Point", "coordinates": [ 174.015201635301963, -36.318444358878693 ] } },
{ "type": "Feature", "properties": { "50": 0.439, "retreat_50": 25.09 }, "geometry": { "type": "Point", "coordinates": [ 174.015249633779092, -36.31770516805058 ] } },
{ "type": "Feature", "properties": { "50": 0.439, "retreat_50": 25.09 }, "geometry": { "type": "Point", "coordinates": [ 174.015207692009113, -36.316977572860814 ] } },
{ "type": "Feature", "properties": { "50": 0.439, "retreat_50": 25.09 }, "geometry": { "type": "Point", "coordinates": [ 174.015163592567831, -36.316250249348791 ] } },
{ "type": "Feature", "properties": { "50": 0.439, "retreat_50": 25.09 }, "geometry": { "type": "Point", "coordinates": [ 174.015114761536779, -36.315523529566875 ] } },
{ "type": "Feature", "properties": { "50": 0.439, "retreat_50": 25.09 }, "geometry": { "type": "Point", "coordinates": [ 174.015049671249074, -36.314798900654125 ] } },
{ "type": "Feature", "properties": { "50": 0.439, "retreat_50": 25.09 }, "geometry": { "type": "Point", "coordinates": [ 174.014881915649283, -36.314106290088404 ] } },
{ "type": "Feature", "properties": { "50": 0.439, "retreat_50": 25.09 }, "geometry": { "type": "Point", "coordinates": [ 174.014748247112919, -36.313401547096475 ] } },
{ "type": "Feature", "properties": { "50": 0.414, "retreat_50": 5.27 }, "geometry": { "type": "Point", "coordinates": [ 171.509378939025567, -44.188218910547874 ] } },
{ "type": "Feature", "properties": { "50": 0.414, "retreat_50": 4.74 }, "geometry": { "type": "Point", "coordinates": [ 171.508660188401535, -44.188614090586235 ] } },
{ "type": "Feature", "properties": { "50": 0.414, "retreat_50": 8.68 }, "geometry": { "type": "Point", "coordinates": [ 171.507842014823296, -44.188886324405146 ] } },
{ "type": "Feature", "properties": { "50": 0.414, "retreat_50": 8.54 }, "geometry": { "type": "Point", "coordinates": [ 171.507087225689304, -44.189236936679627 ] } },
{ "type": "Feature", "properties": { "50": 0.414, "retreat_50": 8.03 }, "geometry": { "type": "Point", "coordinates": [ 171.50633621188905, -44.189592216083135 ] } },
{ "type": "Feature", "properties": { "50": 0.414, "retreat_50": 4.83 }, "geometry": { "type": "Point", "coordinates": [ 171.505602958943399, -44.189969457543732 ] } },
{ "type": "Feature", "properties": { "50": 0.414, "retreat_50": 8.47 }, "geometry": { "type": "Point", "coordinates": [ 171.504848348091457, -44.190320286054778 ] } },
{ "type": "Feature", "properties": { "50": 0.414, "retreat_50": 8.62 }, "geometry": { "type": "Point", "coordinates": [ 171.504082039817405, -44.190656647530481 ] } },
{ "type": "Feature", "properties": { "50": 0.414, "retreat_50": 7.53 }, "geometry": { "type": "Point", "coordinates": [ 171.503317510393885, -44.190995207083994 ] } },
{ "type": "Feature", "properties": { "50": 0.414, "retreat_50": 7.92 }, "geometry": { "type": "Point", "coordinates": [ 171.502590009701436, -44.191379557053359 ] } },
{ "type": "Feature", "properties": { "50": 0.414, "retreat_50": 8.29 }, "geometry": { "type": "Point", "coordinates": [ 171.501842187860944, -44.191738775433841 ] } },
{ "type": "Feature", "properties": { "50": 0.414, "retreat_50": 8.31 }, "geometry": { "type": "Point", "coordinates": [ 171.501111759184624, -44.192120031287878 ] } },
{ "type": "Feature", "properties": { "50": 0.414, "retreat_50": 8.73 }, "geometry": { "type": "Point", "coordinates": [ 171.500358112583712, -44.19247354301919 ] } },
{ "type": "Feature", "properties": { "50": 0.414, "retreat_50": 8.72 }, "geometry": { "type": "Point", "coordinates": [ 171.49962386524885, -44.192849033068043 ] } },
{ "type": "Feature", "properties": { "50": 0.414, "retreat_50": 8.68 }, "geometry": { "type": "Point", "coordinates": [ 171.498876409305751, -44.19320753611364 ] } },
{ "type": "Feature", "properties": { "50": 0.414, "retreat_50": 8.27 }, "geometry": { "type": "Point", "coordinates": [ 171.498136652073754, -44.193575214550087 ] } },
{ "type": "Feature", "properties": { "50": 0.414, "retreat_50": 8.28 }, "geometry": { "type": "Point", "coordinates": [ 171.497361424367654, -44.193900609583956 ] } },
{ "type": "Feature", "properties": { "50": 0.414, "retreat_50": 8.31 }, "geometry": { "type": "Point", "coordinates": [ 171.496616546923264, -44.194262181207208 ] } },
{ "type": "Feature", "properties": { "50": 0.414, "retreat_50": 8.66 }, "geometry": { "type": "Point", "coordinates": [ 171.495850278925303, -44.194598252606333 ] } },
{ "type": "Feature", "properties": { "50": 0.414, "retreat_50": 7.87 }, "geometry": { "type": "Point", "coordinates": [ 171.495102622436718, -44.194956508063342 ] } },
{ "type": "Feature", "properties": { "50": 0.414, "retreat_50": 7.89 }, "geometry": { "type": "Point", "coordinates": [ 171.494340166874593, -44.195297120331894 ] } },
{ "type": "Feature", "properties": { "50": 0.414, "retreat_50": 7.86 }, "geometry": { "type": "Point", "coordinates": [ 171.493585720714492, -44.195647278528803 ] } },
{ "type": "Feature", "properties": { "50": 0.414, "retreat_50": 7.52 }, "geometry": { "type": "Point", "coordinates": [ 171.49282045334391, -44.195984535082118 ] } },
{ "type": "Feature", "properties": { "50": 0.414, "retreat_50": 7.55 }, "geometry": { "type": "Point", "coordinates": [ 171.492049562639721, -44.196314399175037 ] } },
{ "type": "Feature", "properties": { "50": 0.414, "retreat_50": 7.95 }, "geometry": { "type": "Point", "coordinates": [ 171.491296706726928, -44.196664922205301 ] } },
{ "type": "Feature", "properties": { "50": 0.414, "retreat_50": 8.77 }, "geometry": { "type": "Point", "coordinates": [ 171.490509802668157, -44.19697895841059 ] } },
{ "type": "Feature", "properties": { "50": 0.414, "retreat_50": 9.18 }, "geometry": { "type": "Point", "coordinates": [ 171.489774157170388, -44.197349029782302 ] } },
{ "type": "Feature", "properties": { "50": 0.414, "retreat_50": 8.6 }, "geometry": { "type": "Point", "coordinates": [ 171.488974873579394, -44.197649560500842 ] } },
{ "type": "Feature", "properties": { "50": 0.414, "retreat_50": 7.6 }, "geometry": { "type": "Point", "coordinates": [ 171.488254301535335, -44.198036098436674 ] } },
{ "type": "Feature", "properties": { "50": 0.414, "retreat_50": 9.22 }, "geometry": { "type": "Point", "coordinates": [ 171.487515547772432, -44.198402766717372 ] } },
{ "type": "Feature", "properties": { "50": 0.414, "retreat_50": 8.64 }, "geometry": { "type": "Point", "coordinates": [ 171.486757891425015, -44.198748777192463 ] } },
{ "type": "Feature", "properties": { "50": 0.414, "retreat_50": 7.87 }, "geometry": { "type": "Point", "coordinates": [ 171.486016596513167, -44.199112664244709 ] } },
{ "type": "Feature", "properties": { "50": 0.414, "retreat_50": 7.91 }, "geometry": { "type": "Point", "coordinates": [ 171.485287644051368, -44.199490036479524 ] } },
{ "type": "Feature", "properties": { "50": 0.414, "retreat_50": 8.3 }, "geometry": { "type": "Point", "coordinates": [ 171.484551857318309, -44.199859938477445 ] } },
{ "type": "Feature", "properties": { "50": 0.414, "retreat_50": 8.19 }, "geometry": { "type": "Point", "coordinates": [ 171.483800711925113, -44.200213054833057 ] } },
{ "type": "Feature", "properties": { "50": 0.414, "retreat_50": 7.16 }, "geometry": { "type": "Point", "coordinates": [ 171.483044491893111, -44.200560623382245 ] } },
{ "type": "Feature", "properties": { "50": 0.414, "retreat_50": 6.88 }, "geometry": { "type": "Point", "coordinates": [ 171.48231788566352, -44.200940551277171 ] } },
{ "type": "Feature", "properties": { "50": 0.414, "retreat_50": 6.6 }, "geometry": { "type": "Point", "coordinates": [ 171.481573929211663, -44.201301516919671 ] } },
{ "type": "Feature", "properties": { "50": 0.414, "retreat_50": 6.42 }, "geometry": { "type": "Point", "coordinates": [ 171.480829793989642, -44.201662285001007 ] } },
{ "type": "Feature", "properties": { "50": 0.414, "retreat_50": 7.19 }, "geometry": { "type": "Point", "coordinates": [ 171.480110502191224, -44.202050200167562 ] } },
{ "type": "Feature", "properties": { "50": 0.414, "retreat_50": 6.97 }, "geometry": { "type": "Point", "coordinates": [ 171.479381487434097, -44.202427488037834 ] } },
{ "type": "Feature", "properties": { "50": 0.414, "retreat_50": 8.34 }, "geometry": { "type": "Point", "coordinates": [ 171.478609455566868, -44.202757763505225 ] } },
{ "type": "Feature", "properties": { "50": 0.414, "retreat_50": 8.8 }, "geometry": { "type": "Point", "coordinates": [ 171.477866586195177, -44.203119906246982 ] } },
{ "type": "Feature", "properties": { "50": 0.414, "retreat_50": 9.6 }, "geometry": { "type": "Point", "coordinates": [ 171.47712828052164, -44.203487034235764 ] } },
{ "type": "Feature", "properties": { "50": 0.414, "retreat_50": 7.88 }, "geometry": { "type": "Point", "coordinates": [ 171.476384619654965, -44.203848307660238 ] } },
{ "type": "Feature", "properties": { "50": 0.414, "retreat_50": 8.3 }, "geometry": { "type": "Point", "coordinates": [ 171.475646800940638, -44.204215963568423 ] } },
{ "type": "Feature", "properties": { "50": 0.414, "retreat_50": 8.19 }, "geometry": { "type": "Point", "coordinates": [ 171.474907004481366, -44.204581455953118 ] } },
{ "type": "Feature", "properties": { "50": 0.414, "retreat_50": 7.25 }, "geometry": { "type": "Point", "coordinates": [ 171.474166349422319, -44.204946007858595 ] } },
{ "type": "Feature", "properties": { "50": 0.414, "retreat_50": 8.19 }, "geometry": { "type": "Point", "coordinates": [ 171.473409723877609, -44.205293103663429 ] } },
{ "type": "Feature", "properties": { "50": 0.414, "retreat_50": 6.91 }, "geometry": { "type": "Point", "coordinates": [ 171.472688667541405, -44.205679070514584 ] } },
{ "type": "Feature", "properties": { "50": 0.414, "retreat_50": 7.7 }, "geometry": { "type": "Point", "coordinates": [ 171.471946800000495, -44.206042281468378 ] } },
{ "type": "Feature", "properties": { "50": 0.414, "retreat_50": 10.31 }, "geometry": { "type": "Point", "coordinates": [ 171.471214554618996, -44.206415609711613 ] } },
{ "type": "Feature", "properties": { "50": 0.414, "retreat_50": 8.55 }, "geometry": { "type": "Point", "coordinates": [ 171.470470474757377, -44.206775940024613 ] } },
{ "type": "Feature", "properties": { "50": 0.414, "retreat_50": 7.24 }, "geometry": { "type": "Point", "coordinates": [ 171.469746539983106, -44.207157968727508 ] } },
{ "type": "Feature", "properties": { "50": 0.414, "retreat_50": 8.28 }, "geometry": { "type": "Point", "coordinates": [ 171.469006650940401, -44.207523086992104 ] } },
{ "type": "Feature", "properties": { "50": 0.414, "retreat_50": 7.93 }, "geometry": { "type": "Point", "coordinates": [ 171.468290131484508, -44.207912970168088 ] } },
{ "type": "Feature", "properties": { "50": 0.414, "retreat_50": 8.74 }, "geometry": { "type": "Point", "coordinates": [ 171.467527977795385, -44.208254487531285 ] } },
{ "type": "Feature", "properties": { "50": 0.414, "retreat_50": 8.65 }, "geometry": { "type": "Point", "coordinates": [ 171.466785456071761, -44.208616808606607 ] } },
{ "type": "Feature", "properties": { "50": 0.414, "retreat_50": 7.9 }, "geometry": { "type": "Point", "coordinates": [ 171.466048474638853, -44.208984999069223 ] } },
{ "type": "Feature", "properties": { "50": 0.414, "retreat_50": 8.26 }, "geometry": { "type": "Point", "coordinates": [ 171.465305919195799, -44.209347279687925 ] } },
{ "type": "Feature", "properties": { "50": 0.414, "retreat_50": 7.87 }, "geometry": { "type": "Point", "coordinates": [ 171.464601502063658, -44.209749978614333 ] } },
{ "type": "Feature", "properties": { "50": 0.414, "retreat_50": 7.94 }, "geometry": { "type": "Point", "coordinates": [ 171.46387858745473, -44.210133071124076 ] } },
{ "type": "Feature", "properties": { "50": 0.414, "retreat_50": 8.81 }, "geometry": { "type": "Point", "coordinates": [ 171.463134232955611, -44.2104934382984 ] } },
{ "type": "Feature", "properties": { "50": 0.414, "retreat_50": 9.69 }, "geometry": { "type": "Point", "coordinates": [ 171.46239987434879, -44.210864397369953 ] } },
{ "type": "Feature", "properties": { "50": 0.414, "retreat_50": 8.63 }, "geometry": { "type": "Point", "coordinates": [ 171.461671375919792, -44.211240926655904 ] } },
{ "type": "Feature", "properties": { "50": 0.414, "retreat_50": 7.91 }, "geometry": { "type": "Point", "coordinates": [ 171.460945777824151, -44.211618069559997 ] } },
{ "type": "Feature", "properties": { "50": 0.414, "retreat_50": 8.88 }, "geometry": { "type": "Point", "coordinates": [ 171.460220233028423, -44.211995699677352 ] } },
{ "type": "Feature", "properties": { "50": 0.414, "retreat_50": 10.95 }, "geometry": { "type": "Point", "coordinates": [ 171.459473359968058, -44.212354296551197 ] } },
{ "type": "Feature", "properties": { "50": 0.414, "retreat_50": 9.24 }, "geometry": { "type": "Point", "coordinates": [ 171.458748677219376, -44.212734692662458 ] } },
{ "type": "Feature", "properties": { "50": 0.414, "retreat_50": 10.38 }, "geometry": { "type": "Point", "coordinates": [ 171.458053619204435, -44.213144192836133 ] } },
{ "type": "Feature", "properties": { "50": 0.414, "retreat_50": 10.36 }, "geometry": { "type": "Point", "coordinates": [ 171.457325502986436, -44.21352121045458 ] } },
{ "type": "Feature", "properties": { "50": 0.414, "retreat_50": 10.26 }, "geometry": { "type": "Point", "coordinates": [ 171.456595103317937, -44.213895981867658 ] } },
{ "type": "Feature", "properties": { "50": 0.414, "retreat_50": 9.18 }, "geometry": { "type": "Point", "coordinates": [ 171.455897597949615, -44.214303070253287 ] } },
{ "type": "Feature", "properties": { "50": 0.414, "retreat_50": 9.2 }, "geometry": { "type": "Point", "coordinates": [ 171.45516761721845, -44.214678248124649 ] } },
{ "type": "Feature", "properties": { "50": 0.414, "retreat_50": 9.18 }, "geometry": { "type": "Point", "coordinates": [ 171.454433179922205, -44.215049044546809 ] } },
{ "type": "Feature", "properties": { "50": 0.414, "retreat_50": 8.54 }, "geometry": { "type": "Point", "coordinates": [ 171.45375432329709, -44.215474448938473 ] } },
{ "type": "Feature", "properties": { "50": 0.414, "retreat_50": 6.97 }, "geometry": { "type": "Point", "coordinates": [ 171.453026794806391, -44.215852028521759 ] } },
{ "type": "Feature", "properties": { "50": 0.414, "retreat_50": 8.71 }, "geometry": { "type": "Point", "coordinates": [ 171.452284699817767, -44.216215292989645 ] } },
{ "type": "Feature", "properties": { "50": 0.414, "retreat_50": 7.86 }, "geometry": { "type": "Point", "coordinates": [ 171.451597510594354, -44.216632503181081 ] } },
{ "type": "Feature", "properties": { "50": 0.414, "retreat_50": 7.94 }, "geometry": { "type": "Point", "coordinates": [ 171.450884565553224, -44.217024404256264 ] } },
{ "type": "Feature", "properties": { "50": 0.414, "retreat_50": 8.7 }, "geometry": { "type": "Point", "coordinates": [ 171.450111929115252, -44.217357651395666 ] } },
{ "type": "Feature", "properties": { "50": 0.414, "retreat_50": 8.3 }, "geometry": { "type": "Point", "coordinates": [ 171.449416063818319, -44.217766329474607 ] } },
{ "type": "Feature", "properties": { "50": 0.414, "retreat_50": 8.69 }, "geometry": { "type": "Point", "coordinates": [ 171.448716917460217, -44.218171781326809 ] } },
{ "type": "Feature", "properties": { "50": 0.414, "retreat_50": 8.34 }, "geometry": { "type": "Point", "coordinates": [ 171.447984148914344, -44.218544193846498 ] } },
{ "type": "Feature", "properties": { "50": 0.414, "retreat_50": 9.11 }, "geometry": { "type": "Point", "coordinates": [ 171.447257596794628, -44.218922688118461 ] } },
{ "type": "Feature", "properties": { "50": 0.414, "retreat_50": 7.94 }, "geometry": { "type": "Point", "coordinates": [ 171.446546296901346, -44.219316109181712 ] } },
{ "type": "Feature", "properties": { "50": 0.414, "retreat_50": 9.23 }, "geometry": { "type": "Point", "coordinates": [ 171.44582878823806, -44.219703446949175 ] } },
{ "type": "Feature", "properties": { "50": 0.414, "retreat_50": 9.24 }, "geometry": { "type": "Point", "coordinates": [ 171.445118136640758, -44.220097529897409 ] } },
{ "type": "Feature", "properties": { "50": 0.414, "retreat_50": 9.71 }, "geometry": { "type": "Point", "coordinates": [ 171.444403336532673, -44.220487548561053 ] } },
{ "type": "Feature", "properties": { "50": 0.414, "retreat_50": 9.27 }, "geometry": { "type": "Point", "coordinates": [ 171.443697759581539, -44.220886595164764 ] } },
{ "type": "Feature", "properties": { "50": 0.414, "retreat_50": 10.29 }, "geometry": { "type": "Point", "coordinates": [ 171.442978548964021, -44.221272290457605 ] } },
{ "type": "Feature", "properties": { "50": 0.414, "retreat_50": 9.14 }, "geometry": { "type": "Point", "coordinates": [ 171.442265460069478, -44.221663977073696 ] } },
{ "type": "Feature", "properties": { "50": 0.414, "retreat_50": 8.67 }, "geometry": { "type": "Point", "coordinates": [ 171.441558666960191, -44.222061825546696 ] } },
{ "type": "Feature", "properties": { "50": 0.414, "retreat_50": 8.31 }, "geometry": { "type": "Point", "coordinates": [ 171.440860568357039, -44.222468184638061 ] } },
{ "type": "Feature", "properties": { "50": 0.414, "retreat_50": 8.63 }, "geometry": { "type": "Point", "coordinates": [ 171.440136726256355, -44.222849335035797 ] } },
{ "type": "Feature", "properties": { "50": 0.414, "retreat_50": 7.53 }, "geometry": { "type": "Point", "coordinates": [ 171.439423653493577, -44.223241027510824 ] } },
{ "type": "Feature", "properties": { "50": 0.414, "retreat_50": 7.81 }, "geometry": { "type": "Point", "coordinates": [ 171.438726809448326, -44.223648607779694 ] } },
{ "type": "Feature", "properties": { "50": 0.414, "retreat_50": 6.92 }, "geometry": { "type": "Point", "coordinates": [ 171.438019795610131, -44.224046227956798 ] } },
{ "type": "Feature", "properties": { "50": 0.414, "retreat_50": 7.59 }, "geometry": { "type": "Point", "coordinates": [ 171.437314193399004, -44.224445227907573 ] } },
{ "type": "Feature", "properties": { "50": 0.414, "retreat_50": 8.39 }, "geometry": { "type": "Point", "coordinates": [ 171.436612380393825, -44.224847935691002 ] } },
{ "type": "Feature", "properties": { "50": 0.414, "retreat_50": 9.65 }, "geometry": { "type": "Point", "coordinates": [ 171.435873976115744, -44.225214812080644 ] } },
{ "type": "Feature", "properties": { "50": 0.414, "retreat_50": 8.33 }, "geometry": { "type": "Point", "coordinates": [ 171.435187012379544, -44.22563205494108 ] } },
{ "type": "Feature", "properties": { "50": 0.414, "retreat_50": 9.87 }, "geometry": { "type": "Point", "coordinates": [ 171.434479283446251, -44.226028962730709 ] } },
{ "type": "Feature", "properties": { "50": 0.414, "retreat_50": 11.02 }, "geometry": { "type": "Point", "coordinates": [ 171.433776775079139, -44.22643097998025 ] } },
{ "type": "Feature", "properties": { "50": 0.414, "retreat_50": 10.38 }, "geometry": { "type": "Point", "coordinates": [ 171.433078208200982, -44.226826206337961 ] } },
{ "type": "Feature", "properties": { "50": 0.414, "retreat_50": 11.06 }, "geometry": { "type": "Point", "coordinates": [ 171.432389303110341, -44.227225001130861 ] } },
{ "type": "Feature", "properties": { "50": 0.414, "retreat_50": 11.04 }, "geometry": { "type": "Point", "coordinates": [ 171.431703468453549, -44.227636992741708 ] } },
{ "type": "Feature", "properties": { "50": 0.414, "retreat_50": 11.05 }, "geometry": { "type": "Point", "coordinates": [ 171.431020719455233, -44.228055235689766 ] } },
{ "type": "Feature", "properties": { "50": 0.414, "retreat_50": 10.94 }, "geometry": { "type": "Point", "coordinates": [ 171.430336390781832, -44.228472152073984 ] } },
{ "type": "Feature", "properties": { "50": 0.414, "retreat_50": 9.72 }, "geometry": { "type": "Point", "coordinates": [ 171.429659841556344, -44.228895582854037 ] } },
{ "type": "Feature", "properties": { "50": 0.414, "retreat_50": 9.7 }, "geometry": { "type": "Point", "coordinates": [ 171.428985388366186, -44.229320766590618 ] } },
{ "type": "Feature", "properties": { "50": 0.414, "retreat_50": 9.23 }, "geometry": { "type": "Point", "coordinates": [ 171.428308657956933, -44.2297440394075 ] } },
{ "type": "Feature", "properties": { "50": 0.414, "retreat_50": 9.67 }, "geometry": { "type": "Point", "coordinates": [ 171.427632522312706, -44.230167807429638 ] } },
{ "type": "Feature", "properties": { "50": 0.414, "retreat_50": 8.72 }, "geometry": { "type": "Point", "coordinates": [ 171.426954642384942, -44.230590110998961 ] } },
{ "type": "Feature", "properties": { "50": 0.414, "retreat_50": 9.25 }, "geometry": { "type": "Point", "coordinates": [ 171.426284405309644, -44.231018814711682 ] } },
{ "type": "Feature", "properties": { "50": 0.414, "retreat_50": 9.8 }, "geometry": { "type": "Point", "coordinates": [ 171.425580030794407, -44.231418914638098 ] } },
{ "type": "Feature", "properties": { "50": 0.414, "retreat_50": 10.31 }, "geometry": { "type": "Point", "coordinates": [ 171.424892282855012, -44.231832941267541 ] } },
{ "type": "Feature", "properties": { "50": 0.414, "retreat_50": 9.81 }, "geometry": { "type": "Point", "coordinates": [ 171.424232663294077, -44.232270531232928 ] } },
{ "type": "Feature", "properties": { "50": 0.414, "retreat_50": 11.02 }, "geometry": { "type": "Point", "coordinates": [ 171.423535530720301, -44.23267668896208 ] } },
{ "type": "Feature", "properties": { "50": 0.414, "retreat_50": 10.32 }, "geometry": { "type": "Point", "coordinates": [ 171.422855989206056, -44.233096776402164 ] } },
{ "type": "Feature", "properties": { "50": 0.414, "retreat_50": 10.5 }, "geometry": { "type": "Point", "coordinates": [ 171.422184499092623, -44.233523148159982 ] } },
{ "type": "Feature", "properties": { "50": 0.414, "retreat_50": 12.59 }, "geometry": { "type": "Point", "coordinates": [ 171.421493609037952, -44.233934467960175 ] } },
{ "type": "Feature", "properties": { "50": 0.414, "retreat_50": 10.41 }, "geometry": { "type": "Point", "coordinates": [ 171.420839015710271, -44.234375728796721 ] } },
{ "type": "Feature", "properties": { "50": 0.414, "retreat_50": 11.63 }, "geometry": { "type": "Point", "coordinates": [ 171.420146109786231, -44.234785714799429 ] } },
{ "type": "Feature", "properties": { "50": 0.414, "retreat_50": 9.15 }, "geometry": { "type": "Point", "coordinates": [ 171.419479514415627, -44.235217172922177 ] } },
{ "type": "Feature", "properties": { "50": 0.414, "retreat_50": 9.27 }, "geometry": { "type": "Point", "coordinates": [ 171.418793936738126, -44.235633133886026 ] } },
{ "type": "Feature", "properties": { "50": 0.414, "retreat_50": 10.39 }, "geometry": { "type": "Point", "coordinates": [ 171.418119769970161, -44.236058405565686 ] } },
{ "type": "Feature", "properties": { "50": 0.414, "retreat_50": 10.27 }, "geometry": { "type": "Point", "coordinates": [ 171.417445731921788, -44.236483779098101 ] } },
{ "type": "Feature", "properties": { "50": 0.414, "retreat_50": 9.07 }, "geometry": { "type": "Point", "coordinates": [ 171.416779022245521, -44.236915131159357 ] } },
{ "type": "Feature", "properties": { "50": 0.414, "retreat_50": 7.91 }, "geometry": { "type": "Point", "coordinates": [ 171.416109266408341, -44.237343993636529 ] } },
{ "type": "Feature", "properties": { "50": 0.414, "retreat_50": 8.77 }, "geometry": { "type": "Point", "coordinates": [ 171.415450886130628, -44.237782138237868 ] } },
{ "type": "Feature", "properties": { "50": 0.414, "retreat_50": 9.25 }, "geometry": { "type": "Point", "coordinates": [ 171.41476480650968, -44.238197670031902 ] } },
{ "type": "Feature", "properties": { "50": 0.414, "retreat_50": 9.76 }, "geometry": { "type": "Point", "coordinates": [ 171.414101073292358, -44.238631438951607 ] } },
{ "type": "Feature", "properties": { "50": 0.414, "retreat_50": 9.58 }, "geometry": { "type": "Point", "coordinates": [ 171.413419725185207, -44.239050826381323 ] } },
{ "type": "Feature", "properties": { "50": 0.414, "retreat_50": 7.88 }, "geometry": { "type": "Point", "coordinates": [ 171.412790209333536, -44.239512519354491 ] } },
{ "type": "Feature", "properties": { "50": 0.414, "retreat_50": 8.28 }, "geometry": { "type": "Point", "coordinates": [ 171.412133920238915, -44.23995235528124 ] } },
{ "type": "Feature", "properties": { "50": 0.414, "retreat_50": 8.4 }, "geometry": { "type": "Point", "coordinates": [ 171.411476984883876, -44.240391660586852 ] } },
{ "type": "Feature", "properties": { "50": 0.414, "retreat_50": 10.4 }, "geometry": { "type": "Point", "coordinates": [ 171.41081726345152, -44.240828688592593 ] } },
{ "type": "Feature", "properties": { "50": 0.414, "retreat_50": 10.45 }, "geometry": { "type": "Point", "coordinates": [ 171.410154124388555, -44.241262053641506 ] } },
{ "type": "Feature", "properties": { "50": 0.414, "retreat_50": 11.68 }, "geometry": { "type": "Point", "coordinates": [ 171.409465689897104, -44.241675137399973 ] } },
{ "type": "Feature", "properties": { "50": 0.414, "retreat_50": 9.82 }, "geometry": { "type": "Point", "coordinates": [ 171.408760515609401, -44.242075954399922 ] } },
{ "type": "Feature", "properties": { "50": 0.414, "retreat_50": 11.9 }, "geometry": { "type": "Point", "coordinates": [ 171.408122554175293, -44.242529850258215 ] } },
{ "type": "Feature", "properties": { "50": 0.414, "retreat_50": 11.59 }, "geometry": { "type": "Point", "coordinates": [ 171.407459739429584, -44.242964137769334 ] } },
{ "type": "Feature", "properties": { "50": 0.414, "retreat_50": 9.19 }, "geometry": { "type": "Point", "coordinates": [ 171.406832266375631, -44.24342630082414 ] } },
{ "type": "Feature", "properties": { "50": 0.414, "retreat_50": 9.67 }, "geometry": { "type": "Point", "coordinates": [ 171.406224417189406, -44.243903940811414 ] } },
{ "type": "Feature", "properties": { "50": 0.414, "retreat_50": 8.7 }, "geometry": { "type": "Point", "coordinates": [ 171.405574169581087, -44.244348132118859 ] } },
{ "type": "Feature", "properties": { "50": 0.414, "retreat_50": 8.62 }, "geometry": { "type": "Point", "coordinates": [ 171.404911474834535, -44.244782501323499 ] } },
{ "type": "Feature", "properties": { "50": 0.414, "retreat_50": 7.5 }, "geometry": { "type": "Point", "coordinates": [ 171.404259763299478, -44.245225531286394 ] } },
{ "type": "Feature", "properties": { "50": 0.414, "retreat_50": 7.6 }, "geometry": { "type": "Point", "coordinates": [ 171.403609363716953, -44.245669592926774 ] } },
{ "type": "Feature", "properties": { "50": 0.414, "retreat_50": 8.71 }, "geometry": { "type": "Point", "coordinates": [ 171.402944054303561, -44.246101889655044 ] } },
{ "type": "Feature", "properties": { "50": 0.414, "retreat_50": 8.27 }, "geometry": { "type": "Point", "coordinates": [ 171.402289234906306, -44.246542458160334 ] } },
{ "type": "Feature", "properties": { "50": 0.414, "retreat_50": 8.25 }, "geometry": { "type": "Point", "coordinates": [ 171.401637157868606, -44.246985186726356 ] } },
{ "type": "Feature", "properties": { "50": 0.414, "retreat_50": 7.96 }, "geometry": { "type": "Point", "coordinates": [ 171.400981318011986, -44.247424943691286 ] } },
{ "type": "Feature", "properties": { "50": 0.414, "retreat_50": 9.12 }, "geometry": { "type": "Point", "coordinates": [ 171.400315150298269, -44.247856550096543 ] } },
{ "type": "Feature", "properties": { "50": 0.414, "retreat_50": 7.95 }, "geometry": { "type": "Point", "coordinates": [ 171.399660560032146, -44.248296524167834 ] } },
{ "type": "Feature", "properties": { "50": 0.424, "retreat_50": 9.27 }, "geometry": { "type": "Point", "coordinates": [ 171.39900368360037, -44.248733446930345 ] } },
{ "type": "Feature", "properties": { "50": 0.424, "retreat_50": 7.38 }, "geometry": { "type": "Point", "coordinates": [ 171.398377422978285, -44.249194075359227 ] } },
{ "type": "Feature", "properties": { "50": 0.424, "retreat_50": 8.12 }, "geometry": { "type": "Point", "coordinates": [ 171.397727841292976, -44.249638468269858 ] } },
{ "type": "Feature", "properties": { "50": 0.424, "retreat_50": 8.52 }, "geometry": { "type": "Point", "coordinates": [ 171.397082535329645, -44.250086023662405 ] } },
{ "type": "Feature", "properties": { "50": 0.424, "retreat_50": 8.91 }, "geometry": { "type": "Point", "coordinates": [ 171.396413584410539, -44.250516067035477 ] } },
{ "type": "Feature", "properties": { "50": 0.424, "retreat_50": 8.41 }, "geometry": { "type": "Point", "coordinates": [ 171.395781307479439, -44.250973262971833 ] } },
{ "type": "Feature", "properties": { "50": 0.424, "retreat_50": 7.72 }, "geometry": { "type": "Point", "coordinates": [ 171.395133499110074, -44.25141895472283 ] } },
{ "type": "Feature", "properties": { "50": 0.424, "retreat_50": 7.98 }, "geometry": { "type": "Point", "coordinates": [ 171.394457909506173, -44.251844071414837 ] } },
{ "type": "Feature", "properties": { "50": 0.424, "retreat_50": 6.78 }, "geometry": { "type": "Point", "coordinates": [ 171.393818653654364, -44.252296088987286 ] } },
{ "type": "Feature", "properties": { "50": 0.424, "retreat_50": 7.09 }, "geometry": { "type": "Point", "coordinates": [ 171.393181011477424, -44.252749297948448 ] } },
{ "type": "Feature", "properties": { "50": 0.424, "retreat_50": 7.4 }, "geometry": { "type": "Point", "coordinates": [ 171.392555101122724, -44.253211190685697 ] } },
{ "type": "Feature", "properties": { "50": 0.424, "retreat_50": 7.74 }, "geometry": { "type": "Point", "coordinates": [ 171.391920292365342, -44.253666490777441 ] } },
{ "type": "Feature", "properties": { "50": 0.424, "retreat_50": 8.14 }, "geometry": { "type": "Point", "coordinates": [ 171.391292249643982, -44.254126797576049 ] } },
{ "type": "Feature", "properties": { "50": 0.424, "retreat_50": 8.99 }, "geometry": { "type": "Point", "coordinates": [ 171.390644991414575, -44.254572871913354 ] } },
{ "type": "Feature", "properties": { "50": 0.424, "retreat_50": 9.36 }, "geometry": { "type": "Point", "coordinates": [ 171.390020007635485, -44.255035436876945 ] } },
{ "type": "Feature", "properties": { "50": 0.424, "retreat_50": 8.49 }, "geometry": { "type": "Point", "coordinates": [ 171.389394747889725, -44.255497794031655 ] } },
{ "type": "Feature", "properties": { "50": 0.424, "retreat_50": 8.86 }, "geometry": { "type": "Point", "coordinates": [ 171.38873375710682, -44.25593368882982 ] } },
{ "type": "Feature", "properties": { "50": 0.424, "retreat_50": 8.17 }, "geometry": { "type": "Point", "coordinates": [ 171.388088724195086, -44.256380992183217 ] } },
{ "type": "Feature", "properties": { "50": 0.424, "retreat_50": 9.95 }, "geometry": { "type": "Point", "coordinates": [ 171.387413912484789, -44.256803115213664 ] } },
{ "type": "Feature", "properties": { "50": 0.424, "retreat_50": 8.87 }, "geometry": { "type": "Point", "coordinates": [ 171.386780496253238, -44.257261798288191 ] } },
{ "type": "Feature", "properties": { "50": 0.424, "retreat_50": 8.47 }, "geometry": { "type": "Point", "coordinates": [ 171.386107642104434, -44.257688401788016 ] } },
{ "type": "Feature", "properties": { "50": 0.424, "retreat_50": 8.51 }, "geometry": { "type": "Point", "coordinates": [ 171.385440965824415, -44.258120309977045 ] } },
{ "type": "Feature", "properties": { "50": 0.424, "retreat_50": 9.01 }, "geometry": { "type": "Point", "coordinates": [ 171.384749596234684, -44.258531000362581 ] } },
{ "type": "Feature", "properties": { "50": 0.424, "retreat_50": 9.97 }, "geometry": { "type": "Point", "coordinates": [ 171.384070630463384, -44.258952344311247 ] } },
{ "type": "Feature", "properties": { "50": 0.424, "retreat_50": 9.25 }, "geometry": { "type": "Point", "coordinates": [ 171.383394358568921, -44.259375999723218 ] } },
{ "type": "Feature", "properties": { "50": 0.424, "retreat_50": 7.8 }, "geometry": { "type": "Point", "coordinates": [ 171.382727277117652, -44.259807548140742 ] } },
{ "type": "Feature", "properties": { "50": 0.424, "retreat_50": 10.05 }, "geometry": { "type": "Point", "coordinates": [ 171.38202257768765, -44.260206774117393 ] } },
{ "type": "Feature", "properties": { "50": 0.424, "retreat_50": 9.98 }, "geometry": { "type": "Point", "coordinates": [ 171.381355828930054, -44.260638602481308 ] } },
{ "type": "Feature", "properties": { "50": 0.424, "retreat_50": 9.93 }, "geometry": { "type": "Point", "coordinates": [ 171.380664430895564, -44.261049250299074 ] } },
{ "type": "Feature", "properties": { "50": 0.404, "retreat_50": 8.97 }, "geometry": { "type": "Point", "coordinates": [ 171.380008982399374, -44.261490781593906 ] } },
{ "type": "Feature", "properties": { "50": 0.404, "retreat_50": 8.86 }, "geometry": { "type": "Point", "coordinates": [ 171.379328102826292, -44.261910460549082 ] } },
{ "type": "Feature", "properties": { "50": 0.404, "retreat_50": 7.8 }, "geometry": { "type": "Point", "coordinates": [ 171.378661009293467, -44.262341981085761 ] } },
{ "type": "Feature", "properties": { "50": 0.404, "retreat_50": 10.13 }, "geometry": { "type": "Point", "coordinates": [ 171.377976371449535, -44.262758425121945 ] } },
{ "type": "Feature", "properties": { "50": 0.404, "retreat_50": 9.54 }, "geometry": { "type": "Point", "coordinates": [ 171.377317308020992, -44.26319673837488 ] } },
{ "type": "Feature", "properties": { "50": 0.404, "retreat_50": 10.02 }, "geometry": { "type": "Point", "coordinates": [ 171.376633411244995, -44.263612664718657 ] } },
{ "type": "Feature", "properties": { "50": 0.404, "retreat_50": 9.04 }, "geometry": { "type": "Point", "coordinates": [ 171.375964073106616, -44.264040797265856 ] } },
{ "type": "Feature", "properties": { "50": 0.404, "retreat_50": 9.91 }, "geometry": { "type": "Point", "coordinates": [ 171.375286473693109, -44.264463062647287 ] } },
{ "type": "Feature", "properties": { "50": 0.404, "retreat_50": 7.65 }, "geometry": { "type": "Point", "coordinates": [ 171.374627830402346, -44.264901089199931 ] } },
{ "type": "Feature", "properties": { "50": 0.404, "retreat_50": 7.72 }, "geometry": { "type": "Point", "coordinates": [ 171.373947619918397, -44.265321176944489 ] } },
{ "type": "Feature", "properties": { "50": 0.404, "retreat_50": 8.09 }, "geometry": { "type": "Point", "coordinates": [ 171.373273170564516, -44.265746052649135 ] } },
{ "type": "Feature", "properties": { "50": 0.404, "retreat_50": 8.03 }, "geometry": { "type": "Point", "coordinates": [ 171.372586500361223, -44.266160761992118 ] } },
{ "type": "Feature", "properties": { "50": 0.404, "retreat_50": 7.3 }, "geometry": { "type": "Point", "coordinates": [ 171.371914764447808, -44.266587888015607 ] } },
{ "type": "Feature", "properties": { "50": 0.404, "retreat_50": 7.11 }, "geometry": { "type": "Point", "coordinates": [ 171.371250306502645, -44.267021063583115 ] } },
{ "type": "Feature", "properties": { "50": 0.404, "retreat_50": 8.41 }, "geometry": { "type": "Point", "coordinates": [ 171.370568332630313, -44.267439669119682 ] } },
{ "type": "Feature", "properties": { "50": 0.404, "retreat_50": 7.08 }, "geometry": { "type": "Point", "coordinates": [ 171.369899999906295, -44.267869616092092 ] } },
{ "type": "Feature", "properties": { "50": 0.404, "retreat_50": 8.58 }, "geometry": { "type": "Point", "coordinates": [ 171.369203237252265, -44.268275885086751 ] } },
{ "type": "Feature", "properties": { "50": 0.404, "retreat_50": 8.95 }, "geometry": { "type": "Point", "coordinates": [ 171.368533181085667, -44.268704098319667 ] } },
{ "type": "Feature", "properties": { "50": 0.404, "retreat_50": 8.56 }, "geometry": { "type": "Point", "coordinates": [ 171.367872316210281, -44.269139786664297 ] } },
{ "type": "Feature", "properties": { "50": 0.404, "retreat_50": 9.41 }, "geometry": { "type": "Point", "coordinates": [ 171.36719481620861, -44.269562084494027 ] } },
{ "type": "Feature", "properties": { "50": 0.404, "retreat_50": 8.14 }, "geometry": { "type": "Point", "coordinates": [ 171.366542578191513, -44.270005079222628 ] } },
{ "type": "Feature", "properties": { "50": 0.404, "retreat_50": 9.51 }, "geometry": { "type": "Point", "coordinates": [ 171.365881796116071, -44.270441069721315 ] } },
{ "type": "Feature", "properties": { "50": 0.404, "retreat_50": 8.93 }, "geometry": { "type": "Point", "coordinates": [ 171.365230698382845, -44.270884992689879 ] } },
{ "type": "Feature", "properties": { "50": 0.404, "retreat_50": 8.57 }, "geometry": { "type": "Point", "coordinates": [ 171.364590669488365, -44.271337982701297 ] } },
{ "type": "Feature", "properties": { "50": 0.404, "retreat_50": 9.41 }, "geometry": { "type": "Point", "coordinates": [ 171.363929966804022, -44.27177402903137 ] } },
{ "type": "Feature", "properties": { "50": 0.404, "retreat_50": 8.09 }, "geometry": { "type": "Point", "coordinates": [ 171.363292409828489, -44.272229038577322 ] } },
{ "type": "Feature", "properties": { "50": 0.404, "retreat_50": 8.39 }, "geometry": { "type": "Point", "coordinates": [ 171.362643703068613, -44.272674908636006 ] } },
{ "type": "Feature", "properties": { "50": 0.414, "retreat_50": 7.17 }, "geometry": { "type": "Point", "coordinates": [ 171.362032296845172, -44.273151341058302 ] } },
{ "type": "Feature", "properties": { "50": 0.414, "retreat_50": 7.22 }, "geometry": { "type": "Point", "coordinates": [ 171.361398990616095, -44.273609824923909 ] } },
{ "type": "Feature", "properties": { "50": 0.414, "retreat_50": 7.62 }, "geometry": { "type": "Point", "coordinates": [ 171.360736459285675, -44.274044357605007 ] } },
{ "type": "Feature", "properties": { "50": 0.414, "retreat_50": 8.59 }, "geometry": { "type": "Point", "coordinates": [ 171.360088436231194, -44.274490775883791 ] } },
{ "type": "Feature", "properties": { "50": 0.414, "retreat_50": 6.84 }, "geometry": { "type": "Point", "coordinates": [ 171.359457906558163, -44.274951526009133 ] } },
{ "type": "Feature", "properties": { "50": 0.414, "retreat_50": 6.69 }, "geometry": { "type": "Point", "coordinates": [ 171.358833310940753, -44.275399117408519 ] } },
{ "type": "Feature", "properties": { "50": 0.414, "retreat_50": 7.98 }, "geometry": { "type": "Point", "coordinates": [ 171.358193569057249, -44.275832974973639 ] } },
{ "type": "Feature", "properties": { "50": 0.414, "retreat_50": 8.7 }, "geometry": { "type": "Point", "coordinates": [ 171.35755659887036, -44.276285752388937 ] } },
{ "type": "Feature", "properties": { "50": 0.414, "retreat_50": 8.27 }, "geometry": { "type": "Point", "coordinates": [ 171.356926944272516, -44.276744445994289 ] } },
{ "type": "Feature", "properties": { "50": 0.414, "retreat_50": 8.22 }, "geometry": { "type": "Point", "coordinates": [ 171.356276837221458, -44.277188428792456 ] } },
{ "type": "Feature", "properties": { "50": 0.414, "retreat_50": 7.53 }, "geometry": { "type": "Point", "coordinates": [ 171.355636046524552, -44.277639107215521 ] } },
{ "type": "Feature", "properties": { "50": 0.414, "retreat_50": 7.94 }, "geometry": { "type": "Point", "coordinates": [ 171.354959830716695, -44.278064307876605 ] } },
{ "type": "Feature", "properties": { "50": 0.414, "retreat_50": 8.8 }, "geometry": { "type": "Point", "coordinates": [ 171.354255584358413, -44.278469347868779 ] } },
{ "type": "Feature", "properties": { "50": 0.414, "retreat_50": 9.77 }, "geometry": { "type": "Point", "coordinates": [ 171.353538634086703, -44.278865248333688 ] } },
{ "type": "Feature", "properties": { "50": 0.414, "retreat_50": 9.74 }, "geometry": { "type": "Point", "coordinates": [ 171.352898439197247, -44.279316340126122 ] } },
{ "type": "Feature", "properties": { "50": 0.418, "retreat_50": 9.83 }, "geometry": { "type": "Point", "coordinates": [ 168.141329902299162, -44.2189138404568 ] } },
{ "type": "Feature", "properties": { "50": 0.418, "retreat_50": 9.92 }, "geometry": { "type": "Point", "coordinates": [ 168.142120847995074, -44.218574160974441 ] } },
{ "type": "Feature", "properties": { "50": 0.418, "retreat_50": 11.13 }, "geometry": { "type": "Point", "coordinates": [ 168.142845044241, -44.218185244783321 ] } },
{ "type": "Feature", "properties": { "50": 0.418, "retreat_50": 10.44 }, "geometry": { "type": "Point", "coordinates": [ 168.143501144235103, -44.217746099562596 ] } },
{ "type": "Feature", "properties": { "50": 0.418, "retreat_50": 10.41 }, "geometry": { "type": "Point", "coordinates": [ 168.144165073251941, -44.217312724712642 ] } },
{ "type": "Feature", "properties": { "50": 0.418, "retreat_50": 9.78 }, "geometry": { "type": "Point", "coordinates": [ 168.144781664215429, -44.216844431863898 ] } },
{ "type": "Feature", "properties": { "50": 0.418, "retreat_50": 9.31 }, "geometry": { "type": "Point", "coordinates": [ 168.145354898821353, -44.21634415802199 ] } },
{ "type": "Feature", "properties": { "50": 0.418, "retreat_50": 9.98 }, "geometry": { "type": "Point", "coordinates": [ 168.145899695131334, -44.21582290608977 ] } },
{ "type": "Feature", "properties": { "50": 0.418, "retreat_50": 11.94 }, "geometry": { "type": "Point", "coordinates": [ 168.146405929954199, -44.215269114774429 ] } },
{ "type": "Feature", "properties": { "50": 0.418, "retreat_50": 11.13 }, "geometry": { "type": "Point", "coordinates": [ 168.146914300127008, -44.214709934166457 ] } },
{ "type": "Feature", "properties": { "50": 0.418, "retreat_50": 11.1 }, "geometry": { "type": "Point", "coordinates": [ 168.147447032824772, -44.214170676258966 ] } },
{ "type": "Feature", "properties": { "50": 0.418, "retreat_50": 10.4 }, "geometry": { "type": "Point", "coordinates": [ 168.14792589280961, -44.21362461855535 ] } },
{ "type": "Feature", "properties": { "50": 0.418, "retreat_50": 9.65 }, "geometry": { "type": "Point", "coordinates": [ 168.148373712728755, -44.213066696994481 ] } },
{ "type": "Feature", "properties": { "50": 0.408, "retreat_50": 7.84 }, "geometry": { "type": "Point", "coordinates": [ 168.148815377389411, -44.212506418246669 ] } },
{ "type": "Feature", "properties": { "50": 0.408, "retreat_50": 9.77 }, "geometry": { "type": "Point", "coordinates": [ 168.149171363418873, -44.21191340236998 ] } },
{ "type": "Feature", "properties": { "50": 0.408, "retreat_50": 11.84 }, "geometry": { "type": "Point", "coordinates": [ 168.149543065660964, -44.211326384753605 ] } },
{ "type": "Feature", "properties": { "50": 0.408, "retreat_50": 13.41 }, "geometry": { "type": "Point", "coordinates": [ 168.14987279915124, -44.210719013455325 ] } },
{ "type": "Feature", "properties": { "50": 0.408, "retreat_50": 10.89 }, "geometry": { "type": "Point", "coordinates": [ 168.150211401282149, -44.210104835729588 ] } },
{ "type": "Feature", "properties": { "50": 0.408, "retreat_50": 11.44 }, "geometry": { "type": "Point", "coordinates": [ 168.150484710582191, -44.209478455865103 ] } },
{ "type": "Feature", "properties": { "50": 0.408, "retreat_50": 9.13 }, "geometry": { "type": "Point", "coordinates": [ 168.150827547866953, -44.208883564299832 ] } },
{ "type": "Feature", "properties": { "50": 0.408, "retreat_50": 10.89 }, "geometry": { "type": "Point", "coordinates": [ 168.151146755499468, -44.208282242460598 ] } },
{ "type": "Feature", "properties": { "50": 0.408, "retreat_50": 10.12 }, "geometry": { "type": "Point", "coordinates": [ 168.151435932629994, -44.207672750207671 ] } },
{ "type": "Feature", "properties": { "50": 0.408, "retreat_50": 9.93 }, "geometry": { "type": "Point", "coordinates": [ 168.151704860500246, -44.207057746644267 ] } },
{ "type": "Feature", "properties": { "50": 0.408, "retreat_50": 17.79 }, "geometry": { "type": "Point", "coordinates": [ 168.151957062580891, -44.206438189630383 ] } },
{ "type": "Feature", "properties": { "50": 0.408, "retreat_50": 11.62 }, "geometry": { "type": "Point", "coordinates": [ 168.152239275948006, -44.205823336610564 ] } },
{ "type": "Feature", "properties": { "50": 0.408, "retreat_50": 12.58 }, "geometry": { "type": "Point", "coordinates": [ 168.152547408401517, -44.205215867544311 ] } },
{ "type": "Feature", "properties": { "50": 0.418, "retreat_50": 16.35 }, "geometry": { "type": "Point", "coordinates": [ 168.243998393665663, -44.157946407925131 ] } },
{ "type": "Feature", "properties": { "50": 0.418, "retreat_50": 13.0 }, "geometry": { "type": "Point", "coordinates": [ 168.244931610898107, -44.157853428252523 ] } },
{ "type": "Feature", "properties": { "50": 0.418, "retreat_50": 16.82 }, "geometry": { "type": "Point", "coordinates": [ 168.24577344426271, -44.157623625147103 ] } },
{ "type": "Feature", "properties": { "50": 0.418, "retreat_50": 16.95 }, "geometry": { "type": "Point", "coordinates": [ 168.246534292862123, -44.157259378873448 ] } },
{ "type": "Feature", "properties": { "50": 0.418, "retreat_50": 21.25 }, "geometry": { "type": "Point", "coordinates": [ 168.247283344390695, -44.156884664338456 ] } },
{ "type": "Feature", "properties": { "50": 0.418, "retreat_50": 23.25 }, "geometry": { "type": "Point", "coordinates": [ 168.247906547104293, -44.156400464004371 ] } },
{ "type": "Feature", "properties": { "50": 0.418, "retreat_50": 16.6 }, "geometry": { "type": "Point", "coordinates": [ 168.24857035530394, -44.155964902768297 ] } },
{ "type": "Feature", "properties": { "50": 0.418, "retreat_50": 16.72 }, "geometry": { "type": "Point", "coordinates": [ 168.249301958026621, -44.155590170599261 ] } },
{ "type": "Feature", "properties": { "50": 0.418, "retreat_50": 16.73 }, "geometry": { "type": "Point", "coordinates": [ 168.249988302338977, -44.1551748248013 ] } },
{ "type": "Feature", "properties": { "50": 0.418, "retreat_50": 16.59 }, "geometry": { "type": "Point", "coordinates": [ 168.250639775837129, -44.154724189584016 ] } },
{ "type": "Feature", "properties": { "50": 0.418, "retreat_50": 15.27 }, "geometry": { "type": "Point", "coordinates": [ 168.25130648019632, -44.154284576528987 ] } },
{ "type": "Feature", "properties": { "50": 0.418, "retreat_50": 16.65 }, "geometry": { "type": "Point", "coordinates": [ 168.251839378675697, -44.15375691665988 ] } },
{ "type": "Feature", "properties": { "50": 0.418, "retreat_50": 15.06 }, "geometry": { "type": "Point", "coordinates": [ 168.252417627365531, -44.153263650724817 ] } },
{ "type": "Feature", "properties": { "50": 0.418, "retreat_50": 13.99 }, "geometry": { "type": "Point", "coordinates": [ 168.252949742228026, -44.152744790764494 ] } },
{ "type": "Feature", "properties": { "50": 0.418, "retreat_50": 15.24 }, "geometry": { "type": "Point", "coordinates": [ 168.253463989536357, -44.152216015450513 ] } },
{ "type": "Feature", "properties": { "50": 0.418, "retreat_50": 15.1 }, "geometry": { "type": "Point", "coordinates": [ 168.253964147087004, -44.151664273997497 ] } },
{ "type": "Feature", "properties": { "50": 0.418, "retreat_50": 13.98 }, "geometry": { "type": "Point", "coordinates": [ 168.254409718393305, -44.151089257204745 ] } },
{ "type": "Feature", "properties": { "50": 0.418, "retreat_50": 15.34 }, "geometry": { "type": "Point", "coordinates": [ 168.254884444142363, -44.150532948881185 ] } },
{ "type": "Feature", "properties": { "50": 0.418, "retreat_50": 16.64 }, "geometry": { "type": "Point", "coordinates": [ 168.255227138966461, -44.14993701707256 ] } },
{ "type": "Feature", "properties": { "50": 0.418, "retreat_50": 15.17 }, "geometry": { "type": "Point", "coordinates": [ 168.25539131156043, -44.149269851456509 ] } },
{ "type": "Feature", "properties": { "50": 0.418, "retreat_50": 15.2 }, "geometry": { "type": "Point", "coordinates": [ 168.255568073498637, -44.148631064563716 ] } }
]
}
