{"type":"Feature","properties":{},"geometry":{"type":"LineString","coordinates":[[173.06855,-41.190697],[173.067954,-41.190011],[173.067514,-41.189462],[173.067203,-41.188755],[173.067042,-41.188238],[173.06693,-41.187702],[173.066785,-41.187197],[173.066735,-41.186768],[173.066749,-41.186599],[173.066569,-41.186323],[173.066451,-41.186136],[173.066264,-41.185801],[173.066179,-41.18554],[173.06605,-41.185171],[173.065939,-41.18465],[173.065892,-41.184404],[173.065808,-41.184045],[173.065693,-41.183915],[173.065417,-41.183676],[173.065232,-41.183505],[173.064816,-41.183142]]}}